{
"type": "FeatureCollection",
"features": [
{
"type": "Feature",
"geometry": {
"type": "Point",
"coordinates": [
11.19567,
60.28464
]
},
"properties": {
"elv": "Andelva",
"km": 4.4,
"z": 130.46,
"S": 0.02,
"Q": 60.0,
"w": 38.0,
"w_q": 23.24,
"h": 0.61,
"tau": 98.17,
"tau_c": 93.12,
"omega": 253.14,
"M": 1.05,
"D": 0.29,
"R": 0.84,
"sving": 0.73,
"os": 0.1,
"os_navn": "Kjeldalsbekken",
"foss": 0.56,
"foss_drop": 4.71,
"juv": 0.0,
"B": 0.74,
"frac_fav": 0.35,
"d_gull_km": 9.95,
"berg": "Granittisk gneis | Granittisk biotittgneis, migmatittisk | Idefjorden litotektoniske enhet",
"p_raw": 0.35,
"A_km2": 622.41,
"gate": 1.0,
"P": 100.0,
"rank": 1,
"klasse": "A",
"navn": "Bønsdalen (Andelva)",
"hvorfor": "Foss/stryk rett oppstrøms (5 m fall på 100 m) – fossekulp og fjell i dagen. Skarp sving – grav på innersvingen og bak store steiner. τ = 98 Pa ≈ 1.1× terskelen: sand og grus flyttes ved flom, gull blir liggende (retensjon). Berggrunn: Granittisk gneis (35 % gunstig oppstrøms).",
"s2_anomali": 2.87,
"s2_feox_z": -0.43,
"satsjekk": "Automatisk bildeanalyse: dypt/mørkt vann."
}
},
{
"type": "Feature",
"geometry": {
"type": "Point",
"coordinates": [
11.27852,
60.39818
]
},
"properties": {
"elv": "Holtåa",
"km": 1.4,
"z": 231.97,
"S": 0.03,
"Q": 4.35,
"w": 18.77,
"w_q": 6.26,
"h": 0.16,
"tau": 45.02,
"tau_c": 121.91,
"omega": 63.72,
"M": 0.37,
"D": 0.03,
"R": 0.07,
"sving": 0.14,
"os": 0.99,
"os_navn": "sideelv",
"foss": 1.0,
"foss_drop": 4.6,
"juv": 0.0,
"B": 0.87,
"frac_fav": 1.0,
"d_gull_km": 4.09,
"berg": "Gabbro | Gabbro, stedvis mindre ultrabasiske kropper, delvis omdannet til amfibolitt eller kleberstein | Idefjorden litotektoniske enhet",
"p_raw": 0.3,
"A_km2": 43.54,
"gate": 1.0,
"P": 83.94,
"rank": 2,
"klasse": "A",
"navn": "Langbakken (Holtåa)",
"hvorfor": "Foss/stryk rett oppstrøms (5 m fall på 100 m) – fossekulp og fjell i dagen. Os: sideelv kommer inn her – grus og tyngre materiale legges i osen og bankehodet nedenfor. Berggrunn: Gabbro (100 % gunstig oppstrøms). NGU-registrert gullforekomst 4.1 km unna.",
"s2_anomali": null,
"s2_feox_z": null,
"satsjekk": "Automatisk bildeanalyse: dypt/mørkt vann, tett vegetasjon – elva delvis skjult."
}
},
{
"type": "Feature",
"geometry": {
"type": "Point",
"coordinates": [
11.24436,
60.34249
]
},
"properties": {
"elv": "bekk",
"km": 0.1,
"z": 128.85,
"S": 0.01,
"Q": 85.39,
"w": 51.67,
"w_q": 27.72,
"h": 0.71,
"tau": 74.6,
"tau_c": 75.15,
"omega": 172.57,
"M": 0.99,
"D": 0.0,
"R": 0.79,
"sving": 0.28,
"os": 0.61,
"os_navn": "sideelv",
"foss": 0.0,
"foss_drop": 0.0,
"juv": 0.0,
"B": 0.87,
"frac_fav": 0.4,
"d_gull_km": 3.17,
"berg": "",
"p_raw": 0.29,
"A_km2": 853.89,
"gate": 1.0,
"P": 81.51,
"rank": 3,
"klasse": "A",
"navn": "Kommisrud (bekk)",
"hvorfor": "Os: sideelv kommer inn her – grus og tyngre materiale legges i osen og bankehodet nedenfor. τ = 75 Pa ≈ 1.0× terskelen: sand og grus flyttes ved flom, gull blir liggende (retensjon). NGU-registrert gullforekomst 3.2 km unna.",
"s2_anomali": 0.94,
"s2_feox_z": -0.43,
"satsjekk": "Automatisk bildeanalyse: tett vegetasjon – elva delvis skjult."
}
},
{
"type": "Feature",
"geometry": {
"type": "Point",
"coordinates": [
11.25762,
60.32019
]
},
"properties": {
"elv": "Andelva",
"km": 10.6,
"z": 130.02,
"S": 0.01,
"Q": 60.0,
"w": 46.0,
"w_q": 23.24,
"h": 0.61,
"tau": 68.34,
"tau_c": 78.16,
"omega": 147.32,
"M": 0.87,
"D": 0.04,
"R": 0.67,
"sving": 0.23,
"os": 0.0,
"os_navn": "",
"foss": 1.0,
"foss_drop": 6.29,
"juv": 0.0,
"B": 0.8,
"frac_fav": 0.35,
"d_gull_km": 4.9,
"berg": "Granittisk gneis | Granittisk biotittgneis, migmatittisk | Idefjorden litotektoniske enhet",
"p_raw": 0.29,
"A_km2": 727.8,
"gate": 1.0,
"P": 81.15,
"rank": 4,
"klasse": "A",
"navn": "Bårlidalen (Andelva)",
"hvorfor": "Foss/stryk rett oppstrøms (6 m fall på 100 m) – fossekulp og fjell i dagen. τ = 68 Pa ≈ 0.9× terskelen: sand og grus flyttes ved flom, gull blir liggende (retensjon). Berggrunn: Granittisk gneis (35 % gunstig oppstrøms). NGU-registrert gullforekomst 4.9 km unna.",
"s2_anomali": 0.72,
"s2_feox_z": -0.54,
"satsjekk": "Automatisk bildeanalyse: ingen tydelige trekk."
}
},
{
"type": "Feature",
"geometry": {
"type": "Point",
"coordinates": [
11.17093,
60.30184
]
},
"properties": {
"elv": "Andelva",
"km": 1.3,
"z": 165.59,
"S": 0.01,
"Q": 60.0,
"w": 57.83,
"w_q": 23.24,
"h": 0.51,
"tau": 62.83,
"tau_c": 81.38,
"omega": 127.04,
"M": 0.77,
"D": 0.01,
"R": 0.54,
"sving": 0.65,
"os": 0.0,
"os_navn": "",
"foss": 0.98,
"foss_drop": 6.55,
"juv": 0.0,
"B": 0.74,
"frac_fav": 0.35,
"d_gull_km": 9.24,
"berg": "Granittisk gneis | Granittisk biotittgneis, migmatittisk | Idefjorden litotektoniske enhet",
"p_raw": 0.28,
"A_km2": 605.28,
"gate": 1.0,
"P": 79.96,
"rank": 5,
"klasse": "A",
"navn": "Ludvigsrud (Andelva)",
"hvorfor": "Foss/stryk rett oppstrøms (7 m fall på 100 m) – fossekulp og fjell i dagen. Skarp sving – grav på innersvingen og bak store steiner. Berggrunn: Granittisk gneis (35 % gunstig oppstrøms).",
"s2_anomali": 2.2,
"s2_feox_z": 1.39,
"satsjekk": "Automatisk bildeanalyse: grus/sandbanke synlig."
}
},
{
"type": "Feature",
"geometry": {
"type": "Point",
"coordinates": [
11.29398,
60.30146
]
},
"properties": {
"elv": "Jøndalsåa",
"km": 4.4,
"z": 133.06,
"S": 0.03,
"Q": 5.64,
"w": 21.37,
"w_q": 7.12,
"h": 0.17,
"tau": 55.01,
"tau_c": 133.17,
"omega": 86.49,
"M": 0.41,
"D": 0.08,
"R": 0.1,
"sving": 0.42,
"os": 0.39,
"os_navn": "sideelv",
"foss": 1.0,
"foss_drop": 10.17,
"juv": 0.0,
"B": 0.9,
"frac_fav": 1.0,
"d_gull_km": 6.72,
"berg": "Glimmergneis | Biotitt-hornblendegneis, migmatittisk, stedvis med bånd av amfibolitt | Idefjorden litotektoniske enhet",
"p_raw": 0.28,
"A_km2": 56.36,
"gate": 1.0,
"P": 79.66,
"rank": 6,
"klasse": "A",
"navn": "Vestre Jøndal (Jøndalsåa)",
"hvorfor": "Foss/stryk rett oppstrøms (10 m fall på 100 m) – fossekulp og fjell i dagen. Berggrunn: Glimmergneis (100 % gunstig oppstrøms). NGU-registrert gullforekomst 6.7 km unna.",
"s2_anomali": 2.34,
"s2_feox_z": -1.37,
"satsjekk": "Automatisk bildeanalyse: dypt/mørkt vann."
}
},
{
"type": "Feature",
"geometry": {
"type": "Point",
"coordinates": [
11.26503,
60.38358
]
},
"properties": {
"elv": "Holtåa",
"km": 0.2,
"z": 158.3,
"S": 0.07,
"Q": 4.78,
"w": 19.68,
"w_q": 6.56,
"h": 0.13,
"tau": 88.58,
"tau_c": 194.03,
"omega": 169.09,
"M": 0.46,
"D": 0.15,
"R": 0.14,
"sving": 0.47,
"os": 0.77,
"os_navn": "sideelv",
"foss": 1.0,
"foss_drop": 16.58,
"juv": 0.0,
"B": 0.66,
"frac_fav": 0.4,
"d_gull_km": 2.72,
"berg": "",
"p_raw": 0.26,
"A_km2": 47.8,
"gate": 1.0,
"P": 74.44,
"rank": 7,
"klasse": "A",
"navn": "Holt (Holtåa)",
"hvorfor": "Foss/stryk rett oppstrøms (17 m fall på 100 m) – fossekulp og fjell i dagen. Os: sideelv kommer inn her – grus og tyngre materiale legges i osen og bankehodet nedenfor. NGU-registrert gullforekomst 2.7 km unna.",
"s2_anomali": 1.63,
"s2_feox_z": 0.96,
"satsjekk": "Automatisk bildeanalyse: dypt/mørkt vann, tett vegetasjon – elva delvis skjult."
}
},
{
"type": "Feature",
"geometry": {
"type": "Point",
"coordinates": [
11.18922,
60.29717
]
},
"properties": {
"elv": "Andelva",
"km": 2.7,
"z": 150.59,
"S": 0.01,
"Q": 60.0,
"w": 51.83,
"w_q": 23.24,
"h": 0.54,
"tau": 70.48,
"tau_c": 84.22,
"omega": 151.82,
"M": 0.84,
"D": -0.0,
"R": 0.62,
"sving": 0.26,
"os": 0.0,
"os_navn": "",
"foss": 0.99,
"foss_drop": 6.81,
"juv": 0.03,
"B": 0.75,
"frac_fav": 0.35,
"d_gull_km": 8.98,
"berg": "Granittisk gneis | Granittisk biotittgneis, migmatittisk | Idefjorden litotektoniske enhet",
"p_raw": 0.26,
"A_km2": 617.33,
"gate": 1.0,
"P": 72.52,
"rank": 8,
"klasse": "A",
"navn": "Venjarfossen (Andelva)",
"hvorfor": "Foss/stryk rett oppstrøms (7 m fall på 100 m) – fossekulp og fjell i dagen. τ = 70 Pa ≈ 0.8× terskelen: sand og grus flyttes ved flom, gull blir liggende (retensjon). Berggrunn: Granittisk gneis (35 % gunstig oppstrøms).",
"s2_anomali": 1.3,
"s2_feox_z": 0.91,
"satsjekk": "Automatisk bildeanalyse: grus/sandbanke synlig."
}
},
{
"type": "Feature",
"geometry": {
"type": "Point",
"coordinates": [
11.38016,
60.26128
]
},
"properties": {
"elv": "Kampåa",
"km": 2.3,
"z": 191.42,
"S": 0.02,
"Q": 5.68,
"w": 21.48,
"w_q": 7.15,
"h": 0.21,
"tau": 32.98,
"tau_c": 92.2,
"omega": 41.58,
"M": 0.36,
"D": 0.04,
"R": 0.06,
"sving": 0.57,
"os": 0.83,
"os_navn": "sideelv",
"foss": 0.72,
"foss_drop": 4.59,
"juv": 0.0,
"B": 0.73,
"frac_fav": 0.61,
"d_gull_km": 7.15,
"berg": "Glimmergneis | Biotitt-hornblendegneis, migmatittisk, stedvis med bånd av amfibolitt | Idefjorden litotektoniske enhet",
"p_raw": 0.25,
"A_km2": 56.81,
"gate": 1.0,
"P": 70.07,
"rank": 9,
"klasse": "A",
"navn": "Nordbekk (Kampåa)",
"hvorfor": "Foss/stryk rett oppstrøms (5 m fall på 100 m) – fossekulp og fjell i dagen. Os: sideelv kommer inn her – grus og tyngre materiale legges i osen og bankehodet nedenfor. Skarp sving – grav på innersvingen og bak store steiner. Berggrunn: Glimmergneis (61 % gunstig oppstrøms). NGU-registrert gullforekomst 7.2 km unna.",
"s2_anomali": 0.57,
"s2_feox_z": -0.4,
"satsjekk": "Automatisk bildeanalyse: dypt/mørkt vann, tett vegetasjon – elva delvis skjult."
}
},
{
"type": "Feature",
"geometry": {
"type": "Point",
"coordinates": [
11.16166,
60.29698
]
},
"properties": {
"elv": "Andelva",
"km": 0.1,
"z": 172.59,
"S": 0.0,
"Q": 60.0,
"w": 35.89,
"w_q": 23.24,
"h": 1.52,
"tau": 14.06,
"tau_c": 22.35,
"omega": 15.45,
"M": 0.63,
"D": 0.24,
"R": 0.35,
"sving": 0.98,
"os": 0.0,
"os_navn": "",
"foss": 0.0,
"foss_drop": 0.0,
"juv": 0.26,
"B": 0.74,
"frac_fav": 0.35,
"d_gull_km": 9.99,
"berg": "Granittisk gneis | Granittisk biotittgneis, migmatittisk | Idefjorden litotektoniske enhet",
"p_raw": 0.23,
"A_km2": 604.48,
"gate": 1.0,
"P": 64.24,
"rank": 10,
"klasse": "B",
"navn": "Mattises (Andelva)",
"hvorfor": "Skarp sving – grav på innersvingen og bak store steiner. Berggrunn: Granittisk gneis (35 % gunstig oppstrøms).",
"s2_anomali": 2.87,
"s2_feox_z": -0.53,
"satsjekk": "Automatisk bildeanalyse: grus/sandbanke synlig."
}
},
{
"type": "Feature",
"geometry": {
"type": "Point",
"coordinates": [
11.32676,
60.34829
]
},
"properties": {
"elv": "bekk",
"km": 3.6,
"z": 218.68,
"S": 0.05,
"Q": 3.24,
"w": 12.13,
"w_q": 5.4,
"h": 0.15,
"tau": 72.2,
"tau_c": 160.33,
"omega": 127.15,
"M": 0.45,
"D": 0.0,
"R": 0.13,
"sving": 0.08,
"os": 0.41,
"os_navn": "Rennåa",
"foss": 1.0,
"foss_drop": 10.93,
"juv": 0.0,
"B": 0.84,
"frac_fav": 1.0,
"d_gull_km": 2.66,
"berg": "Gabbro | Gabbro, stedvis mindre ultrabasiske kropper, delvis omdannet til amfibolitt eller kleberstein | Idefjorden litotektoniske enhet",
"p_raw": 0.22,
"A_km2": 32.44,
"gate": 1.0,
"P": 60.78,
"rank": 11,
"klasse": "B",
"navn": "Myrvoll (bekk)",
"hvorfor": "Foss/stryk rett oppstrøms (11 m fall på 100 m) – fossekulp og fjell i dagen. Berggrunn: Gabbro (100 % gunstig oppstrøms). NGU-registrert gullforekomst 2.7 km unna.",
"s2_anomali": null,
"s2_feox_z": null,
"satsjekk": "Automatisk bildeanalyse: dypt/mørkt vann, tett vegetasjon – elva delvis skjult."
}
},
{
"type": "Feature",
"geometry": {
"type": "Point",
"coordinates": [
11.39287,
60.29738
]
},
"properties": {
"elv": "bekk",
"km": 0.6,
"z": 238.87,
"S": 0.08,
"Q": 4.34,
"w": 13.67,
"w_q": 6.25,
"h": 0.15,
"tau": 111.39,
"tau_c": 203.26,
"omega": 242.61,
"M": 0.55,
"D": 0.0,
"R": 0.24,
"sving": 0.4,
"os": 0.23,
"os_navn": "sideelv",
"foss": 1.0,
"foss_drop": 13.96,
"juv": 0.0,
"B": 0.64,
"frac_fav": 0.4,
"d_gull_km": 3.19,
"berg": "",
"p_raw": 0.2,
"A_km2": 43.41,
"gate": 1.0,
"P": 55.66,
"rank": 12,
"klasse": "B",
"navn": "Nedre Rudseter (bekk)",
"hvorfor": "Foss/stryk rett oppstrøms (14 m fall på 100 m) – fossekulp og fjell i dagen. NGU-registrert gullforekomst 3.2 km unna.",
"s2_anomali": 0.92,
"s2_feox_z": -0.25,
"satsjekk": "Automatisk bildeanalyse: dypt/mørkt vann, tett vegetasjon – elva delvis skjult."
}
},
{
"type": "Feature",
"geometry": {
"type": "Point",
"coordinates": [
11.30741,
60.30778
]
},
"properties": {
"elv": "Jøndalsåa",
"km": 3.2,
"z": 176.41,
"S": 0.02,
"Q": 5.45,
"w": 20.99,
"w_q": 7.0,
"h": 0.19,
"tau": 39.18,
"tau_c": 105.19,
"omega": 53.07,
"M": 0.37,
"D": 0.09,
"R": 0.07,
"sving": 0.16,
"os": 0.0,
"os_navn": "",
"foss": 1.0,
"foss_drop": 5.04,
"juv": 0.0,
"B": 0.9,
"frac_fav": 1.0,
"d_gull_km": 6.11,
"berg": "Glimmergneis | Biotitt-hornblendegneis, migmatittisk, stedvis med bånd av amfibolitt | Idefjorden litotektoniske enhet",
"p_raw": 0.19,
"A_km2": 54.46,
"gate": 1.0,
"P": 52.49,
"rank": 13,
"klasse": "B",
"navn": "Enger (Jøndalsåa)",
"hvorfor": "Foss/stryk rett oppstrøms (5 m fall på 100 m) – fossekulp og fjell i dagen. Berggrunn: Glimmergneis (100 % gunstig oppstrøms). NGU-registrert gullforekomst 6.1 km unna.",
"s2_anomali": 4.0,
"s2_feox_z": 1.06,
"satsjekk": "Automatisk bildeanalyse: tett vegetasjon – elva delvis skjult."
}
},
{
"type": "Feature",
"geometry": {
"type": "Point",
"coordinates": [
11.28129,
60.40482
]
},
"properties": {
"elv": "Holtåa",
"km": 0.6,
"z": 248.77,
"S": 0.03,
"Q": 3.89,
"w": 17.88,
"w_q": 5.92,
"h": 0.16,
"tau": 42.07,
"tau_c": 119.37,
"omega": 57.29,
"M": 0.35,
"D": 0.08,
"R": 0.05,
"sving": 0.22,
"os": 0.0,
"os_navn": "",
"foss": 1.0,
"foss_drop": 4.83,
"juv": 0.0,
"B": 0.86,
"frac_fav": 1.0,
"d_gull_km": 3.83,
"berg": "Gabbro | Gabbro, stedvis mindre ultrabasiske kropper, delvis omdannet til amfibolitt eller kleberstein | Idefjorden litotektoniske enhet",
"p_raw": 0.18,
"A_km2": 38.88,
"gate": 1.0,
"P": 51.88,
"rank": 14,
"klasse": "B",
"navn": "Gunnesfallet (Holtåa)",
"hvorfor": "Foss/stryk rett oppstrøms (5 m fall på 100 m) – fossekulp og fjell i dagen. Berggrunn: Gabbro (100 % gunstig oppstrøms). NGU-registrert gullforekomst 3.8 km unna.",
"s2_anomali": null,
"s2_feox_z": null,
"satsjekk": "Automatisk bildeanalyse: dypt/mørkt vann, tett vegetasjon – elva delvis skjult."
}
},
{
"type": "Feature",
"geometry": {
"type": "Point",
"coordinates": [
11.29002,
60.44482
]
},
"properties": {
"elv": "Lysjøåa",
"km": 0.5,
"z": 282.6,
"S": 0.03,
"Q": 2.56,
"w": 14.21,
"w_q": 4.8,
"h": 0.14,
"tau": 38.32,
"tau_c": 121.02,
"omega": 48.76,
"M": 0.32,
"D": 0.13,
"R": 0.03,
"sving": 0.34,
"os": 0.36,
"os_navn": "sideelv",
"foss": 0.72,
"foss_drop": 8.03,
"juv": 0.0,
"B": 0.74,
"frac_fav": 0.68,
"d_gull_km": 2.9,
"berg": "Gabbro | Gabbro, stedvis mindre ultrabasiske kropper, delvis omdannet til amfibolitt eller kleberstein | Østre segment (&#39;Eastern Segment&#39;)",
"p_raw": 0.18,
"A_km2": 25.58,
"gate": 1.0,
"P": 51.37,
"rank": 15,
"klasse": "B",
"navn": "Dorrsvangen (Lysjøåa)",
"hvorfor": "Foss/stryk rett oppstrøms (8 m fall på 100 m) – fossekulp og fjell i dagen. Berggrunn: Gabbro (68 % gunstig oppstrøms). NGU-registrert gullforekomst 2.9 km unna.",
"s2_anomali": null,
"s2_feox_z": null,
"satsjekk": "Automatisk bildeanalyse: tett vegetasjon – elva delvis skjult."
}
},
{
"type": "Feature",
"geometry": {
"type": "Point",
"coordinates": [
11.27281,
60.31736
]
},
"properties": {
"elv": "Vorma",
"km": 10.1,
"z": 122.87,
"S": 0.0,
"Q": 900.0,
"w": 228.0,
"w_q": 90.0,
"h": 4.92,
"tau": 4.82,
"tau_c": 11.65,
"omega": 3.87,
"M": 0.41,
"D": 0.0,
"R": 0.1,
"sving": 0.31,
"os": 0.94,
"os_navn": "Andelva",
"foss": 0.0,
"foss_drop": 0.0,
"juv": 0.0,
"B": 0.81,
"frac_fav": 0.35,
"d_gull_km": 5.0,
"berg": "Granittisk gneis | Granittisk biotittgneis, migmatittisk | Idefjorden litotektoniske enhet",
"p_raw": 0.17,
"A_km2": 946.67,
"gate": 1.0,
"P": 48.96,
"rank": 16,
"klasse": "B",
"navn": "Brøstet (Vorma)",
"hvorfor": "Os: Andelva kommer inn her – grus og tyngre materiale legges i osen og bankehodet nedenfor. Berggrunn: Granittisk gneis (35 % gunstig oppstrøms). NGU-registrert gullforekomst 5.0 km unna.",
"s2_anomali": 4.0,
"s2_feox_z": -1.08,
"satsjekk": "Automatisk bildeanalyse: dypt/mørkt vann."
}
},
{
"type": "Feature",
"geometry": {
"type": "Point",
"coordinates": [
11.27429,
60.39165
]
},
"properties": {
"elv": "Holtåa",
"km": 2.2,
"z": 208.64,
"S": 0.03,
"Q": 4.42,
"w": 18.92,
"w_q": 6.31,
"h": 0.16,
"tau": 50.95,
"tau_c": 132.73,
"omega": 76.16,
"M": 0.38,
"D": 0.0,
"R": 0.08,
"sving": 0.11,
"os": 0.0,
"os_navn": "",
"foss": 1.0,
"foss_drop": 6.63,
"juv": 0.0,
"B": 0.87,
"frac_fav": 1.0,
"d_gull_km": 3.41,
"berg": "Gabbro | Gabbro, stedvis mindre ultrabasiske kropper, delvis omdannet til amfibolitt eller kleberstein | Idefjorden litotektoniske enhet",
"p_raw": 0.16,
"A_km2": 44.23,
"gate": 1.0,
"P": 45.88,
"rank": 17,
"klasse": "B",
"navn": "Langbakken (Holtåa)",
"hvorfor": "Foss/stryk rett oppstrøms (7 m fall på 100 m) – fossekulp og fjell i dagen. Berggrunn: Gabbro (100 % gunstig oppstrøms). NGU-registrert gullforekomst 3.4 km unna.",
"s2_anomali": 0.0,
"s2_feox_z": -0.32,
"satsjekk": "Automatisk bildeanalyse: tett vegetasjon – elva delvis skjult."
}
},
{
"type": "Feature",
"geometry": {
"type": "Point",
"coordinates": [
11.28795,
60.28903
]
},
"properties": {
"elv": "bekk",
"km": 0.5,
"z": 138.65,
"S": 0.13,
"Q": 4.63,
"w": 14.02,
"w_q": 6.46,
"h": 0.13,
"tau": 160.8,
"tau_c": 260.01,
"omega": 412.89,
"M": 0.62,
"D": 0.0,
"R": 0.34,
"sving": 0.21,
"os": 0.0,
"os_navn": "",
"foss": 1.0,
"foss_drop": 15.83,
"juv": 0.0,
"B": 0.6,
"frac_fav": 0.4,
"d_gull_km": 8.09,
"berg": "",
"p_raw": 0.16,
"A_km2": 46.31,
"gate": 1.0,
"P": 44.92,
"rank": 18,
"klasse": "C",
"navn": "Søndre Strand (bekk)",
"hvorfor": "Foss/stryk rett oppstrøms (16 m fall på 100 m) – fossekulp og fjell i dagen.",
"s2_anomali": 4.0,
"s2_feox_z": -1.62,
"satsjekk": "Automatisk bildeanalyse: dypt/mørkt vann, tett vegetasjon – elva delvis skjult."
}
},
{
"type": "Feature",
"geometry": {
"type": "Point",
"coordinates": [
11.24941,
60.38691
]
},
"properties": {
"elv": "Vorma",
"km": 1.6,
"z": 123.07,
"S": 0.0,
"Q": 900.0,
"w": 270.0,
"w_q": 90.0,
"h": 4.42,
"tau": 4.34,
"tau_c": 11.65,
"omega": 3.27,
"M": 0.37,
"D": 0.0,
"R": 0.07,
"sving": 0.22,
"os": 0.9,
"os_navn": "Holtåa",
"foss": 0.0,
"foss_drop": 0.0,
"juv": 0.0,
"B": 0.84,
"frac_fav": 0.35,
"d_gull_km": 3.49,
"berg": "Granittisk gneis | Granittisk biotittgneis, migmatittisk | Idefjorden litotektoniske enhet",
"p_raw": 0.15,
"A_km2": 946.67,
"gate": 1.0,
"P": 43.5,
"rank": 19,
"klasse": "C",
"navn": "Lynesdalsevja (Vorma)",
"hvorfor": "Os: Holtåa kommer inn her – grus og tyngre materiale legges i osen og bankehodet nedenfor. Berggrunn: Granittisk gneis (35 % gunstig oppstrøms). NGU-registrert gullforekomst 3.5 km unna.",
"s2_anomali": 4.0,
"s2_feox_z": -1.05,
"satsjekk": "Automatisk bildeanalyse: ingen tydelige trekk."
}
},
{
"type": "Feature",
"geometry": {
"type": "Point",
"coordinates": [
11.35134,
60.38368
]
},
"properties": {
"elv": "bekk",
"km": 1.1,
"z": 295.45,
"S": 0.07,
"Q": 1.33,
"w": 8.64,
"w_q": 3.46,
"h": 0.1,
"tau": 67.6,
"tau_c": 193.83,
"omega": 107.12,
"M": 0.35,
"D": 0.0,
"R": 0.05,
"sving": 0.12,
"os": 0.5,
"os_navn": "Åa",
"foss": 1.0,
"foss_drop": 12.3,
"juv": 0.0,
"B": 0.59,
"frac_fav": 0.38,
"d_gull_km": 0.8,
"berg": "Granittisk gneis | Granittisk gneis, fin- til middelskornet med lyse årer i sør | Østre segment (&#39;Eastern Segment&#39;)",
"p_raw": 0.15,
"A_km2": 13.32,
"gate": 1.0,
"P": 42.23,
"rank": 20,
"klasse": "C",
"navn": "Millidalen (bekk)",
"hvorfor": "Foss/stryk rett oppstrøms (12 m fall på 100 m) – fossekulp og fjell i dagen. Berggrunn: Granittisk gneis (38 % gunstig oppstrøms). NGU-registrert gullforekomst 0.8 km unna.",
"s2_anomali": null,
"s2_feox_z": null,
"satsjekk": "Automatisk bildeanalyse: dypt/mørkt vann, tett vegetasjon – elva delvis skjult."
}
}
]
}