{"type": "FeatureCollection", "features": [{"type": "Feature", "geometry": {"type": "Point", "coordinates": [11.39657, 60.37768]}, "properties": {"type": "gull", "okey": "6488", "name": "Græsli, hovedbrudd, no. 1", "objtype": "MalmRegistrering", "websub_ntext": "Gull", "sted_verif": "Y", "faktaark": "https://aps.ngu.no/pls/oradb/minres_deposit_fakta.Main?p_objid=6488&p_spraak=N", "s2_oh_z": 4.46, "s2_feox_z": -1.13}}, {"type": "Feature", "geometry": {"type": "Point", "coordinates": [11.36089, 60.38907]}, "properties": {"type": "gull", "okey": "6490", "name": "Gullkis", "objtype": "MalmRegistrering", "websub_ntext": "Gull", "sted_verif": "Y", "faktaark": "https://aps.ngu.no/pls/oradb/minres_deposit_fakta.Main?p_objid=6490&p_spraak=N", "s2_oh_z": -0.32, "s2_feox_z": -0.69}}, {"type": "Feature", "geometry": {"type": "Point", "coordinates": [11.35839, 60.39506]}, "properties": {"type": "gull", "okey": "6491", "name": "Lesja", "objtype": "MalmRegistrering", "websub_ntext": "Gull", "sted_verif": "Y", "faktaark": "https://aps.ngu.no/pls/oradb/minres_deposit_fakta.Main?p_objid=6491&p_spraak=N", "s2_oh_z": 0.98, "s2_feox_z": -0.3}}, {"type": "Feature", "geometry": {"type": "Point", "coordinates": [11.349, 60.43302]}, "properties": {"type": "gull", "okey": "6492", "name": "Brustad", "objtype": "MalmRegistrering", "websub_ntext": "Gull", "sted_verif": "Y", "faktaark": "https://aps.ngu.no/pls/oradb/minres_deposit_fakta.Main?p_objid=6492&p_spraak=N", "s2_oh_z": null, "s2_feox_z": null}}, {"type": "Feature", "geometry": {"type": "Point", "coordinates": [11.34697, 60.43484]}, "properties": {"type": "gull", "okey": "6493", "name": "Eidsvoll", "objtype": "MalmRegistrering", "websub_ntext": "Gull", "sted_verif": "", "faktaark": "https://aps.ngu.no/pls/oradb/minres_deposit_fakta.Main?p_objid=6493&p_spraak=N", "s2_oh_z": null, "s2_feox_z": null}}, {"type": "Feature", "geometry": {"type": "Point", "coordinates": [11.33135, 60.42866]}, "properties": {"type": "gull", "okey": "15863", "name": "Fremmingvangen gruve no. 5", "objtype": "MalmRegistrering", "websub_ntext": "Gull", "sted_verif": "Y", "faktaark": "https://aps.ngu.no/pls/oradb/minres_deposit_fakta.Main?p_objid=15863&p_spraak=N", "s2_oh_z": null, "s2_feox_z": null}}, {"type": "Feature", "geometry": {"type": "Point", "coordinates": [11.36274, 60.39983]}, "properties": {"type": "gull", "okey": "15869", "name": "Røysivangen gruve no. 3", "objtype": "MalmRegistrering", "websub_ntext": "Gull", "sted_verif": "Y", "faktaark": "https://aps.ngu.no/pls/oradb/minres_deposit_fakta.Main?p_objid=15869&p_spraak=N", "s2_oh_z": null, "s2_feox_z": null}}, {"type": "Feature", "geometry": {"type": "Point", "coordinates": [11.3652, 60.37321]}, "properties": {"type": "gull", "okey": "15875", "name": "Botshaugdalen gruve", "objtype": "MalmRegistrering", "websub_ntext": "Gull", "sted_verif": "Y", "faktaark": "https://aps.ngu.no/pls/oradb/minres_deposit_fakta.Main?p_objid=15875&p_spraak=N", "s2_oh_z": -0.19, "s2_feox_z": -0.7}}, {"type": "Feature", "geometry": {"type": "Point", "coordinates": [11.28679, 60.36167]}, "properties": {"type": "gull", "okey": "6489", "name": "Sander", "objtype": "MalmRegistrering", "websub_ntext": "Gull", "sted_verif": "Y", "faktaark": "https://aps.ngu.no/pls/oradb/minres_deposit_fakta.Main?p_objid=6489&p_spraak=N", "s2_oh_z": null, "s2_feox_z": null}}, {"type": "Feature", "geometry": {"type": "Point", "coordinates": [11.16063, 60.42048]}, "properties": {"type": "basemetall", "s2_oh_z": 0.19, "s2_feox_z": -1.59}}, {"type": "Feature", "geometry": {"type": "Point", "coordinates": [11.15661, 60.37339]}, "properties": {"type": "basemetall", "s2_oh_z": null, "s2_feox_z": null}}, {"type": "Feature", "geometry": {"type": "Point", "coordinates": [11.06986, 60.29259]}, "properties": {"type": "basemetall", "s2_oh_z": -1.15, "s2_feox_z": -0.3}}, {"type": "Feature", "geometry": {"type": "Point", "coordinates": [11.05339, 60.2897]}, "properties": {"type": "basemetall", "s2_oh_z": null, "s2_feox_z": null}}, {"type": "Feature", "geometry": {"type": "Point", "coordinates": [11.17759, 60.40941]}, "properties": {"type": "basemetall", "s2_oh_z": 0.68, "s2_feox_z": -0.08}}, {"type": "Feature", "geometry": {"type": "Point", "coordinates": [11.18379, 60.41153]}, "properties": {"type": "basemetall", "s2_oh_z": 0.72, "s2_feox_z": 0.03}}, {"type": "Feature", "geometry": {"type": "Point", "coordinates": [11.17871, 60.38707]}, "properties": {"type": "basemetall", "s2_oh_z": null, "s2_feox_z": null}}, {"type": "Feature", "geometry": {"type": "Point", "coordinates": [11.18274, 60.39793]}, "properties": {"type": "basemetall", "s2_oh_z": -0.38, "s2_feox_z": -0.62}}]}