<?xml version="1.0" encoding="UTF-8"?>
<kml xmlns="http://www.opengis.net/kml/2.2"><Document>
<name>GULLØYE – Eidsvoll</name>
<Style id="kA"><IconStyle><color>ff2b39c0</color><scale>1.1</scale></IconStyle></Style>
<Style id="kB"><IconStyle><color>ff227ee6</color><scale>1.1</scale></IconStyle></Style>
<Style id="kC"><IconStyle><color>ff0fc4f1</color><scale>1.1</scale></IconStyle></Style>
<Placemark><name>1A Bønsdalen (Andelva)</name><styleUrl>#kA</styleUrl><description>P=100. Foss/stryk rett oppstrøms (5 m fall på 100 m) – fossekulp og fjell i dagen. Skarp sving – grav på innersvingen og bak store steiner. τ = 98 Pa ≈ 1.1× terskelen: sand og grus flyttes ved flom, gull blir liggende (retensjon). Berggrunn: Granittisk gneis (35 % gunstig oppstrøms). Lett: bilvei 32 m unna (Bønsdalen industriveg). Parkering 773 m unna.</description><Point><coordinates>11.19567,60.28464,0</coordinates></Point></Placemark>
<Placemark><name>2A Langbakken (Holtåa)</name><styleUrl>#kA</styleUrl><description>P=84. Foss/stryk rett oppstrøms (5 m fall på 100 m) – fossekulp og fjell i dagen. Os: sideelv kommer inn her – grus og tyngre materiale legges i osen og bankehodet nedenfor. Berggrunn: Gabbro (100 % gunstig oppstrøms). NGU-registrert gullforekomst 4.1 km unna. Lett: bilvei 4 m unna (track).</description><Point><coordinates>11.27852,60.39818,0</coordinates></Point></Placemark>
<Placemark><name>3A Bårlidalen (Andelva)</name><styleUrl>#kA</styleUrl><description>P=81. Foss/stryk rett oppstrøms (6 m fall på 100 m) – fossekulp og fjell i dagen. τ = 68 Pa ≈ 0.9× terskelen: sand og grus flyttes ved flom, gull blir liggende (retensjon). Berggrunn: Granittisk gneis (35 % gunstig oppstrøms). NGU-registrert gullforekomst 4.9 km unna. Lett: bilvei 12 m unna (Bårlidalen bru). Parkering 783 m unna.</description><Point><coordinates>11.25762,60.32019,0</coordinates></Point></Placemark>
<Placemark><name>4A Ludvigsrud (Andelva)</name><styleUrl>#kA</styleUrl><description>P=80. Foss/stryk rett oppstrøms (7 m fall på 100 m) – fossekulp og fjell i dagen. Skarp sving – grav på innersvingen og bak store steiner. Berggrunn: Granittisk gneis (35 % gunstig oppstrøms). Lett: bilvei 39 m unna (Magovegen). Parkering 221 m unna.</description><Point><coordinates>11.17093,60.30184,0</coordinates></Point></Placemark>
<Placemark><name>5A Vestre Jøndal (Jøndalsåa)</name><styleUrl>#kA</styleUrl><description>P=80. Foss/stryk rett oppstrøms (10 m fall på 100 m) – fossekulp og fjell i dagen. Berggrunn: Glimmergneis (100 % gunstig oppstrøms). NGU-registrert gullforekomst 6.7 km unna. Kort gange: bilvei 462 m unna. Parkering 1368 m unna.</description><Point><coordinates>11.29398,60.30146,0</coordinates></Point></Placemark>
<Placemark><name>6A Holt (Holtåa)</name><styleUrl>#kA</styleUrl><description>P=74. Foss/stryk rett oppstrøms (17 m fall på 100 m) – fossekulp og fjell i dagen. Os: sideelv kommer inn her – grus og tyngre materiale legges i osen og bankehodet nedenfor. NGU-registrert gullforekomst 2.7 km unna. Lett: bilvei 12 m unna (service).</description><Point><coordinates>11.26503,60.38358,0</coordinates></Point></Placemark>
<Placemark><name>7A Venjarfossen (Andelva)</name><styleUrl>#kA</styleUrl><description>P=73. Foss/stryk rett oppstrøms (7 m fall på 100 m) – fossekulp og fjell i dagen. τ = 70 Pa ≈ 0.8× terskelen: sand og grus flyttes ved flom, gull blir liggende (retensjon). Berggrunn: Granittisk gneis (35 % gunstig oppstrøms). Lett: bilvei 16 m unna (track). Parkering 1161 m unna.</description><Point><coordinates>11.18922,60.29717,0</coordinates></Point></Placemark>
<Placemark><name>8A Nordbekk (Kampåa)</name><styleUrl>#kA</styleUrl><description>P=70. Foss/stryk rett oppstrøms (5 m fall på 100 m) – fossekulp og fjell i dagen. Os: sideelv kommer inn her – grus og tyngre materiale legges i osen og bankehodet nedenfor. Skarp sving – grav på innersvingen og bak store steiner. Berggrunn: Glimmergneis (61 % gunstig oppstrøms). NGU-registrert gullforekomst 7.2 km unna. Lett: bilvei 6 m unna (track). Parkering 636 m unna.</description><Point><coordinates>11.38016,60.26128,0</coordinates></Point></Placemark>
<Placemark><name>9B Mattises (Andelva)</name><styleUrl>#kB</styleUrl><description>P=58. Skarp sving – grav på innersvingen og bak store steiner. Strømeffekten faller 34 % over strekningen – tungt materiale slipper her. Berggrunn: Granittisk gneis (35 % gunstig oppstrøms). Lett: bilvei 79 m unna (service). Parkering 230 m unna.</description><Point><coordinates>11.16272,60.29625,0</coordinates></Point></Placemark>
<Placemark><name>10B Myrvoll (Rennåa)</name><styleUrl>#kB</styleUrl><description>P=56. Foss/stryk rett oppstrøms (6 m fall på 100 m) – fossekulp og fjell i dagen. Os: sideelv kommer inn her – grus og tyngre materiale legges i osen og bankehodet nedenfor. Skarp sving – grav på innersvingen og bak store steiner. NGU-registrert gullforekomst 2.8 km unna. Kort gange: bilvei 263 m unna.</description><Point><coordinates>11.32758,60.34663,0</coordinates></Point></Placemark>
<Placemark><name>11B Enger (Jøndalsåa)</name><styleUrl>#kB</styleUrl><description>P=52. Foss/stryk rett oppstrøms (5 m fall på 100 m) – fossekulp og fjell i dagen. Berggrunn: Glimmergneis (100 % gunstig oppstrøms). NGU-registrert gullforekomst 6.1 km unna. Lett: bilvei 53 m unna (Åslettavegen). Parkering 350 m unna.</description><Point><coordinates>11.30741,60.30778,0</coordinates></Point></Placemark>
<Placemark><name>12B Gunnesfallet (Holtåa)</name><styleUrl>#kB</styleUrl><description>P=52. Foss/stryk rett oppstrøms (5 m fall på 100 m) – fossekulp og fjell i dagen. Berggrunn: Gabbro (100 % gunstig oppstrøms). NGU-registrert gullforekomst 3.8 km unna. Lett: bilvei 10 m unna (track). Parkering 1443 m unna.</description><Point><coordinates>11.28129,60.40482,0</coordinates></Point></Placemark>
<Placemark><name>13B Dorrsvangen (Lysjøåa)</name><styleUrl>#kB</styleUrl><description>P=51. Foss/stryk rett oppstrøms (8 m fall på 100 m) – fossekulp og fjell i dagen. Berggrunn: Gabbro (68 % gunstig oppstrøms). NGU-registrert gullforekomst 2.9 km unna. Lett: bilvei 27 m unna (track).</description><Point><coordinates>11.29002,60.44482,0</coordinates></Point></Placemark>
<Placemark><name>14B Brøstet (Vorma)</name><styleUrl>#kB</styleUrl><description>P=49. Os: Andelva kommer inn her – grus og tyngre materiale legges i osen og bankehodet nedenfor. Berggrunn: Granittisk gneis (35 % gunstig oppstrøms). NGU-registrert gullforekomst 5.0 km unna. Kort gange: bilvei 187 m unna. Parkering 1210 m unna.</description><Point><coordinates>11.27281,60.31736,0</coordinates></Point></Placemark>
<Placemark><name>15B Langbakken (Holtåa)</name><styleUrl>#kB</styleUrl><description>P=46. Foss/stryk rett oppstrøms (7 m fall på 100 m) – fossekulp og fjell i dagen. Berggrunn: Gabbro (100 % gunstig oppstrøms). NGU-registrert gullforekomst 3.4 km unna. Lett: bilvei 28 m unna (track).</description><Point><coordinates>11.27429,60.39165,0</coordinates></Point></Placemark>
<Placemark><name>16C Lynesdalsevja (Vorma)</name><styleUrl>#kC</styleUrl><description>P=43. Os: Holtåa kommer inn her – grus og tyngre materiale legges i osen og bankehodet nedenfor. Berggrunn: Granittisk gneis (35 % gunstig oppstrøms). NGU-registrert gullforekomst 3.5 km unna. Kort gange: bilvei 401 m unna.</description><Point><coordinates>11.24941,60.38691,0</coordinates></Point></Placemark>
<Placemark><name>17C Lindset (Vorma)</name><styleUrl>#kC</styleUrl><description>P=43. Os: sideelv kommer inn her – grus og tyngre materiale legges i osen og bankehodet nedenfor. Berggrunn: Granittisk gneis (35 % gunstig oppstrøms). Kort gange: bilvei 201 m unna.</description><Point><coordinates>11.29092,60.28956,0</coordinates></Point></Placemark>
<Placemark><name>18C Nedre Hjera (Risa)</name><styleUrl>#kC</styleUrl><description>P=42. Foss/stryk rett oppstrøms (3 m fall på 100 m) – fossekulp og fjell i dagen. Berggrunn: Granittisk gneis (36 % gunstig oppstrøms). Kort gange: bilvei 186 m unna. Parkering 1294 m unna.</description><Point><coordinates>11.21048,60.27041,0</coordinates></Point></Placemark>
<Placemark><name>19C Viksmarka (Hona)</name><styleUrl>#kC</styleUrl><description>P=41. Foss/stryk rett oppstrøms (8 m fall på 100 m) – fossekulp og fjell i dagen. Os: Seljebekken kommer inn her – grus og tyngre materiale legges i osen og bankehodet nedenfor. Berggrunn: Alkalifeltspatsyenitt (32 % gunstig oppstrøms). Kort gange: bilvei 152 m unna.</description><Point><coordinates>11.06154,60.28719,0</coordinates></Point></Placemark>
<Placemark><name>20C Smørtynnevja (Vorma)</name><styleUrl>#kC</styleUrl><description>P=40. Os: sideelv kommer inn her – grus og tyngre materiale legges i osen og bankehodet nedenfor. Berggrunn: Granittisk gneis (35 % gunstig oppstrøms). NGU-registrert gullforekomst 2.6 km unna. Kort gange: bilvei 327 m unna.</description><Point><coordinates>11.24585,60.37403,0</coordinates></Point></Placemark>
</Document></kml>