<?xml version="1.0" encoding="UTF-8"?>
<gpx version="1.1" creator="gulloye" xmlns="http://www.topografix.com/GPX/1/1">
  <wpt lat="60.28464" lon="11.19567"><name>1 A – Bønsdalen (Andelva)</name><desc>Foss/stryk rett oppstrøms (5 m fall på 100 m) – fossekulp og fjell i dagen. Skarp sving – grav på innersvingen og bak store steiner. τ = 98 Pa ≈ 1.1× terskelen: sand og grus flyttes ved flom, gull blir liggende (retensjon). Berggrunn: Granittisk gneis (35 % gunstig oppstrøms).</desc></wpt>
  <wpt lat="60.39818" lon="11.27852"><name>2 A – Langbakken (Holtåa)</name><desc>Foss/stryk rett oppstrøms (5 m fall på 100 m) – fossekulp og fjell i dagen. Os: sideelv kommer inn her – grus og tyngre materiale legges i osen og bankehodet nedenfor. Berggrunn: Gabbro (100 % gunstig oppstrøms). NGU-registrert gullforekomst 4.1 km unna.</desc></wpt>
  <wpt lat="60.34249" lon="11.24436"><name>3 A – Kommisrud (bekk)</name><desc>Os: sideelv kommer inn her – grus og tyngre materiale legges i osen og bankehodet nedenfor. τ = 75 Pa ≈ 1.0× terskelen: sand og grus flyttes ved flom, gull blir liggende (retensjon). NGU-registrert gullforekomst 3.2 km unna.</desc></wpt>
  <wpt lat="60.32019" lon="11.25762"><name>4 A – Bårlidalen (Andelva)</name><desc>Foss/stryk rett oppstrøms (6 m fall på 100 m) – fossekulp og fjell i dagen. τ = 68 Pa ≈ 0.9× terskelen: sand og grus flyttes ved flom, gull blir liggende (retensjon). Berggrunn: Granittisk gneis (35 % gunstig oppstrøms). NGU-registrert gullforekomst 4.9 km unna.</desc></wpt>
  <wpt lat="60.30184" lon="11.17093"><name>5 A – Ludvigsrud (Andelva)</name><desc>Foss/stryk rett oppstrøms (7 m fall på 100 m) – fossekulp og fjell i dagen. Skarp sving – grav på innersvingen og bak store steiner. Berggrunn: Granittisk gneis (35 % gunstig oppstrøms).</desc></wpt>
  <wpt lat="60.30146" lon="11.29398"><name>6 A – Vestre Jøndal (Jøndalsåa)</name><desc>Foss/stryk rett oppstrøms (10 m fall på 100 m) – fossekulp og fjell i dagen. Berggrunn: Glimmergneis (100 % gunstig oppstrøms). NGU-registrert gullforekomst 6.7 km unna.</desc></wpt>
  <wpt lat="60.38358" lon="11.26503"><name>7 A – Holt (Holtåa)</name><desc>Foss/stryk rett oppstrøms (17 m fall på 100 m) – fossekulp og fjell i dagen. Os: sideelv kommer inn her – grus og tyngre materiale legges i osen og bankehodet nedenfor. NGU-registrert gullforekomst 2.7 km unna.</desc></wpt>
  <wpt lat="60.29717" lon="11.18922"><name>8 A – Venjarfossen (Andelva)</name><desc>Foss/stryk rett oppstrøms (7 m fall på 100 m) – fossekulp og fjell i dagen. τ = 70 Pa ≈ 0.8× terskelen: sand og grus flyttes ved flom, gull blir liggende (retensjon). Berggrunn: Granittisk gneis (35 % gunstig oppstrøms).</desc></wpt>
  <wpt lat="60.26128" lon="11.38016"><name>9 A – Nordbekk (Kampåa)</name><desc>Foss/stryk rett oppstrøms (5 m fall på 100 m) – fossekulp og fjell i dagen. Os: sideelv kommer inn her – grus og tyngre materiale legges i osen og bankehodet nedenfor. Skarp sving – grav på innersvingen og bak store steiner. Berggrunn: Glimmergneis (61 % gunstig oppstrøms). NGU-registrert gullforekomst 7.2 km unna.</desc></wpt>
  <wpt lat="60.29698" lon="11.16166"><name>10 B – Mattises (Andelva)</name><desc>Skarp sving – grav på innersvingen og bak store steiner. Berggrunn: Granittisk gneis (35 % gunstig oppstrøms).</desc></wpt>
  <wpt lat="60.34829" lon="11.32676"><name>11 B – Myrvoll (bekk)</name><desc>Foss/stryk rett oppstrøms (11 m fall på 100 m) – fossekulp og fjell i dagen. Berggrunn: Gabbro (100 % gunstig oppstrøms). NGU-registrert gullforekomst 2.7 km unna.</desc></wpt>
  <wpt lat="60.29738" lon="11.39287"><name>12 B – Nedre Rudseter (bekk)</name><desc>Foss/stryk rett oppstrøms (14 m fall på 100 m) – fossekulp og fjell i dagen. NGU-registrert gullforekomst 3.2 km unna.</desc></wpt>
  <wpt lat="60.30778" lon="11.30741"><name>13 B – Enger (Jøndalsåa)</name><desc>Foss/stryk rett oppstrøms (5 m fall på 100 m) – fossekulp og fjell i dagen. Berggrunn: Glimmergneis (100 % gunstig oppstrøms). NGU-registrert gullforekomst 6.1 km unna.</desc></wpt>
  <wpt lat="60.40482" lon="11.28129"><name>14 B – Gunnesfallet (Holtåa)</name><desc>Foss/stryk rett oppstrøms (5 m fall på 100 m) – fossekulp og fjell i dagen. Berggrunn: Gabbro (100 % gunstig oppstrøms). NGU-registrert gullforekomst 3.8 km unna.</desc></wpt>
  <wpt lat="60.44482" lon="11.29002"><name>15 B – Dorrsvangen (Lysjøåa)</name><desc>Foss/stryk rett oppstrøms (8 m fall på 100 m) – fossekulp og fjell i dagen. Berggrunn: Gabbro (68 % gunstig oppstrøms). NGU-registrert gullforekomst 2.9 km unna.</desc></wpt>
  <wpt lat="60.31736" lon="11.27281"><name>16 B – Brøstet (Vorma)</name><desc>Os: Andelva kommer inn her – grus og tyngre materiale legges i osen og bankehodet nedenfor. Berggrunn: Granittisk gneis (35 % gunstig oppstrøms). NGU-registrert gullforekomst 5.0 km unna.</desc></wpt>
  <wpt lat="60.39165" lon="11.27429"><name>17 B – Langbakken (Holtåa)</name><desc>Foss/stryk rett oppstrøms (7 m fall på 100 m) – fossekulp og fjell i dagen. Berggrunn: Gabbro (100 % gunstig oppstrøms). NGU-registrert gullforekomst 3.4 km unna.</desc></wpt>
  <wpt lat="60.28903" lon="11.28795"><name>18 C – Søndre Strand (bekk)</name><desc>Foss/stryk rett oppstrøms (16 m fall på 100 m) – fossekulp og fjell i dagen.</desc></wpt>
  <wpt lat="60.38691" lon="11.24941"><name>19 C – Lynesdalsevja (Vorma)</name><desc>Os: Holtåa kommer inn her – grus og tyngre materiale legges i osen og bankehodet nedenfor. Berggrunn: Granittisk gneis (35 % gunstig oppstrøms). NGU-registrert gullforekomst 3.5 km unna.</desc></wpt>
  <wpt lat="60.38368" lon="11.35134"><name>20 C – Millidalen (bekk)</name><desc>Foss/stryk rett oppstrøms (12 m fall på 100 m) – fossekulp og fjell i dagen. Berggrunn: Granittisk gneis (38 % gunstig oppstrøms). NGU-registrert gullforekomst 0.8 km unna.</desc></wpt>
</gpx>