{
"type": "FeatureCollection",
"features": [
{
"type": "Feature",
"geometry": {
"type": "Point",
"coordinates": [
12.48171,
65.05547
]
},
"properties": {
"elv": "Kvennbekken",
"km": 0.7,
"z": 0.66,
"S": 0.02,
"Q": 125.88,
"w": 77.76,
"w_q": 33.66,
"h": 0.66,
"tau": 138.85,
"tau_c": 106.42,
"omega": 338.96,
"M": 1.3,
"D": 0.16,
"R": 0.97,
"sving": 0.35,
"os": 0.15,
"os_navn": "Øvja",
"foss": 0.51,
"foss_drop": 6.98,
"juv": 0.0,
"B": 0.74,
"frac_fav": 0.4,
"d_gull_km": 14.93,
"berg": "Kvartsdioritt | Middelskorna tonalitt til granodioritt | Øverste kaledonske dekkeserie",
"p_raw": 0.32,
"A_km2": 503.53,
"gate": 1.0,
"P": 100.0,
"rank": 1,
"klasse": "A",
"navn": "Olderholmen (Kvennbekken)",
"hvorfor": "Foss/stryk rett oppstrøms (7 m fall på 100 m) – fossekulp og fjell i dagen. τ = 139 Pa ≈ 1.3× terskelen: sand og grus flyttes ved flom, gull blir liggende (retensjon). Berggrunn: Kvartsdioritt (40 % gunstig oppstrøms).",
"s2_anomali": 3.71,
"s2_feox_z": 3.71,
"satsjekk": "Automatisk bildeanalyse: dypt/mørkt vann."
}
},
{
"type": "Feature",
"geometry": {
"type": "Point",
"coordinates": [
12.18949,
65.23916
]
},
"properties": {
"elv": "bekk",
"km": 0.6,
"z": 14.32,
"S": 0.06,
"Q": 93.17,
"w": 54.56,
"w_q": 28.96,
"h": 0.49,
"tau": 306.82,
"tau_c": 183.18,
"omega": 1059.5,
"M": 1.67,
"D": 0.0,
"R": 0.98,
"sving": 0.1,
"os": 0.0,
"os_navn": "",
"foss": 1.0,
"foss_drop": 10.87,
"juv": 0.0,
"B": 0.72,
"frac_fav": 0.4,
"d_gull_km": 16.54,
"berg": "",
"p_raw": 0.3,
"A_km2": 372.67,
"gate": 1.0,
"P": 92.98,
"rank": 2,
"klasse": "A",
"navn": "bekk, km 0.6",
"hvorfor": "Foss/stryk rett oppstrøms (11 m fall på 100 m) – fossekulp og fjell i dagen. τ = 307 Pa ≈ 1.7× terskelen: sand og grus flyttes ved flom, gull blir liggende (retensjon).",
"s2_anomali": 0.0,
"s2_feox_z": -1.45,
"satsjekk": "Automatisk bildeanalyse: dypt/mørkt vann, tett vegetasjon – elva delvis skjult."
}
},
{
"type": "Feature",
"geometry": {
"type": "Point",
"coordinates": [
12.36588,
65.05421
]
},
"properties": {
"elv": "Stordalsbekken",
"km": 0.3,
"z": 155.06,
"S": 0.05,
"Q": 14.22,
"w": 23.04,
"w_q": 11.31,
"h": 0.28,
"tau": 147.45,
"tau_c": 167.6,
"omega": 320.43,
"M": 0.88,
"D": 0.0,
"R": 0.67,
"sving": 0.86,
"os": 0.25,
"os_navn": "sideelv",
"foss": 1.0,
"foss_drop": 10.06,
"juv": 0.0,
"B": 0.59,
"frac_fav": 0.39,
"d_gull_km": 12.59,
"berg": "Granitt | Granitt og granodioritt | Øverste kaledonske dekkeserie",
"p_raw": 0.29,
"A_km2": 56.86,
"gate": 1.0,
"P": 90.78,
"rank": 3,
"klasse": "A",
"navn": "Svartåsfossen (Stordalsbekken)",
"hvorfor": "Foss/stryk rett oppstrøms (10 m fall på 100 m) – fossekulp og fjell i dagen. Skarp sving – grav på innersvingen og bak store steiner. τ = 147 Pa ≈ 0.9× terskelen: sand og grus flyttes ved flom, gull blir liggende (retensjon). Berggrunn: Granitt (39 % gunstig oppstrøms).",
"s2_anomali": null,
"s2_feox_z": null,
"satsjekk": "Automatisk bildeanalyse: dypt/mørkt vann."
}
},
{
"type": "Feature",
"geometry": {
"type": "Point",
"coordinates": [
12.46574,
65.06261
]
},
"properties": {
"elv": "Rossdalelva",
"km": 2.4,
"z": 2.16,
"S": 0.02,
"Q": 125.94,
"w": 82.6,
"w_q": 33.67,
"h": 0.63,
"tau": 136.47,
"tau_c": 107.9,
"omega": 328.19,
"M": 1.26,
"D": 0.07,
"R": 0.96,
"sving": 0.44,
"os": 0.0,
"os_navn": "",
"foss": 0.37,
"foss_drop": 3.21,
"juv": 0.0,
"B": 0.74,
"frac_fav": 0.4,
"d_gull_km": 14.78,
"berg": "Kvartsdioritt | Middelskorna tonalitt til granodioritt | Øverste kaledonske dekkeserie",
"p_raw": 0.28,
"A_km2": 503.77,
"gate": 1.0,
"P": 87.98,
"rank": 4,
"klasse": "A",
"navn": "Rossdalen (Rossdalelva)",
"hvorfor": "Foss/stryk rett oppstrøms (3 m fall på 100 m) – fossekulp og fjell i dagen. τ = 136 Pa ≈ 1.3× terskelen: sand og grus flyttes ved flom, gull blir liggende (retensjon). Berggrunn: Kvartsdioritt (40 % gunstig oppstrøms).",
"s2_anomali": 3.14,
"s2_feox_z": 2.77,
"satsjekk": "Automatisk bildeanalyse: grus/sandbanke synlig."
}
},
{
"type": "Feature",
"geometry": {
"type": "Point",
"coordinates": [
12.35798,
65.06497
]
},
"properties": {
"elv": "bekk",
"km": 0.5,
"z": 67.29,
"S": 0.08,
"Q": 15.01,
"w": 23.32,
"w_q": 11.62,
"h": 0.26,
"tau": 199.2,
"tau_c": 204.19,
"omega": 496.1,
"M": 0.98,
"D": 0.0,
"R": 0.77,
"sving": 0.88,
"os": 0.0,
"os_navn": "",
"foss": 0.72,
"foss_drop": 13.36,
"juv": 0.0,
"B": 0.6,
"frac_fav": 0.4,
"d_gull_km": 11.99,
"berg": "Dioritt | Dioritt | Øverste kaledonske dekkeserie",
"p_raw": 0.26,
"A_km2": 60.02,
"gate": 1.0,
"P": 82.0,
"rank": 5,
"klasse": "A",
"navn": "Lonan (bekk)",
"hvorfor": "Foss/stryk rett oppstrøms (13 m fall på 100 m) – fossekulp og fjell i dagen. Skarp sving – grav på innersvingen og bak store steiner. τ = 199 Pa ≈ 1.0× terskelen: sand og grus flyttes ved flom, gull blir liggende (retensjon). Berggrunn: Dioritt (40 % gunstig oppstrøms).",
"s2_anomali": null,
"s2_feox_z": null,
"satsjekk": "Automatisk bildeanalyse: dypt/mørkt vann, tett vegetasjon – elva delvis skjult."
}
},
{
"type": "Feature",
"geometry": {
"type": "Point",
"coordinates": [
12.36579,
65.07988
]
},
"properties": {
"elv": "Terråkelva",
"km": 2.8,
"z": 23.61,
"S": 0.05,
"Q": 16.05,
"w": 34.86,
"w_q": 12.02,
"h": 0.25,
"tau": 113.4,
"tau_c": 157.98,
"omega": 212.44,
"M": 0.72,
"D": 0.04,
"R": 0.47,
"sving": 0.66,
"os": 0.16,
"os_navn": "Tverråa",
"foss": 1.0,
"foss_drop": 7.59,
"juv": 0.0,
"B": 0.61,
"frac_fav": 0.4,
"d_gull_km": 12.21,
"berg": "Monzonitt | Kvartsmonzonitt og monzodioritt | Øverste kaledonske dekkeserie",
"p_raw": 0.24,
"A_km2": 64.19,
"gate": 1.0,
"P": 76.14,
"rank": 6,
"klasse": "A",
"navn": "Kvernhusfossen (Terråkelva)",
"hvorfor": "Foss/stryk rett oppstrøms (8 m fall på 100 m) – fossekulp og fjell i dagen. Skarp sving – grav på innersvingen og bak store steiner. Berggrunn: Monzonitt (40 % gunstig oppstrøms).",
"s2_anomali": 2.22,
"s2_feox_z": 2.22,
"satsjekk": "Automatisk bildeanalyse: grus/sandbanke synlig, dypt/mørkt vann."
}
},
{
"type": "Feature",
"geometry": {
"type": "Point",
"coordinates": [
12.45815,
65.06811
]
},
"properties": {
"elv": "Kalåbekken",
"km": 1.5,
"z": 29.98,
"S": 0.24,
"Q": 130.41,
"w": 34.96,
"w_q": 34.26,
"h": 0.53,
"tau": 1243.74,
"tau_c": 354.9,
"omega": 8688.23,
"M": 3.5,
"D": 0.0,
"R": 0.37,
"sving": 0.23,
"os": 0.0,
"os_navn": "",
"foss": 1.0,
"foss_drop": 34.17,
"juv": 0.05,
"B": 0.75,
"frac_fav": 0.4,
"d_gull_km": 14.57,
"berg": "Kvartsdioritt | Middelskorna tonalitt til granodioritt | Øverste kaledonske dekkeserie",
"p_raw": 0.21,
"A_km2": 521.63,
"gate": 1.0,
"P": 66.09,
"rank": 7,
"klasse": "B",
"navn": "Kalåa (Kalåbekken)",
"hvorfor": "Foss/stryk rett oppstrøms (34 m fall på 100 m) – fossekulp og fjell i dagen. τ = 1244 Pa ≈ 3.5× terskelen: sand og grus flyttes ved flom, gull blir liggende (retensjon). Berggrunn: Kvartsdioritt (40 % gunstig oppstrøms).",
"s2_anomali": null,
"s2_feox_z": null,
"satsjekk": "Automatisk bildeanalyse: dypt/mørkt vann, tett vegetasjon – elva delvis skjult."
}
},
{
"type": "Feature",
"geometry": {
"type": "Point",
"coordinates": [
12.25032,
65.16665
]
},
"properties": {
"elv": "Skjelsvikelva",
"km": 3.4,
"z": 58.55,
"S": 0.07,
"Q": 2.61,
"w": 14.43,
"w_q": 4.84,
"h": 0.13,
"tau": 83.88,
"tau_c": 190.0,
"omega": 120.6,
"M": 0.44,
"D": 0.16,
"R": 0.13,
"sving": 0.92,
"os": 0.0,
"os_navn": "",
"foss": 1.0,
"foss_drop": 24.64,
"juv": 0.0,
"B": 0.57,
"frac_fav": 0.59,
"d_gull_km": 10.66,
"berg": "Kalkglimmerskifer | Kalksilikatskifer, ofte med linser av marmor | Midtre kaledonsk dekkeserie",
"p_raw": 0.2,
"A_km2": 10.43,
"gate": 1.0,
"P": 62.74,
"rank": 8,
"klasse": "B",
"navn": "Buenget (Skjelsvikelva)",
"hvorfor": "Foss/stryk rett oppstrøms (25 m fall på 100 m) – fossekulp og fjell i dagen. Skarp sving – grav på innersvingen og bak store steiner. Berggrunn: Kalkglimmerskifer (59 % gunstig oppstrøms).",
"s2_anomali": null,
"s2_feox_z": null,
"satsjekk": "Automatisk bildeanalyse: dypt/mørkt vann, tett vegetasjon – elva delvis skjult."
}
},
{
"type": "Feature",
"geometry": {
"type": "Point",
"coordinates": [
12.54937,
65.06547
]
},
"properties": {
"elv": "Tverråa",
"km": 3.0,
"z": 16.48,
"S": 0.02,
"Q": 3.3,
"w": 16.33,
"w_q": 5.45,
"h": 0.21,
"tau": 32.9,
"tau_c": 92.55,
"omega": 32.04,
"M": 0.36,
"D": 0.29,
"R": 0.06,
"sving": 1.0,
"os": 0.79,
"os_navn": "Aunelva",
"foss": 0.37,
"foss_drop": 4.29,
"juv": 0.0,
"B": 0.5,
"frac_fav": 0.4,
"d_gull_km": 12.27,
"berg": "Kvartsdioritt | Lys middelskorna, foliert tonalitt (trondhjemitt) | Øverste kaledonske dekkeserie",
"p_raw": 0.2,
"A_km2": 13.22,
"gate": 1.0,
"P": 61.91,
"rank": 9,
"klasse": "B",
"navn": "Gjerde (Tverråa)",
"hvorfor": "Foss/stryk rett oppstrøms (4 m fall på 100 m) – fossekulp og fjell i dagen. Os: Aunelva kommer inn her – grus og tyngre materiale legges i osen og bankehodet nedenfor. Skarp sving – grav på innersvingen og bak store steiner. Berggrunn: Kvartsdioritt (40 % gunstig oppstrøms).",
"s2_anomali": null,
"s2_feox_z": null,
"satsjekk": "Automatisk bildeanalyse: dypt/mørkt vann, tett vegetasjon – elva delvis skjult."
}
},
{
"type": "Feature",
"geometry": {
"type": "Point",
"coordinates": [
12.47233,
65.2584
]
},
"properties": {
"elv": "Bjørnvikelva",
"km": 0.0,
"z": 209.86,
"S": 0.43,
"Q": 0.52,
"w": 6.56,
"w_q": 2.17,
"h": 0.04,
"tau": 186.56,
"tau_c": 364.2,
"omega": 336.78,
"M": 0.51,
"D": 0.0,
"R": 0.2,
"sving": 0.38,
"os": 1.0,
"os_navn": "sideelv",
"foss": 1.0,
"foss_drop": 56.96,
"juv": 0.0,
"B": 0.46,
"frac_fav": 0.67,
"d_gull_km": 10.85,
"berg": "Glimmerskifer | Glimmergneis og glimmerskifer | Øverste kaledonske dekkeserie",
"p_raw": 0.19,
"A_km2": 2.09,
"gate": 1.0,
"P": 59.08,
"rank": 10,
"klasse": "B",
"navn": "Bjørnvikelva, km 0.0",
"hvorfor": "Foss/stryk rett oppstrøms (57 m fall på 100 m) – fossekulp og fjell i dagen. Os: sideelv kommer inn her – grus og tyngre materiale legges i osen og bankehodet nedenfor. Berggrunn: Glimmerskifer (67 % gunstig oppstrøms).",
"s2_anomali": 1.84,
"s2_feox_z": -0.38,
"satsjekk": "Automatisk bildeanalyse: tett vegetasjon – elva delvis skjult."
}
},
{
"type": "Feature",
"geometry": {
"type": "Point",
"coordinates": [
12.50948,
65.14821
]
},
"properties": {
"elv": "Bjønnåa",
"km": 1.4,
"z": 161.27,
"S": 0.14,
"Q": 1.85,
"w": 12.19,
"w_q": 4.08,
"h": 0.09,
"tau": 124.65,
"tau_c": 271.66,
"omega": 207.47,
"M": 0.46,
"D": 0.11,
"R": 0.14,
"sving": 0.28,
"os": 0.98,
"os_navn": "sideelv",
"foss": 1.0,
"foss_drop": 22.11,
"juv": 0.0,
"B": 0.47,
"frac_fav": 0.4,
"d_gull_km": 7.84,
"berg": "Kvartsdioritt | Middelskorna tonalitt til granodioritt | Øverste kaledonske dekkeserie",
"p_raw": 0.19,
"A_km2": 7.41,
"gate": 1.0,
"P": 58.84,
"rank": 11,
"klasse": "B",
"navn": "Bjønnåa, km 1.4",
"hvorfor": "Foss/stryk rett oppstrøms (22 m fall på 100 m) – fossekulp og fjell i dagen. Os: sideelv kommer inn her – grus og tyngre materiale legges i osen og bankehodet nedenfor. Berggrunn: Kvartsdioritt (40 % gunstig oppstrøms). NGU-registrert gullforekomst 7.8 km unna.",
"s2_anomali": 1.13,
"s2_feox_z": 0.64,
"satsjekk": "Automatisk bildeanalyse: dypt/mørkt vann, tett vegetasjon – elva delvis skjult."
}
},
{
"type": "Feature",
"geometry": {
"type": "Point",
"coordinates": [
12.22367,
65.17859
]
},
"properties": {
"elv": "Fiskeroselva",
"km": 2.3,
"z": 12.79,
"S": 0.02,
"Q": 1.63,
"w": 11.22,
"w_q": 3.83,
"h": 0.15,
"tau": 33.68,
"tau_c": 108.47,
"omega": 31.56,
"M": 0.31,
"D": 0.27,
"R": 0.03,
"sving": 0.49,
"os": 0.93,
"os_navn": "Tverrelva",
"foss": 0.51,
"foss_drop": 5.6,
"juv": 0.0,
"B": 0.51,
"frac_fav": 0.55,
"d_gull_km": 10.96,
"berg": "Glimmerskifer | Delvis anatektisk, rusten, biotittrik skifer og gneis, stedvis med overgang til anatektisk granitt | Midtre kaledonsk dekkeserie",
"p_raw": 0.18,
"A_km2": 6.51,
"gate": 1.0,
"P": 56.39,
"rank": 12,
"klasse": "B",
"navn": "Stormyra (Fiskeroselva)",
"hvorfor": "Foss/stryk rett oppstrøms (6 m fall på 100 m) – fossekulp og fjell i dagen. Os: Tverrelva kommer inn her – grus og tyngre materiale legges i osen og bankehodet nedenfor. Berggrunn: Glimmerskifer (55 % gunstig oppstrøms).",
"s2_anomali": null,
"s2_feox_z": null,
"satsjekk": "Automatisk bildeanalyse: dypt/mørkt vann, tett vegetasjon – elva delvis skjult."
}
},
{
"type": "Feature",
"geometry": {
"type": "Point",
"coordinates": [
12.16762,
65.12557
]
},
"properties": {
"elv": "bekk",
"km": 0.8,
"z": 26.78,
"S": 0.15,
"Q": 2.39,
"w": 11.36,
"w_q": 4.64,
"h": 0.11,
"tau": 162.12,
"tau_c": 284.64,
"omega": 315.7,
"M": 0.57,
"D": 0.0,
"R": 0.27,
"sving": 0.07,
"os": 0.5,
"os_navn": "sideelv",
"foss": 1.0,
"foss_drop": 20.03,
"juv": 0.0,
"B": 0.58,
"frac_fav": 0.56,
"d_gull_km": 4.67,
"berg": "Glimmerskifer | Gneis og biotittrik glimmerskifer | Midtre kaledonsk dekkeserie",
"p_raw": 0.18,
"A_km2": 9.58,
"gate": 1.0,
"P": 55.13,
"rank": 13,
"klasse": "B",
"navn": "Bursvikbotnet (bekk)",
"hvorfor": "Foss/stryk rett oppstrøms (20 m fall på 100 m) – fossekulp og fjell i dagen. Os: sideelv kommer inn her – grus og tyngre materiale legges i osen og bankehodet nedenfor. Berggrunn: Glimmerskifer (56 % gunstig oppstrøms). NGU-registrert gullforekomst 4.7 km unna.",
"s2_anomali": 1.56,
"s2_feox_z": 1.56,
"satsjekk": "Automatisk bildeanalyse: tett vegetasjon – elva delvis skjult."
}
},
{
"type": "Feature",
"geometry": {
"type": "Point",
"coordinates": [
12.43881,
65.27604
]
},
"properties": {
"elv": "Hardangselva",
"km": 1.4,
"z": 34.67,
"S": 0.09,
"Q": 0.83,
"w": 8.18,
"w_q": 2.73,
"h": 0.08,
"tau": 73.86,
"tau_c": 221.99,
"omega": 92.48,
"M": 0.33,
"D": 0.07,
"R": 0.04,
"sving": 0.51,
"os": 0.61,
"os_navn": "sideelv",
"foss": 1.0,
"foss_drop": 13.96,
"juv": 0.0,
"B": 0.51,
"frac_fav": 0.7,
"d_gull_km": 12.34,
"berg": "Glimmerskifer | Glimmergneis og glimmerskifer | Øverste kaledonske dekkeserie",
"p_raw": 0.17,
"A_km2": 3.32,
"gate": 1.0,
"P": 54.74,
"rank": 14,
"klasse": "B",
"navn": "Moamyra (Hardangselva)",
"hvorfor": "Foss/stryk rett oppstrøms (14 m fall på 100 m) – fossekulp og fjell i dagen. Os: sideelv kommer inn her – grus og tyngre materiale legges i osen og bankehodet nedenfor. Skarp sving – grav på innersvingen og bak store steiner. Berggrunn: Glimmerskifer (70 % gunstig oppstrøms).",
"s2_anomali": null,
"s2_feox_z": null,
"satsjekk": "Automatisk bildeanalyse: dypt/mørkt vann, tett vegetasjon – elva delvis skjult."
}
},
{
"type": "Feature",
"geometry": {
"type": "Point",
"coordinates": [
12.45553,
65.26725
]
},
"properties": {
"elv": "Austrelielva",
"km": 0.0,
"z": 132.27,
"S": 0.24,
"Q": 0.53,
"w": 6.58,
"w_q": 2.19,
"h": 0.05,
"tau": 124.17,
"tau_c": 354.84,
"omega": 188.44,
"M": 0.35,
"D": 0.01,
"R": 0.05,
"sving": 0.42,
"os": 1.0,
"os_navn": "sideelv",
"foss": 1.0,
"foss_drop": 24.92,
"juv": 0.0,
"B": 0.46,
"frac_fav": 0.67,
"d_gull_km": 12.02,
"berg": "Kvartsdioritt | Middelskorna tonalitt til granodioritt | Øverste kaledonske dekkeserie",
"p_raw": 0.17,
"A_km2": 2.13,
"gate": 1.0,
"P": 54.69,
"rank": 15,
"klasse": "B",
"navn": "Austrelielva, km 0.0",
"hvorfor": "Foss/stryk rett oppstrøms (25 m fall på 100 m) – fossekulp og fjell i dagen. Os: sideelv kommer inn her – grus og tyngre materiale legges i osen og bankehodet nedenfor. Berggrunn: Kvartsdioritt (67 % gunstig oppstrøms).",
"s2_anomali": 2.77,
"s2_feox_z": 1.45,
"satsjekk": "Automatisk bildeanalyse: dypt/mørkt vann."
}
},
{
"type": "Feature",
"geometry": {
"type": "Point",
"coordinates": [
12.20213,
65.10832
]
},
"properties": {
"elv": "Hornelva",
"km": 4.0,
"z": 36.57,
"S": 0.05,
"Q": 2.78,
"w": 15.0,
"w_q": 5.0,
"h": 0.14,
"tau": 66.12,
"tau_c": 158.52,
"omega": 86.08,
"M": 0.42,
"D": 0.11,
"R": 0.1,
"sving": 0.03,
"os": 0.94,
"os_navn": "sideelv",
"foss": 1.0,
"foss_drop": 6.24,
"juv": 0.0,
"B": 0.5,
"frac_fav": 0.35,
"d_gull_km": 5.11,
"berg": "Granitt | Middelskorna granitt | Øverste kaledonske dekkeserie",
"p_raw": 0.17,
"A_km2": 11.12,
"gate": 1.0,
"P": 53.61,
"rank": 16,
"klasse": "B",
"navn": "Hornelva, km 4.0",
"hvorfor": "Foss/stryk rett oppstrøms (6 m fall på 100 m) – fossekulp og fjell i dagen. Os: sideelv kommer inn her – grus og tyngre materiale legges i osen og bankehodet nedenfor. Berggrunn: Granitt (35 % gunstig oppstrøms). NGU-registrert gullforekomst 5.1 km unna.",
"s2_anomali": null,
"s2_feox_z": null,
"satsjekk": "Automatisk bildeanalyse: dypt/mørkt vann, tett vegetasjon – elva delvis skjult."
}
},
{
"type": "Feature",
"geometry": {
"type": "Point",
"coordinates": [
12.51341,
65.08412
]
},
"properties": {
"elv": "Flodalselva",
"km": 0.0,
"z": 48.68,
"S": 0.14,
"Q": 0.77,
"w": 8.8,
"w_q": 2.63,
"h": 0.07,
"tau": 88.57,
"tau_c": 270.04,
"omega": 117.62,
"M": 0.33,
"D": 0.0,
"R": 0.04,
"sving": 0.02,
"os": 1.0,
"os_navn": "sideelv",
"foss": 1.0,
"foss_drop": 20.08,
"juv": 0.0,
"B": 0.54,
"frac_fav": 0.81,
"d_gull_km": 11.5,
"berg": "Kvartsdioritt | Middelskorna tonalitt til granodioritt | Øverste kaledonske dekkeserie",
"p_raw": 0.17,
"A_km2": 3.07,
"gate": 1.0,
"P": 53.28,
"rank": 17,
"klasse": "B",
"navn": "Flodalselva, km 0.0",
"hvorfor": "Foss/stryk rett oppstrøms (20 m fall på 100 m) – fossekulp og fjell i dagen. Os: sideelv kommer inn her – grus og tyngre materiale legges i osen og bankehodet nedenfor. Berggrunn: Kvartsdioritt (81 % gunstig oppstrøms).",
"s2_anomali": null,
"s2_feox_z": null,
"satsjekk": "Automatisk bildeanalyse: dypt/mørkt vann, tett vegetasjon – elva delvis skjult."
}
},
{
"type": "Feature",
"geometry": {
"type": "Point",
"coordinates": [
12.32227,
65.0652
]
},
"properties": {
"elv": "Kvennelva",
"km": 2.0,
"z": 39.3,
"S": 0.1,
"Q": 0.88,
"w": 8.3,
"w_q": 2.82,
"h": 0.08,
"tau": 81.22,
"tau_c": 233.0,
"omega": 106.63,
"M": 0.35,
"D": 0.04,
"R": 0.05,
"sving": 0.09,
"os": 0.94,
"os_navn": "Kvernbekken",
"foss": 1.0,
"foss_drop": 11.32,
"juv": 0.0,
"B": 0.52,
"frac_fav": 0.7,
"d_gull_km": 10.33,
"berg": "Glimmerskifer | Glimmerskifer og lys grå til rusten, sandig glimmerskifer | Øverste kaledonske dekkeserie",
"p_raw": 0.17,
"A_km2": 3.53,
"gate": 1.0,
"P": 53.08,
"rank": 18,
"klasse": "B",
"navn": "Bogen (Kvennelva)",
"hvorfor": "Foss/stryk rett oppstrøms (11 m fall på 100 m) – fossekulp og fjell i dagen. Os: Kvernbekken kommer inn her – grus og tyngre materiale legges i osen og bankehodet nedenfor. Berggrunn: Glimmerskifer (70 % gunstig oppstrøms).",
"s2_anomali": null,
"s2_feox_z": null,
"satsjekk": "Automatisk bildeanalyse: dypt/mørkt vann, tett vegetasjon – elva delvis skjult."
}
},
{
"type": "Feature",
"geometry": {
"type": "Point",
"coordinates": [
12.51001,
65.05429
]
},
"properties": {
"elv": "Øvja",
"km": 0.7,
"z": 6.61,
"S": 0.02,
"Q": 4.38,
"w": 18.72,
"w_q": 6.28,
"h": 0.22,
"tau": 38.62,
"tau_c": 97.57,
"omega": 41.18,
"M": 0.4,
"D": 0.06,
"R": 0.09,
"sving": 0.69,
"os": 0.0,
"os_navn": "",
"foss": 0.51,
"foss_drop": 7.16,
"juv": 0.0,
"B": 0.78,
"frac_fav": 1.0,
"d_gull_km": 14.28,
"berg": "Glimmerskifer | Glimmergneis og glimmerskifer | Øverste kaledonske dekkeserie",
"p_raw": 0.17,
"A_km2": 17.52,
"gate": 1.0,
"P": 52.37,
"rank": 19,
"klasse": "B",
"navn": "Åbygda (Øvja)",
"hvorfor": "Foss/stryk rett oppstrøms (7 m fall på 100 m) – fossekulp og fjell i dagen. Skarp sving – grav på innersvingen og bak store steiner. Berggrunn: Glimmerskifer (100 % gunstig oppstrøms).",
"s2_anomali": null,
"s2_feox_z": null,
"satsjekk": "Automatisk bildeanalyse: dypt/mørkt vann, tett vegetasjon – elva delvis skjult."
}
},
{
"type": "Feature",
"geometry": {
"type": "Point",
"coordinates": [
12.16075,
65.26616
]
},
"properties": {
"elv": "Vågselva",
"km": 1.0,
"z": 25.03,
"S": 0.05,
"Q": 1.16,
"w": 9.68,
"w_q": 3.22,
"h": 0.11,
"tau": 54.53,
"tau_c": 166.61,
"omega": 61.29,
"M": 0.33,
"D": 0.12,
"R": 0.04,
"sving": 0.47,
"os": 0.0,
"os_navn": "",
"foss": 1.0,
"foss_drop": 10.88,
"juv": 0.0,
"B": 0.64,
"frac_fav": 1.0,
"d_gull_km": 19.21,
"berg": "Metasandstein | Metasandstein | Øverste kaledonske dekkeserie",
"p_raw": 0.16,
"A_km2": 4.62,
"gate": 1.0,
"P": 50.99,
"rank": 20,
"klasse": "B",
"navn": "Elvestad (Vågselva)",
"hvorfor": "Foss/stryk rett oppstrøms (11 m fall på 100 m) – fossekulp og fjell i dagen. Berggrunn: Metasandstein (100 % gunstig oppstrøms).",
"s2_anomali": null,
"s2_feox_z": null,
"satsjekk": "Automatisk bildeanalyse: dypt/mørkt vann, tett vegetasjon – elva delvis skjult."
}
}
]
}