{"type": "FeatureCollection", "features": [{"type": "Feature", "geometry": {"type": "Point", "coordinates": [12.10621, 65.08164]}, "properties": {"type": "gull", "okey": "2934", "name": "Hornelvbotn", "objtype": "MalmRegistrering", "websub_ntext": "Gull", "sted_verif": "Y", "faktaark": "https://aps.ngu.no/pls/oradb/minres_deposit_fakta.Main?p_objid=2934&p_spraak=N", "s2_oh_z": 0.83, "s2_feox_z": 0.42}}, {"type": "Feature", "geometry": {"type": "Point", "coordinates": [12.16651, 65.05909]}, "properties": {"type": "basemetall", "s2_oh_z": null, "s2_feox_z": null}}, {"type": "Feature", "geometry": {"type": "Point", "coordinates": [12.24776, 65.12912]}, "properties": {"type": "basemetall", "s2_oh_z": null, "s2_feox_z": null}}, {"type": "Feature", "geometry": {"type": "Point", "coordinates": [12.11716, 65.16923]}, "properties": {"type": "basemetall", "s2_oh_z": 1.54, "s2_feox_z": 2.38}}, {"type": "Feature", "geometry": {"type": "Point", "coordinates": [12.34016, 65.25837]}, "properties": {"type": "basemetall", "s2_oh_z": 0.72, "s2_feox_z": 0.77}}]}