<?xml version="1.0" encoding="UTF-8"?>
<gpx version="1.1" creator="gulloye" xmlns="http://www.topografix.com/GPX/1/1">
  <wpt lat="65.05547" lon="12.48171"><name>1 A – Olderholmen (Kvennbekken)</name><desc>Foss/stryk rett oppstrøms (7 m fall på 100 m) – fossekulp og fjell i dagen. τ = 165 Pa ≈ 1.5× terskelen: sand og grus flyttes ved flom, gull blir liggende (retensjon). Berggrunn: Kvartsdioritt (40 % gunstig oppstrøms).</desc></wpt>
  <wpt lat="65.05427" lon="12.36390"><name>2 A – Svartåsfossen (Stordalsbekken)</name><desc>Foss/stryk rett oppstrøms (10 m fall på 100 m) – fossekulp og fjell i dagen. Skarp sving – grav på innersvingen og bak store steiner. τ = 128 Pa ≈ 0.8× terskelen: sand og grus flyttes ved flom, gull blir liggende (retensjon). Berggrunn: Granitt (39 % gunstig oppstrøms).</desc></wpt>
  <wpt lat="65.07988" lon="12.36579"><name>3 A – Kvernhusfossen (Terråkelva)</name><desc>Foss/stryk rett oppstrøms (8 m fall på 100 m) – fossekulp og fjell i dagen. Skarp sving – grav på innersvingen og bak store steiner. Berggrunn: Monzonitt (40 % gunstig oppstrøms).</desc></wpt>
  <wpt lat="65.06452" lon="12.35410"><name>4 A – Lonan (Terråkelva)</name><desc>Foss/stryk rett oppstrøms (6 m fall på 100 m) – fossekulp og fjell i dagen. Os: sideelv kommer inn her – grus og tyngre materiale legges i osen og bankehodet nedenfor. Berggrunn: Monzonitt (40 % gunstig oppstrøms).</desc></wpt>
  <wpt lat="65.16665" lon="12.25032"><name>5 B – Buenget (Skjelsvikelva)</name><desc>Foss/stryk rett oppstrøms (25 m fall på 100 m) – fossekulp og fjell i dagen. Skarp sving – grav på innersvingen og bak store steiner. Berggrunn: Kalkglimmerskifer (59 % gunstig oppstrøms).</desc></wpt>
  <wpt lat="65.06547" lon="12.54937"><name>6 B – Gjerde (Tverråa)</name><desc>Foss/stryk rett oppstrøms (4 m fall på 100 m) – fossekulp og fjell i dagen. Os: Aunelva kommer inn her – grus og tyngre materiale legges i osen og bankehodet nedenfor. Skarp sving – grav på innersvingen og bak store steiner. Berggrunn: Kvartsdioritt (40 % gunstig oppstrøms).</desc></wpt>
  <wpt lat="65.14821" lon="12.50948"><name>7 B – Bjønnåa, km 1.4</name><desc>Foss/stryk rett oppstrøms (22 m fall på 100 m) – fossekulp og fjell i dagen. Os: sideelv kommer inn her – grus og tyngre materiale legges i osen og bankehodet nedenfor. Berggrunn: Kvartsdioritt (40 % gunstig oppstrøms). NGU-registrert gullforekomst 7.8 km unna.</desc></wpt>
  <wpt lat="65.17859" lon="12.22367"><name>8 B – Stormyra (Fiskeroselva)</name><desc>Foss/stryk rett oppstrøms (6 m fall på 100 m) – fossekulp og fjell i dagen. Os: Tverrelva kommer inn her – grus og tyngre materiale legges i osen og bankehodet nedenfor. Berggrunn: Glimmerskifer (55 % gunstig oppstrøms).</desc></wpt>
  <wpt lat="65.27604" lon="12.43881"><name>9 B – Moamyra (Hardangselva)</name><desc>Foss/stryk rett oppstrøms (14 m fall på 100 m) – fossekulp og fjell i dagen. Os: sideelv kommer inn her – grus og tyngre materiale legges i osen og bankehodet nedenfor. Skarp sving – grav på innersvingen og bak store steiner. Berggrunn: Glimmerskifer (70 % gunstig oppstrøms).</desc></wpt>
  <wpt lat="65.10832" lon="12.20213"><name>10 B – Hornelva, km 4.0</name><desc>Foss/stryk rett oppstrøms (6 m fall på 100 m) – fossekulp og fjell i dagen. Os: sideelv kommer inn her – grus og tyngre materiale legges i osen og bankehodet nedenfor. Berggrunn: Granitt (35 % gunstig oppstrøms). NGU-registrert gullforekomst 5.1 km unna.</desc></wpt>
  <wpt lat="65.06520" lon="12.32227"><name>11 B – Bogen (Kvennelva)</name><desc>Foss/stryk rett oppstrøms (11 m fall på 100 m) – fossekulp og fjell i dagen. Os: Kvernbekken kommer inn her – grus og tyngre materiale legges i osen og bankehodet nedenfor. Berggrunn: Glimmerskifer (70 % gunstig oppstrøms).</desc></wpt>
  <wpt lat="65.05429" lon="12.51001"><name>12 B – Åbygda (Øvja)</name><desc>Foss/stryk rett oppstrøms (7 m fall på 100 m) – fossekulp og fjell i dagen. Skarp sving – grav på innersvingen og bak store steiner. Berggrunn: Glimmerskifer (100 % gunstig oppstrøms).</desc></wpt>
  <wpt lat="65.26616" lon="12.16075"><name>13 B – Elvestad (Vågselva)</name><desc>Foss/stryk rett oppstrøms (11 m fall på 100 m) – fossekulp og fjell i dagen. Berggrunn: Metasandstein (100 % gunstig oppstrøms).</desc></wpt>
  <wpt lat="65.05938" lon="12.52512"><name>14 B – Heimstad (Bjørbekkjen)</name><desc>Foss/stryk rett oppstrøms (11 m fall på 100 m) – fossekulp og fjell i dagen. Skarp sving – grav på innersvingen og bak store steiner.</desc></wpt>
  <wpt lat="65.14142" lon="12.50900"><name>15 B – Bjønnåa, km 2.3</name><desc>Foss/stryk rett oppstrøms (36 m fall på 100 m) – fossekulp og fjell i dagen. Skarp sving – grav på innersvingen og bak store steiner. Berggrunn: Kvartsdioritt (40 % gunstig oppstrøms).</desc></wpt>
  <wpt lat="65.11365" lon="12.26370"><name>16 B – Saltbuvikbekken, km 1.7</name><desc>Foss/stryk rett oppstrøms (52 m fall på 100 m) – fossekulp og fjell i dagen. Berggrunn: Gabbro (100 % gunstig oppstrøms).</desc></wpt>
  <wpt lat="65.12652" lon="12.56709"><name>17 B – Jordfallsmyra (Leiråa)</name><desc>Foss/stryk rett oppstrøms (4 m fall på 100 m) – fossekulp og fjell i dagen. Berggrunn: Kvartsdioritt (76 % gunstig oppstrøms). NGU-registrert gullforekomst 6.4 km unna.</desc></wpt>
  <wpt lat="65.18163" lon="12.45742"><name>18 B – Elvan (Kringlielva)</name><desc>Foss/stryk rett oppstrøms (48 m fall på 100 m) – fossekulp og fjell i dagen. Berggrunn: Kvartsdioritt (40 % gunstig oppstrøms).</desc></wpt>
  <wpt lat="65.08271" lon="12.51101"><name>19 B – Flodalselva, km 0.2</name><desc>Foss/stryk rett oppstrøms (20 m fall på 100 m) – fossekulp og fjell i dagen. Berggrunn: Kvartsdioritt (79 % gunstig oppstrøms).</desc></wpt>
  <wpt lat="65.15423" lon="12.22265"><name>20 B – Husmannli (Skjelsvikelva)</name><desc>Foss/stryk rett oppstrøms (5 m fall på 100 m) – fossekulp og fjell i dagen. Skarp sving – grav på innersvingen og bak store steiner. Berggrunn: Kalkglimmerskifer (51 % gunstig oppstrøms).</desc></wpt>
</gpx>