<?xml version="1.0" encoding="UTF-8"?>
<kml xmlns="http://www.opengis.net/kml/2.2"><Document>
<name>GULLØYE – Bindal</name>
<Style id="kA"><IconStyle><color>ff2b39c0</color><scale>1.1</scale></IconStyle></Style>
<Style id="kB"><IconStyle><color>ff227ee6</color><scale>1.1</scale></IconStyle></Style>
<Style id="kC"><IconStyle><color>ff0fc4f1</color><scale>1.1</scale></IconStyle></Style>
<Placemark><name>1A Olderholmen (Kvennbekken)</name><styleUrl>#kA</styleUrl><description>P=100. Foss/stryk rett oppstrøms (7 m fall på 100 m) – fossekulp og fjell i dagen. τ = 165 Pa ≈ 1.5× terskelen: sand og grus flyttes ved flom, gull blir liggende (retensjon). Berggrunn: Kvartsdioritt (40 % gunstig oppstrøms). Lett: bilvei 128 m unna (Strandaveien).</description><Point><coordinates>12.48171,65.05547,0</coordinates></Point></Placemark>
<Placemark><name>2A Svartåsfossen (Stordalsbekken)</name><styleUrl>#kA</styleUrl><description>P=87. Foss/stryk rett oppstrøms (10 m fall på 100 m) – fossekulp og fjell i dagen. Skarp sving – grav på innersvingen og bak store steiner. τ = 128 Pa ≈ 0.8× terskelen: sand og grus flyttes ved flom, gull blir liggende (retensjon). Berggrunn: Granitt (39 % gunstig oppstrøms). Kort gange: bilvei 532 m unna. Parkering 531 m unna.</description><Point><coordinates>12.36390,65.05427,0</coordinates></Point></Placemark>
<Placemark><name>3A Kvernhusfossen (Terråkelva)</name><styleUrl>#kA</styleUrl><description>P=81. Foss/stryk rett oppstrøms (8 m fall på 100 m) – fossekulp og fjell i dagen. Skarp sving – grav på innersvingen og bak store steiner. Berggrunn: Monzonitt (40 % gunstig oppstrøms). Lett: bilvei 27 m unna (Stilleelva). Parkering 487 m unna.</description><Point><coordinates>12.36579,65.07988,0</coordinates></Point></Placemark>
<Placemark><name>4A Lonan (Terråkelva)</name><styleUrl>#kA</styleUrl><description>P=78. Foss/stryk rett oppstrøms (6 m fall på 100 m) – fossekulp og fjell i dagen. Os: sideelv kommer inn her – grus og tyngre materiale legges i osen og bankehodet nedenfor. Berggrunn: Monzonitt (40 % gunstig oppstrøms). Kort gange: bilvei 286 m unna. Parkering 309 m unna.</description><Point><coordinates>12.35410,65.06452,0</coordinates></Point></Placemark>
<Placemark><name>5B Buenget (Skjelsvikelva)</name><styleUrl>#kB</styleUrl><description>P=67. Foss/stryk rett oppstrøms (25 m fall på 100 m) – fossekulp og fjell i dagen. Skarp sving – grav på innersvingen og bak store steiner. Berggrunn: Kalkglimmerskifer (59 % gunstig oppstrøms). Kort gange: bilvei 226 m unna.</description><Point><coordinates>12.25032,65.16665,0</coordinates></Point></Placemark>
<Placemark><name>6B Gjerde (Tverråa)</name><styleUrl>#kB</styleUrl><description>P=65. Foss/stryk rett oppstrøms (4 m fall på 100 m) – fossekulp og fjell i dagen. Os: Aunelva kommer inn her – grus og tyngre materiale legges i osen og bankehodet nedenfor. Skarp sving – grav på innersvingen og bak store steiner. Berggrunn: Kvartsdioritt (40 % gunstig oppstrøms). Kort gange: bilvei 418 m unna.</description><Point><coordinates>12.54937,65.06547,0</coordinates></Point></Placemark>
<Placemark><name>7B Bjønnåa, km 1.4</name><styleUrl>#kB</styleUrl><description>P=63. Foss/stryk rett oppstrøms (22 m fall på 100 m) – fossekulp og fjell i dagen. Os: sideelv kommer inn her – grus og tyngre materiale legges i osen og bankehodet nedenfor. Berggrunn: Kvartsdioritt (40 % gunstig oppstrøms). NGU-registrert gullforekomst 7.8 km unna. Avsides: 2.7 km fra bilvei – planlegg dagstur.</description><Point><coordinates>12.50948,65.14821,0</coordinates></Point></Placemark>
<Placemark><name>8B Stormyra (Fiskeroselva)</name><styleUrl>#kB</styleUrl><description>P=60. Foss/stryk rett oppstrøms (6 m fall på 100 m) – fossekulp og fjell i dagen. Os: Tverrelva kommer inn her – grus og tyngre materiale legges i osen og bankehodet nedenfor. Berggrunn: Glimmerskifer (55 % gunstig oppstrøms). Gange 1.1 km fra nærmeste bilvei.</description><Point><coordinates>12.22367,65.17859,0</coordinates></Point></Placemark>
<Placemark><name>9B Moamyra (Hardangselva)</name><styleUrl>#kB</styleUrl><description>P=58. Foss/stryk rett oppstrøms (14 m fall på 100 m) – fossekulp og fjell i dagen. Os: sideelv kommer inn her – grus og tyngre materiale legges i osen og bankehodet nedenfor. Skarp sving – grav på innersvingen og bak store steiner. Berggrunn: Glimmerskifer (70 % gunstig oppstrøms). Lett: bilvei 21 m unna (Båtnesveien).</description><Point><coordinates>12.43881,65.27604,0</coordinates></Point></Placemark>
<Placemark><name>10B Hornelva, km 4.0</name><styleUrl>#kB</styleUrl><description>P=57. Foss/stryk rett oppstrøms (6 m fall på 100 m) – fossekulp og fjell i dagen. Os: sideelv kommer inn her – grus og tyngre materiale legges i osen og bankehodet nedenfor. Berggrunn: Granitt (35 % gunstig oppstrøms). NGU-registrert gullforekomst 5.1 km unna. Lett: bilvei 87 m unna (service). Parkering 717 m unna.</description><Point><coordinates>12.20213,65.10832,0</coordinates></Point></Placemark>
<Placemark><name>11B Bogen (Kvennelva)</name><styleUrl>#kB</styleUrl><description>P=56. Foss/stryk rett oppstrøms (11 m fall på 100 m) – fossekulp og fjell i dagen. Os: Kvernbekken kommer inn her – grus og tyngre materiale legges i osen og bankehodet nedenfor. Berggrunn: Glimmerskifer (70 % gunstig oppstrøms). Lett: bilvei 135 m unna (Sørfjordveien). Parkering 1356 m unna.</description><Point><coordinates>12.32227,65.06520,0</coordinates></Point></Placemark>
<Placemark><name>12B Åbygda (Øvja)</name><styleUrl>#kB</styleUrl><description>P=56. Foss/stryk rett oppstrøms (7 m fall på 100 m) – fossekulp og fjell i dagen. Skarp sving – grav på innersvingen og bak store steiner. Berggrunn: Glimmerskifer (100 % gunstig oppstrøms). Lett: bilvei 72 m unna (Åbygdveien).</description><Point><coordinates>12.51001,65.05429,0</coordinates></Point></Placemark>
<Placemark><name>13B Elvestad (Vågselva)</name><styleUrl>#kB</styleUrl><description>P=54. Foss/stryk rett oppstrøms (11 m fall på 100 m) – fossekulp og fjell i dagen. Berggrunn: Metasandstein (100 % gunstig oppstrøms). Kort gange: bilvei 185 m unna.</description><Point><coordinates>12.16075,65.26616,0</coordinates></Point></Placemark>
<Placemark><name>14B Heimstad (Bjørbekkjen)</name><styleUrl>#kB</styleUrl><description>P=53. Foss/stryk rett oppstrøms (11 m fall på 100 m) – fossekulp og fjell i dagen. Skarp sving – grav på innersvingen og bak store steiner. Kort gange: bilvei 230 m unna.</description><Point><coordinates>12.52512,65.05938,0</coordinates></Point></Placemark>
<Placemark><name>15B Bjønnåa, km 2.3</name><styleUrl>#kB</styleUrl><description>P=50. Foss/stryk rett oppstrøms (36 m fall på 100 m) – fossekulp og fjell i dagen. Skarp sving – grav på innersvingen og bak store steiner. Berggrunn: Kvartsdioritt (40 % gunstig oppstrøms). Avsides: 2.2 km fra bilvei – planlegg dagstur.</description><Point><coordinates>12.50900,65.14142,0</coordinates></Point></Placemark>
<Placemark><name>16B Saltbuvikbekken, km 1.7</name><styleUrl>#kB</styleUrl><description>P=48. Foss/stryk rett oppstrøms (52 m fall på 100 m) – fossekulp og fjell i dagen. Berggrunn: Gabbro (100 % gunstig oppstrøms). Gange 0.9 km fra nærmeste bilvei.</description><Point><coordinates>12.26370,65.11365,0</coordinates></Point></Placemark>
<Placemark><name>17B Jordfallsmyra (Leiråa)</name><styleUrl>#kB</styleUrl><description>P=47. Foss/stryk rett oppstrøms (4 m fall på 100 m) – fossekulp og fjell i dagen. Berggrunn: Kvartsdioritt (76 % gunstig oppstrøms). NGU-registrert gullforekomst 6.4 km unna. Lett: bilvei 87 m unna (service).</description><Point><coordinates>12.56709,65.12652,0</coordinates></Point></Placemark>
<Placemark><name>18B Elvan (Kringlielva)</name><styleUrl>#kB</styleUrl><description>P=47. Foss/stryk rett oppstrøms (48 m fall på 100 m) – fossekulp og fjell i dagen. Berggrunn: Kvartsdioritt (40 % gunstig oppstrøms). Avsides: 5.3 km fra bilvei – planlegg dagstur.</description><Point><coordinates>12.45742,65.18163,0</coordinates></Point></Placemark>
<Placemark><name>19B Flodalselva, km 0.2</name><styleUrl>#kB</styleUrl><description>P=46. Foss/stryk rett oppstrøms (20 m fall på 100 m) – fossekulp og fjell i dagen. Berggrunn: Kvartsdioritt (79 % gunstig oppstrøms). Gange 1.4 km fra nærmeste bilvei.</description><Point><coordinates>12.51101,65.08271,0</coordinates></Point></Placemark>
<Placemark><name>20B Husmannli (Skjelsvikelva)</name><styleUrl>#kB</styleUrl><description>P=46. Foss/stryk rett oppstrøms (5 m fall på 100 m) – fossekulp og fjell i dagen. Skarp sving – grav på innersvingen og bak store steiner. Berggrunn: Kalkglimmerskifer (51 % gunstig oppstrøms). Lett: bilvei 27 m unna (Røytvollveien).</description><Point><coordinates>12.22265,65.15423,0</coordinates></Point></Placemark>
</Document></kml>