{
"type": "FeatureCollection",
"features": [
{
"type": "Feature",
"geometry": {
"type": "Point",
"coordinates": [
25.70182,
69.24416
]
},
"properties": {
"elv": "Iskorasjohka",
"km": 3.3,
"z": 0.0,
"S": 0.0,
"Q": 227.54,
"w": 10.0,
"w_q": 45.25,
"h": 34.1,
"tau": 33.45,
"tau_c": 11.65,
"omega": 22.32,
"M": 2.87,
"D": 0.0,
"R": 0.56,
"sving": 0.75,
"os": 0.0,
"os_navn": "",
"foss": 0.0,
"foss_drop": 0.0,
"juv": 0.0,
"B": 1.3,
"frac_fav": 0.82,
"d_gull_km": 0.88,
"berg": "Amfibolgneis | Hornblende gneiser av intermediær til mafisk sammensetning, amfibolitter stedvis med granitter og granittiske gneiser, glimmerskifer og grafittskifer og ultramafiske bergarter. Migmatitter. | Lapland-Kola litotektoniske enhet",
"p_raw": 0.33,
"A_km2": 2528.19,
"gate": 1.0,
"P": 100.0,
"rank": 1,
"klasse": "A",
"navn": "Bálggatnjavvi (Iskorasjohka)",
"hvorfor": "Skarp sving – grav på innersvingen og bak store steiner. τ = 33 Pa ≈ 2.9× terskelen: sand og grus flyttes ved flom, gull blir liggende (retensjon). Berggrunn: Amfibolgneis (82 % gunstig oppstrøms). NGU-registrert gullforekomst 0.9 km unna.",
"s2_anomali": 1.66,
"s2_feox_z": 1.66,
"satsjekk": "Automatisk bildeanalyse: ingen tydelige trekk."
}
},
{
"type": "Feature",
"geometry": {
"type": "Point",
"coordinates": [
25.64197,
69.24628
]
},
"properties": {
"elv": "Iskorasjohka",
"km": 0.0,
"z": 0.0,
"S": 0.0,
"Q": 15.94,
"w": 10.0,
"w_q": 11.98,
"h": 3.81,
"tau": 3.74,
"tau_c": 11.65,
"omega": 1.56,
"M": 0.32,
"D": 0.0,
"R": 0.04,
"sving": 1.0,
"os": 1.0,
"os_navn": "Iškorasjohka",
"foss": 0.0,
"foss_drop": 0.0,
"juv": 0.0,
"B": 1.0,
"frac_fav": 0.8,
"d_gull_km": 2.63,
"berg": "Amfibolgneis | Hornblende gneiser av intermediær til mafisk sammensetning, amfibolitter stedvis med granitter og granittiske gneiser, glimmerskifer og grafittskifer og ultramafiske bergarter. Migmatitter. | Lapland-Kola litotektoniske enhet",
"p_raw": 0.31,
"A_km2": 177.06,
"gate": 1.0,
"P": 94.91,
"rank": 2,
"klasse": "A",
"navn": "Iskorasjohka, km 0.0",
"hvorfor": "Os: Iškorasjohka kommer inn her – grus og tyngre materiale legges i osen og bankehodet nedenfor. Skarp sving – grav på innersvingen og bak store steiner. Berggrunn: Amfibolgneis (80 % gunstig oppstrøms). NGU-registrert gullforekomst 2.6 km unna.",
"s2_anomali": null,
"s2_feox_z": null,
"satsjekk": "Automatisk bildeanalyse: ingen tydelige trekk."
}
},
{
"type": "Feature",
"geometry": {
"type": "Point",
"coordinates": [
25.75187,
69.06102
]
},
"properties": {
"elv": "bekk",
"km": 2.6,
"z": 0.0,
"S": 0.0,
"Q": 100.39,
"w": 10.0,
"w_q": 30.06,
"h": 16.4,
"tau": 16.09,
"tau_c": 11.65,
"omega": 9.85,
"M": 1.38,
"D": 0.0,
"R": 0.99,
"sving": 0.47,
"os": 0.0,
"os_navn": "",
"foss": 0.0,
"foss_drop": 0.0,
"juv": 0.0,
"B": 0.8,
"frac_fav": 0.4,
"d_gull_km": 13.73,
"berg": "",
"p_raw": 0.26,
"A_km2": 1115.48,
"gate": 1.0,
"P": 78.1,
"rank": 3,
"klasse": "A",
"navn": "Geavgŋávuolle (bekk)",
"hvorfor": "τ = 16 Pa ≈ 1.4× terskelen: sand og grus flyttes ved flom, gull blir liggende (retensjon).",
"s2_anomali": null,
"s2_feox_z": null,
"satsjekk": "Automatisk bildeanalyse: tett vegetasjon – elva delvis skjult."
}
},
{
"type": "Feature",
"geometry": {
"type": "Point",
"coordinates": [
25.14485,
69.34058
]
},
"properties": {
"elv": "bekk",
"km": 0.2,
"z": 0.0,
"S": 0.0,
"Q": 192.25,
"w": 77.27,
"w_q": 41.6,
"h": 4.13,
"tau": 4.06,
"tau_c": 11.65,
"omega": 2.44,
"M": 0.35,
"D": 0.0,
"R": 0.05,
"sving": 0.78,
"os": 0.49,
"os_navn": "sideelv",
"foss": 0.0,
"foss_drop": 0.0,
"juv": 0.0,
"B": 0.86,
"frac_fav": 0.4,
"d_gull_km": 9.27,
"berg": "",
"p_raw": 0.18,
"A_km2": 2136.13,
"gate": 1.0,
"P": 53.76,
"rank": 4,
"klasse": "B",
"navn": "Govdatsavu (bekk)",
"hvorfor": "Skarp sving – grav på innersvingen og bak store steiner.",
"s2_anomali": 4.0,
"s2_feox_z": 9.39,
"satsjekk": "Automatisk bildeanalyse: ingen tydelige trekk."
}
},
{
"type": "Feature",
"geometry": {
"type": "Point",
"coordinates": [
24.86505,
69.31355
]
},
"properties": {
"elv": "Bajit Gáldojohka",
"km": 5.7,
"z": 0.0,
"S": 0.0,
"Q": 166.12,
"w": 73.37,
"w_q": 38.67,
"h": 3.91,
"tau": 3.83,
"tau_c": 11.65,
"omega": 2.22,
"M": 0.33,
"D": -0.0,
"R": 0.04,
"sving": 0.27,
"os": 0.16,
"os_navn": "Vuolit Gáldojohka",
"foss": 0.34,
"foss_drop": 0.0,
"juv": 0.0,
"B": 1.26,
"frac_fav": 1.0,
"d_gull_km": 0.81,
"berg": "Granittisk gneis | Granittisk til tonalittisk gneis, lysegrå til grå, fin- til middelskornet, sterkt foliert, tildels båndet; stedvis med amfibolittsoner | Karelia litotektoniske enhet",
"p_raw": 0.16,
"A_km2": 1845.73,
"gate": 1.0,
"P": 48.19,
"rank": 5,
"klasse": "B",
"navn": "Gáldojohguoika (Bajit Gáldojohka)",
"hvorfor": "Berggrunn: Granittisk gneis (100 % gunstig oppstrøms). NGU-registrert gullforekomst 0.8 km unna.",
"s2_anomali": null,
"s2_feox_z": null,
"satsjekk": "Automatisk bildeanalyse: tett vegetasjon – elva delvis skjult."
}
},
{
"type": "Feature",
"geometry": {
"type": "Point",
"coordinates": [
24.82098,
69.29049
]
},
"properties": {
"elv": "Nuorrojohka",
"km": 7.3,
"z": 0.0,
"S": 0.0,
"Q": 164.37,
"w": 76.25,
"w_q": 38.46,
"h": 3.78,
"tau": 3.71,
"tau_c": 11.65,
"omega": 2.11,
"M": 0.32,
"D": 0.0,
"R": 0.04,
"sving": 0.32,
"os": 0.1,
"os_navn": "sideelv",
"foss": 0.29,
"foss_drop": 0.0,
"juv": 0.0,
"B": 1.26,
"frac_fav": 1.0,
"d_gull_km": 2.31,
"berg": "Granittisk gneis | Granittisk til tonalittisk gneis, lysegrå til grå, fin- til middelskornet, sterkt foliert, tildels båndet; stedvis med amfibolittsoner | Karelia litotektoniske enhet",
"p_raw": 0.15,
"A_km2": 1826.39,
"gate": 1.0,
"P": 44.42,
"rank": 6,
"klasse": "C",
"navn": "Stuorragorži (Nuorrojohka)",
"hvorfor": "Berggrunn: Granittisk gneis (100 % gunstig oppstrøms). NGU-registrert gullforekomst 2.3 km unna.",
"s2_anomali": 0.63,
"s2_feox_z": -0.32,
"satsjekk": "Automatisk bildeanalyse: tett vegetasjon – elva delvis skjult."
}
},
{
"type": "Feature",
"geometry": {
"type": "Point",
"coordinates": [
25.7152,
69.22788
]
},
"properties": {
"elv": "bekk",
"km": 3.6,
"z": 0.0,
"S": 0.0,
"Q": 205.14,
"w": 79.99,
"w_q": 42.97,
"h": 4.21,
"tau": 4.13,
"tau_c": 11.65,
"omega": 2.52,
"M": 0.35,
"D": -0.0,
"R": 0.06,
"sving": 0.76,
"os": 0.0,
"os_navn": "",
"foss": 0.0,
"foss_drop": 0.0,
"juv": 0.0,
"B": 1.01,
"frac_fav": 0.4,
"d_gull_km": 1.07,
"berg": "",
"p_raw": 0.13,
"A_km2": 2279.33,
"gate": 1.0,
"P": 39.37,
"rank": 7,
"klasse": "C",
"navn": "Guollemarjávri (bekk)",
"hvorfor": "Skarp sving – grav på innersvingen og bak store steiner. NGU-registrert gullforekomst 1.1 km unna.",
"s2_anomali": 4.0,
"s2_feox_z": 6.68,
"satsjekk": "Automatisk bildeanalyse: tett vegetasjon – elva delvis skjult."
}
},
{
"type": "Feature",
"geometry": {
"type": "Point",
"coordinates": [
25.74957,
69.28958
]
},
"properties": {
"elv": "bekk",
"km": 2.3,
"z": 0.0,
"S": 0.0,
"Q": 231.45,
"w": 110.79,
"w_q": 45.64,
"h": 3.67,
"tau": 3.6,
"tau_c": 11.65,
"omega": 2.05,
"M": 0.31,
"D": 0.05,
"R": 0.03,
"sving": 0.6,
"os": 0.16,
"os_navn": "sideelv",
"foss": 0.0,
"foss_drop": 0.0,
"juv": 0.0,
"B": 0.91,
"frac_fav": 0.4,
"d_gull_km": 6.23,
"berg": "",
"p_raw": 0.12,
"A_km2": 2571.72,
"gate": 1.0,
"P": 36.91,
"rank": 8,
"klasse": "C",
"navn": "Sámmálnjavvi (bekk)",
"hvorfor": "Skarp sving – grav på innersvingen og bak store steiner. NGU-registrert gullforekomst 6.2 km unna.",
"s2_anomali": 4.0,
"s2_feox_z": 11.72,
"satsjekk": "Automatisk bildeanalyse: dypt/mørkt vann, tett vegetasjon – elva delvis skjult."
}
},
{
"type": "Feature",
"geometry": {
"type": "Point",
"coordinates": [
24.63974,
69.39901
]
},
"properties": {
"elv": "bekk",
"km": 0.1,
"z": 0.0,
"S": 0.0,
"Q": 168.66,
"w": 79.87,
"w_q": 38.96,
"h": 3.73,
"tau": 3.66,
"tau_c": 11.65,
"omega": 2.07,
"M": 0.31,
"D": 0.0,
"R": 0.03,
"sving": 0.57,
"os": 0.0,
"os_navn": "",
"foss": 0.0,
"foss_drop": 0.0,
"juv": 0.0,
"B": 1.26,
"frac_fav": 0.97,
"d_gull_km": 13.08,
"berg": "Granittisk gneis | Granittisk til tonalittisk gneis, lysegrå til grå, fin- til middelskornet, sterkt foliert, tildels båndet; stedvis med amfibolittsoner | Karelia litotektoniske enhet",
"p_raw": 0.12,
"A_km2": 1873.97,
"gate": 1.0,
"P": 36.49,
"rank": 9,
"klasse": "C",
"navn": "Jergolnjavvi (bekk)",
"hvorfor": "Skarp sving – grav på innersvingen og bak store steiner. Berggrunn: Granittisk gneis (97 % gunstig oppstrøms).",
"s2_anomali": 4.0,
"s2_feox_z": 5.73,
"satsjekk": "Automatisk bildeanalyse: ingen tydelige trekk."
}
},
{
"type": "Feature",
"geometry": {
"type": "Point",
"coordinates": [
24.78527,
69.2311
]
},
"properties": {
"elv": "Dápmotjohka",
"km": 1.0,
"z": 0.0,
"S": 0.0,
"Q": 156.64,
"w": 73.01,
"w_q": 37.55,
"h": 3.78,
"tau": 3.71,
"tau_c": 11.65,
"omega": 2.1,
"M": 0.32,
"D": 0.0,
"R": 0.04,
"sving": 0.42,
"os": 0.0,
"os_navn": "",
"foss": 0.28,
"foss_drop": 0.0,
"juv": 0.0,
"B": 1.0,
"frac_fav": 0.51,
"d_gull_km": 3.58,
"berg": "Glimmerskifer | Glimmerskifer og kvarts-feltspatskifer, tildels kalkspatholdig, i veksling med kvartsitt, underordnet grafittskifer; amfibolitt og amfibol-klorittskifer og mafiske lagganger kan opptre | Karelia litotektoniske enhet",
"p_raw": 0.11,
"A_km2": 1740.4,
"gate": 1.0,
"P": 34.66,
"rank": 10,
"klasse": "C",
"navn": "Dápmotguoika (Dápmotjohka)",
"hvorfor": "Berggrunn: Glimmerskifer (51 % gunstig oppstrøms). NGU-registrert gullforekomst 3.6 km unna.",
"s2_anomali": 0.19,
"s2_feox_z": -0.94,
"satsjekk": "Automatisk bildeanalyse: dypt/mørkt vann."
}
},
{
"type": "Feature",
"geometry": {
"type": "Point",
"coordinates": [
25.67945,
69.24495
]
},
"properties": {
"elv": "Iskorasjohka",
"km": 2.0,
"z": 0.0,
"S": 0.0,
"Q": 16.7,
"w": 10.0,
"w_q": 12.26,
"h": 3.94,
"tau": 3.87,
"tau_c": 11.65,
"omega": 1.64,
"M": 0.33,
"D": 0.0,
"R": 0.04,
"sving": 0.28,
"os": 0.38,
"os_navn": "sideelv",
"foss": 0.0,
"foss_drop": 0.0,
"juv": 0.0,
"B": 1.02,
"frac_fav": 0.82,
"d_gull_km": 1.32,
"berg": "Amfibolgneis | Hornblende gneiser av intermediær til mafisk sammensetning, amfibolitter stedvis med granitter og granittiske gneiser, glimmerskifer og grafittskifer og ultramafiske bergarter. Migmatitter. | Lapland-Kola litotektoniske enhet",
"p_raw": 0.11,
"A_km2": 185.58,
"gate": 1.0,
"P": 34.19,
"rank": 11,
"klasse": "C",
"navn": "Iškorasjohka (Iskorasjohka)",
"hvorfor": "Berggrunn: Amfibolgneis (82 % gunstig oppstrøms). NGU-registrert gullforekomst 1.3 km unna.",
"s2_anomali": null,
"s2_feox_z": null,
"satsjekk": "Automatisk bildeanalyse: tett vegetasjon – elva delvis skjult."
}
},
{
"type": "Feature",
"geometry": {
"type": "Point",
"coordinates": [
25.00468,
69.32529
]
},
"properties": {
"elv": "Roavvejogaš",
"km": 5.3,
"z": 0.0,
"S": 0.0,
"Q": 181.37,
"w": 78.71,
"w_q": 40.4,
"h": 3.94,
"tau": 3.86,
"tau_c": 11.65,
"omega": 2.26,
"M": 0.33,
"D": 0.0,
"R": 0.04,
"sving": 0.31,
"os": 0.13,
"os_navn": "sideelv",
"foss": 0.0,
"foss_drop": 0.0,
"juv": 0.0,
"B": 1.27,
"frac_fav": 1.0,
"d_gull_km": 3.63,
"berg": "Amfibolitt | Amfibolitt, massiv eller båndet, stedvis putestrukturer, stedvis med amfibol-klorittskifer | Karelia litotektoniske enhet",
"p_raw": 0.1,
"A_km2": 2015.27,
"gate": 1.0,
"P": 30.36,
"rank": 12,
"klasse": "C",
"navn": "Liehppesavu (Roavvejogaš)",
"hvorfor": "Berggrunn: Amfibolitt (100 % gunstig oppstrøms). NGU-registrert gullforekomst 3.6 km unna.",
"s2_anomali": 4.0,
"s2_feox_z": 8.9,
"satsjekk": "Automatisk bildeanalyse: tett vegetasjon – elva delvis skjult."
}
},
{
"type": "Feature",
"geometry": {
"type": "Point",
"coordinates": [
25.15714,
69.35464
]
},
"properties": {
"elv": "Námmájohka",
"km": 3.3,
"z": 0.0,
"S": 0.0,
"Q": 192.74,
"w": 79.69,
"w_q": 41.65,
"h": 4.06,
"tau": 3.98,
"tau_c": 11.65,
"omega": 2.37,
"M": 0.34,
"D": 0.0,
"R": 0.05,
"sving": 0.5,
"os": 0.0,
"os_navn": "",
"foss": 0.0,
"foss_drop": 0.0,
"juv": 0.0,
"B": 1.05,
"frac_fav": 0.65,
"d_gull_km": 10.44,
"berg": "Kvartsitt | Kvartsitt, gråhvit eller grønn (fuchsittkvartsitt), arkositt, konglomerat, kvarts-feltspatskifer, glimmerskifer, | Karelia litotektoniske enhet",
"p_raw": 0.09,
"A_km2": 2141.56,
"gate": 1.0,
"P": 27.7,
"rank": 13,
"klasse": "C",
"navn": "Goikenjavesavu (Námmájohka)",
"hvorfor": "Berggrunn: Kvartsitt (65 % gunstig oppstrøms).",
"s2_anomali": 0.5,
"s2_feox_z": 0.08,
"satsjekk": "Automatisk bildeanalyse: tett vegetasjon – elva delvis skjult."
}
},
{
"type": "Feature",
"geometry": {
"type": "Point",
"coordinates": [
25.76271,
69.33155
]
},
"properties": {
"elv": "bekk",
"km": 0.7,
"z": 0.0,
"S": 0.0,
"Q": 236.17,
"w": 112.82,
"w_q": 46.1,
"h": 3.67,
"tau": 3.6,
"tau_c": 11.65,
"omega": 2.05,
"M": 0.31,
"D": 0.05,
"R": 0.03,
"sving": 0.37,
"os": 0.15,
"os_navn": "sideelv",
"foss": 0.0,
"foss_drop": 0.0,
"juv": 0.0,
"B": 0.87,
"frac_fav": 0.4,
"d_gull_km": 10.89,
"berg": "",
"p_raw": 0.08,
"A_km2": 2624.07,
"gate": 1.0,
"P": 25.53,
"rank": 14,
"klasse": "C",
"navn": "Ruitojávri (bekk)",
"hvorfor": "Kombinasjon av strømfall, terskelnær skjærspenning og feller.",
"s2_anomali": 4.0,
"s2_feox_z": 15.94,
"satsjekk": "Automatisk bildeanalyse: grus/sandbanke synlig, tett vegetasjon – elva delvis skjult."
}
},
{
"type": "Feature",
"geometry": {
"type": "Point",
"coordinates": [
25.09816,
69.33756
]
},
"properties": {
"elv": "Šuolggajohka",
"km": 2.7,
"z": 0.0,
"S": 0.0,
"Q": 192.02,
"w": 84.47,
"w_q": 41.57,
"h": 3.9,
"tau": 3.82,
"tau_c": 11.65,
"omega": 2.23,
"M": 0.33,
"D": -0.0,
"R": 0.04,
"sving": 0.36,
"os": 0.0,
"os_navn": "",
"foss": 0.0,
"foss_drop": 0.0,
"juv": 0.0,
"B": 1.28,
"frac_fav": 1.0,
"d_gull_km": 7.48,
"berg": "Amfibolitt | Amfibolitt, massiv eller båndet, stedvis putestrukturer, stedvis med amfibol-klorittskifer | Karelia litotektoniske enhet",
"p_raw": 0.08,
"A_km2": 2133.53,
"gate": 1.0,
"P": 24.87,
"rank": 15,
"klasse": "C",
"navn": "Šuolggasavu (Šuolggajohka)",
"hvorfor": "Berggrunn: Amfibolitt (100 % gunstig oppstrøms). NGU-registrert gullforekomst 7.5 km unna.",
"s2_anomali": null,
"s2_feox_z": null,
"satsjekk": "Automatisk bildeanalyse: ingen tydelige trekk."
}
},
{
"type": "Feature",
"geometry": {
"type": "Point",
"coordinates": [
25.71678,
69.17966
]
},
"properties": {
"elv": "bekk",
"km": 3.8,
"z": 0.0,
"S": 0.0,
"Q": 199.41,
"w": 86.15,
"w_q": 42.36,
"h": 3.94,
"tau": 3.86,
"tau_c": 11.65,
"omega": 2.27,
"M": 0.33,
"D": 0.0,
"R": 0.04,
"sving": 0.34,
"os": 0.16,
"os_navn": "Njaláhasjohka",
"foss": 0.0,
"foss_drop": 0.0,
"juv": 0.0,
"B": 0.89,
"frac_fav": 0.4,
"d_gull_km": 6.34,
"berg": "",
"p_raw": 0.08,
"A_km2": 2215.66,
"gate": 1.0,
"P": 23.18,
"rank": 16,
"klasse": "C",
"navn": "Kuolna (bekk)",
"hvorfor": "NGU-registrert gullforekomst 6.3 km unna.",
"s2_anomali": 4.0,
"s2_feox_z": 4.42,
"satsjekk": "Automatisk bildeanalyse: grus/sandbanke synlig."
}
},
{
"type": "Feature",
"geometry": {
"type": "Point",
"coordinates": [
24.65335,
69.36765
]
},
"properties": {
"elv": "Bikká-Biretjohka",
"km": 3.3,
"z": 0.0,
"S": 0.0,
"Q": 166.83,
"w": 72.15,
"w_q": 38.75,
"h": 3.96,
"tau": 3.89,
"tau_c": 11.65,
"omega": 2.27,
"M": 0.33,
"D": -0.0,
"R": 0.04,
"sving": 0.02,
"os": 0.0,
"os_navn": "",
"foss": 0.42,
"foss_drop": 0.0,
"juv": 0.0,
"B": 0.85,
"frac_fav": 0.4,
"d_gull_km": 10.2,
"berg": "",
"p_raw": 0.07,
"A_km2": 1853.65,
"gate": 1.0,
"P": 19.93,
"rank": 17,
"klasse": "C",
"navn": "Márkansaiguoika (Bikká-Biretjohka)",
"hvorfor": "Bratt stryk like oppstrøms – kulper og fjellsprekker.",
"s2_anomali": null,
"s2_feox_z": null,
"satsjekk": "Automatisk bildeanalyse: tett vegetasjon – elva delvis skjult."
}
},
{
"type": "Feature",
"geometry": {
"type": "Point",
"coordinates": [
24.83099,
69.30642
]
},
"properties": {
"elv": "Heastajogaš",
"km": 3.0,
"z": 0.0,
"S": 0.0,
"Q": 165.68,
"w": 72.72,
"w_q": 38.62,
"h": 3.92,
"tau": 3.85,
"tau_c": 11.65,
"omega": 2.24,
"M": 0.33,
"D": 0.0,
"R": 0.04,
"sving": 0.32,
"os": 0.0,
"os_navn": "",
"foss": 0.0,
"foss_drop": 0.0,
"juv": 0.0,
"B": 1.0,
"frac_fav": 0.4,
"d_gull_km": 0.8,
"berg": "",
"p_raw": 0.06,
"A_km2": 1840.94,
"gate": 1.0,
"P": 18.04,
"rank": 18,
"klasse": "C",
"navn": "Heastajogaš, km 3.0",
"hvorfor": "NGU-registrert gullforekomst 0.8 km unna.",
"s2_anomali": 3.3,
"s2_feox_z": 3.3,
"satsjekk": "Automatisk bildeanalyse: tett vegetasjon – elva delvis skjult."
}
},
{
"type": "Feature",
"geometry": {
"type": "Point",
"coordinates": [
25.73347,
69.29644
]
},
"properties": {
"elv": "bekk",
"km": 0.9,
"z": 0.0,
"S": 0.0,
"Q": 233.14,
"w": 112.19,
"w_q": 45.81,
"h": 3.65,
"tau": 3.58,
"tau_c": 11.65,
"omega": 2.04,
"M": 0.31,
"D": 0.05,
"R": 0.03,
"sving": 0.28,
"os": 0.0,
"os_navn": "",
"foss": 0.0,
"foss_drop": 0.0,
"juv": 0.0,
"B": 0.97,
"frac_fav": 0.49,
"d_gull_km": 6.82,
"berg": "Granittisk gneis | Kvarts-feltspat-granatgneis med amfibolitt og innskjøvne skjell av granulittkompleksets bergarter | Lapland-Kola litotektoniske enhet",
"p_raw": 0.06,
"A_km2": 2590.46,
"gate": 1.0,
"P": 17.6,
"rank": 19,
"klasse": "C",
"navn": "Bajit Ruovttot (bekk)",
"hvorfor": "Berggrunn: Granittisk gneis (49 % gunstig oppstrøms). NGU-registrert gullforekomst 6.8 km unna.",
"s2_anomali": 4.0,
"s2_feox_z": 9.09,
"satsjekk": "Automatisk bildeanalyse: tett vegetasjon – elva delvis skjult."
}
},
{
"type": "Feature",
"geometry": {
"type": "Point",
"coordinates": [
25.74434,
69.31557
]
},
"properties": {
"elv": "bekk",
"km": 2.8,
"z": 0.0,
"S": 0.0,
"Q": 234.33,
"w": 111.42,
"w_q": 45.92,
"h": 3.68,
"tau": 3.61,
"tau_c": 11.65,
"omega": 2.06,
"M": 0.31,
"D": 0.05,
"R": 0.03,
"sving": 0.25,
"os": 0.06,
"os_navn": "Vuolit Ruovttotjohka",
"foss": 0.0,
"foss_drop": 0.0,
"juv": 0.0,
"B": 0.88,
"frac_fav": 0.4,
"d_gull_km": 8.99,
"berg": "",
"p_raw": 0.06,
"A_km2": 2603.69,
"gate": 1.0,
"P": 17.55,
"rank": 20,
"klasse": "C",
"navn": "Vuolit Ruovttot (bekk)",
"hvorfor": "Kombinasjon av strømfall, terskelnær skjærspenning og feller.",
"s2_anomali": 1.79,
"s2_feox_z": 1.79,
"satsjekk": "Automatisk bildeanalyse: tett vegetasjon – elva delvis skjult."
}
}
]
}