{"type": "FeatureCollection", "features": [{"type": "Feature", "geometry": {"type": "Point", "coordinates": [25.70223, 69.23631]}, "properties": {"type": "gull", "okey": "693", "name": "Is", "objtype": "MalmRegistrering", "websub_ntext": "Gull", "sted_verif": "", "faktaark": "https://aps.ngu.no/pls/oradb/minres_deposit_fakta.Main?p_objid=693&p_spraak=N", "s2_oh_z": 3.33, "s2_feox_z": 27.7}}, {"type": "Feature", "geometry": {"type": "Point", "coordinates": [24.85059, 69.30838]}, "properties": {"type": "gull", "okey": "749", "name": "Storfossen", "objtype": "MalmRegistrering", "websub_ntext": "Gull", "sted_verif": "Y", "faktaark": "https://aps.ngu.no/pls/oradb/minres_deposit_fakta.Main?p_objid=749&p_spraak=N", "s2_oh_z": 2.8, "s2_feox_z": 9.07}}, {"type": "Feature", "geometry": {"type": "Point", "coordinates": [25.39918, 69.10437]}, "properties": {"type": "gull", "okey": "15938", "name": "Jentoftstuen", "objtype": "MalmRegistrering", "websub_ntext": "Gull", "sted_verif": "", "faktaark": "https://aps.ngu.no/pls/oradb/minres_deposit_fakta.Main?p_objid=15938&p_spraak=N", "s2_oh_z": 0.3, "s2_feox_z": 3.63}}, {"type": "Feature", "geometry": {"type": "Point", "coordinates": [24.72068, 69.03052]}, "properties": {"type": "gull", "okey": "753", "name": "Gullelven", "objtype": "MalmRegistrering", "websub_ntext": "Gull", "sted_verif": "N", "faktaark": "https://aps.ngu.no/pls/oradb/minres_deposit_fakta.Main?p_objid=753&p_spraak=N", "s2_oh_z": null, "s2_feox_z": null}}, {"type": "Feature", "geometry": {"type": "Point", "coordinates": [25.16855, 69.06999]}, "properties": {"type": "gull", "okey": "15933", "name": "Øvre Gorzzejohka", "objtype": "MalmRegistrering", "websub_ntext": "Gull", "sted_verif": "N", "faktaark": "https://aps.ngu.no/pls/oradb/minres_deposit_fakta.Main?p_objid=15933&p_spraak=N", "s2_oh_z": 2.68, "s2_feox_z": 3.56}}, {"type": "Feature", "geometry": {"type": "Point", "coordinates": [24.76741, 69.19965]}, "properties": {"type": "gull", "okey": "752", "name": "Bavtajohka", "objtype": "MalmRegistrering", "websub_ntext": "Gull", "sted_verif": "N", "faktaark": "https://aps.ngu.no/pls/oradb/minres_deposit_fakta.Main?p_objid=752&p_spraak=N", "s2_oh_z": null, "s2_feox_z": null}}, {"type": "Feature", "geometry": {"type": "Point", "coordinates": [24.93158, 69.30551]}, "properties": {"type": "gull", "okey": "743", "name": "Noai", "objtype": "MalmRegistrering", "websub_ntext": "Gull", "sted_verif": "", "faktaark": "https://aps.ngu.no/pls/oradb/minres_deposit_fakta.Main?p_objid=743&p_spraak=N", "s2_oh_z": 4.46, "s2_feox_z": 9.71}}, {"type": "Feature", "geometry": {"type": "Point", "coordinates": [24.72847, 69.06248]}, "properties": {"type": "gull", "okey": "15957", "name": "Øvre Bavtajohka", "objtype": "MalmRegistrering", "websub_ntext": "Gull", "sted_verif": "", "faktaark": "https://aps.ngu.no/pls/oradb/minres_deposit_fakta.Main?p_objid=15957&p_spraak=N", "s2_oh_z": null, "s2_feox_z": null}}, {"type": "Feature", "geometry": {"type": "Point", "coordinates": [25.45658, 69.12451]}, "properties": {"type": "gull", "okey": "698", "name": "Gorrzejohka", "objtype": "MalmRegistrering", "websub_ntext": "Gull", "sted_verif": "Y", "faktaark": "https://aps.ngu.no/pls/oradb/minres_deposit_fakta.Main?p_objid=698&p_spraak=N", "s2_oh_z": 3.61, "s2_feox_z": 10.1}}, {"type": "Feature", "geometry": {"type": "Point", "coordinates": [24.77967, 69.11822]}, "properties": {"type": "gull", "okey": "751", "name": "Sargejåk", "objtype": "MalmRegistrering", "websub_ntext": "Gull", "sted_verif": "Y", "faktaark": "https://aps.ngu.no/pls/oradb/minres_deposit_fakta.Main?p_objid=751&p_spraak=N", "s2_oh_z": null, "s2_feox_z": null}}, {"type": "Feature", "geometry": {"type": "Point", "coordinates": [24.93671, 69.27089]}, "properties": {"type": "basemetall", "s2_oh_z": null, "s2_feox_z": null}}, {"type": "Feature", "geometry": {"type": "Point", "coordinates": [25.56636, 69.12476]}, "properties": {"type": "basemetall", "s2_oh_z": 1.6, "s2_feox_z": 7.33}}, {"type": "Feature", "geometry": {"type": "Point", "coordinates": [24.83814, 69.2936]}, "properties": {"type": "basemetall", "s2_oh_z": -0.89, "s2_feox_z": -0.86}}]}