<?xml version="1.0" encoding="UTF-8"?>
<gpx version="1.1" creator="gulloye" xmlns="http://www.topografix.com/GPX/1/1">
  <wpt lat="69.24405" lon="25.70569"><name>1 A – Bálggatnjavvi (Iskorasjohka)</name><desc>Skarp sving – grav på innersvingen og bak store steiner. τ = 33 Pa ≈ 2.9× terskelen: sand og grus flyttes ved flom, gull blir liggende (retensjon). Berggrunn: Amfibolgneis (82 % gunstig oppstrøms). NGU-registrert gullforekomst 0.9 km unna.</desc></wpt>
  <wpt lat="69.24827" lon="25.64893"><name>2 B – Iskorasjohka, km 0.5</name><desc>Os: Doaresája kommer inn her – grus og tyngre materiale legges i osen og bankehodet nedenfor. Skarp sving – grav på innersvingen og bak store steiner. Berggrunn: Amfibolgneis (81 % gunstig oppstrøms). NGU-registrert gullforekomst 2.5 km unna.</desc></wpt>
  <wpt lat="69.24443" lon="25.68422"><name>3 B – Iškorasjohka (Iskorasjohka)</name><desc>Os: sideelv kommer inn her – grus og tyngre materiale legges i osen og bankehodet nedenfor. Berggrunn: Amfibolgneis (82 % gunstig oppstrøms). NGU-registrert gullforekomst 1.2 km unna.</desc></wpt>
  <wpt lat="69.06014" lon="25.75183"><name>4 B – Geavgŋávuolle (bekk)</name><desc>τ = 16 Pa ≈ 1.4× terskelen: sand og grus flyttes ved flom, gull blir liggende (retensjon).</desc></wpt>
  <wpt lat="69.24631" lon="25.63198"><name>5 B – Iškorasjohka, km 0.4</name><desc>Os: Lávžejohka kommer inn her – grus og tyngre materiale legges i osen og bankehodet nedenfor. Berggrunn: Amfibolgneis (80 % gunstig oppstrøms). NGU-registrert gullforekomst 3.0 km unna.</desc></wpt>
  <wpt lat="69.28958" lon="25.74957"><name>6 C – Sámmálnjavvi (bekk)</name><desc>Skarp sving – grav på innersvingen og bak store steiner. NGU-registrert gullforekomst 6.2 km unna.</desc></wpt>
  <wpt lat="69.26540" lon="24.82387"><name>7 C – Dálabohki (bekk)</name><desc>NGU-registrert gullforekomst 4.9 km unna.</desc></wpt>
  <wpt lat="69.24621" lon="25.66613"><name>8 C – Iskorasjohka, km 1.3</name><desc>Berggrunn: Amfibolgneis (81 % gunstig oppstrøms). NGU-registrert gullforekomst 1.8 km unna.</desc></wpt>
  <wpt lat="69.33905" lon="25.06277"><name>9 C – Ástonlásis (bekk)</name><desc>Berggrunn: Amfibolitt (74 % gunstig oppstrøms). NGU-registrert gullforekomst 6.4 km unna.</desc></wpt>
  <wpt lat="69.23876" lon="24.78082"><name>10 C – Duoibilsavu (bekk)</name><desc>Berggrunn: Granittisk gneis (67 % gunstig oppstrøms). NGU-registrert gullforekomst 4.4 km unna.</desc></wpt>
  <wpt lat="69.34106" lon="25.75623"><name>11 C – Koikkiniva (bekk)</name><desc>Kombinasjon av strømfall, terskelnær skjærspenning og feller.</desc></wpt>
  <wpt lat="69.35808" lon="25.79559"><name>12 C – Čáhppesjohka, km 4.5</name><desc>Berggrunn: Amfibolgneis (52 % gunstig oppstrøms).</desc></wpt>
</gpx>