<?xml version="1.0" encoding="UTF-8"?>
<kml xmlns="http://www.opengis.net/kml/2.2"><Document>
<name>GULLØYE – Karasjok</name>
<Style id="kA"><IconStyle><color>ff2b39c0</color><scale>1.1</scale></IconStyle></Style>
<Style id="kB"><IconStyle><color>ff227ee6</color><scale>1.1</scale></IconStyle></Style>
<Style id="kC"><IconStyle><color>ff0fc4f1</color><scale>1.1</scale></IconStyle></Style>
<Placemark><name>1A Ráitegorži (Kárášjohka)</name><styleUrl>#kA</styleUrl><description>P=100. Bratt stryk like oppstrøms – kulper og fjellsprekker. Os: sideelv kommer inn her – grus og tyngre materiale legges i osen og bankehodet nedenfor. τ = 72 Pa ≈ 1.2× terskelen: sand og grus flyttes ved flom, gull blir liggende (retensjon). Berggrunn: Amfibolgneis (98 % gunstig oppstrøms). NGU-registrert gullforekomst 3.0 km unna. Gange 1.6 km fra nærmeste bilvei.</description><Point><coordinates>25.00645,69.30772,0</coordinates></Point></Placemark>
<Placemark><name>2A Stuorragorži (Kárášjohka)</name><styleUrl>#kA</styleUrl><description>P=96. Bratt stryk like oppstrøms – kulper og fjellsprekker. Os: Nuorrojohka kommer inn her – grus og tyngre materiale legges i osen og bankehodet nedenfor. τ = 85 Pa ≈ 1.6× terskelen: sand og grus flyttes ved flom, gull blir liggende (retensjon). Berggrunn: Amfibolgneis (97 % gunstig oppstrøms). NGU-registrert gullforekomst 2.2 km unna. Avsides: 8.9 km fra bilvei – planlegg dagstur.</description><Point><coordinates>24.82521,69.29098,0</coordinates></Point></Placemark>
<Placemark><name>3A Dápmotguoika (Kárášjohka)</name><styleUrl>#kA</styleUrl><description>P=95. Os: Dápmotjohka kommer inn her – grus og tyngre materiale legges i osen og bankehodet nedenfor. τ = 55 Pa ≈ 1.4× terskelen: sand og grus flyttes ved flom, gull blir liggende (retensjon). Berggrunn: Amfibolgneis (97 % gunstig oppstrøms). NGU-registrert gullforekomst 3.7 km unna. Avsides: 6.8 km fra bilvei – planlegg dagstur.</description><Point><coordinates>24.78266,69.23201,0</coordinates></Point></Placemark>
<Placemark><name>4A Gáldojohguoika (Kárášjohka)</name><styleUrl>#kA</styleUrl><description>P=93. Bratt stryk like oppstrøms – kulper og fjellsprekker. τ = 51 Pa ≈ 1.3× terskelen: sand og grus flyttes ved flom, gull blir liggende (retensjon). Berggrunn: Amfibolgneis (97 % gunstig oppstrøms). NGU-registrert gullforekomst 0.5 km unna. Avsides: 7.3 km fra bilvei – planlegg dagstur.</description><Point><coordinates>24.86141,69.31106,0</coordinates></Point></Placemark>
<Placemark><name>5A Gohppe (Kárášjohka)</name><styleUrl>#kA</styleUrl><description>P=93. Bratt stryk like oppstrøms – kulper og fjellsprekker. τ = 46 Pa ≈ 1.2× terskelen: sand og grus flyttes ved flom, gull blir liggende (retensjon). Berggrunn: Amfibolgneis (98 % gunstig oppstrøms). NGU-registrert gullforekomst 3.1 km unna. Avsides: 2.2 km fra bilvei – planlegg dagstur.</description><Point><coordinates>24.99934,69.31918,0</coordinates></Point></Placemark>
<Placemark><name>6A Ráktoguoika (Kárášjohka)</name><styleUrl>#kA</styleUrl><description>P=91. Bratt stryk like oppstrøms – kulper og fjellsprekker. τ = 43 Pa ≈ 1.3× terskelen: sand og grus flyttes ved flom, gull blir liggende (retensjon). Berggrunn: Amfibolgneis (97 % gunstig oppstrøms). NGU-registrert gullforekomst 1.5 km unna. Avsides: 6.3 km fra bilvei – planlegg dagstur.</description><Point><coordinates>24.88649,69.31314,0</coordinates></Point></Placemark>
<Placemark><name>7A Kárášjohka, km 22.9</name><styleUrl>#kA</styleUrl><description>P=91. Os: Heastajogaš kommer inn her – grus og tyngre materiale legges i osen og bankehodet nedenfor. Strømeffekten faller 33 % over strekningen – tungt materiale slipper her. τ = 49 Pa ≈ 1.5× terskelen: sand og grus flyttes ved flom, gull blir liggende (retensjon). Berggrunn: Amfibolgneis (97 % gunstig oppstrøms). NGU-registrert gullforekomst 0.7 km unna. Avsides: 8.4 km fra bilvei – planlegg dagstur.</description><Point><coordinates>24.83358,69.30567,0</coordinates></Point></Placemark>
<Placemark><name>8A Rohtogorži (Kárášjohka)</name><styleUrl>#kA</styleUrl><description>P=91. Bratt stryk like oppstrøms – kulper og fjellsprekker. Os: sideelv kommer inn her – grus og tyngre materiale legges i osen og bankehodet nedenfor. Skarp sving – grav på innersvingen og bak store steiner. Berggrunn: Amfibolgneis (98 % gunstig oppstrøms). Lett: bilvei 135 m unna (Šuolggajohnjálbmi).</description><Point><coordinates>25.16230,69.39569,0</coordinates></Point></Placemark>
<Placemark><name>9A Gieddeguoika (Kárášjohka)</name><styleUrl>#kA</styleUrl><description>P=90. Bratt stryk like oppstrøms – kulper og fjellsprekker. τ = 56 Pa ≈ 1.3× terskelen: sand og grus flyttes ved flom, gull blir liggende (retensjon). Berggrunn: Amfibolgneis (97 % gunstig oppstrøms). NGU-registrert gullforekomst 1.4 km unna. Avsides: 6.1 km fra bilvei – planlegg dagstur.</description><Point><coordinates>24.75815,69.21190,0</coordinates></Point></Placemark>
<Placemark><name>10B Ráigebákgorži (Kárášjohka)</name><styleUrl>#kB</styleUrl><description>P=83. Foss/stryk rett oppstrøms (5 m fall på 100 m) – fossekulp og fjell i dagen. Strømeffekten faller 45 % over strekningen – tungt materiale slipper her. τ = 141 Pa ≈ 1.8× terskelen: sand og grus flyttes ved flom, gull blir liggende (retensjon). Berggrunn: Glimmerskifer (100 % gunstig oppstrøms). NGU-registrert gullforekomst 5.0 km unna. Avsides: 5.7 km fra bilvei – planlegg dagstur.</description><Point><coordinates>24.67926,69.16754,0</coordinates></Point></Placemark>
<Placemark><name>11B Kárášjohka, km 9.5</name><styleUrl>#kB</styleUrl><description>P=81. Os: Gaibafielbmá kommer inn her – grus og tyngre materiale legges i osen og bankehodet nedenfor. τ = 48 Pa ≈ 1.1× terskelen: sand og grus flyttes ved flom, gull blir liggende (retensjon). Berggrunn: Amfibolgneis (97 % gunstig oppstrøms). NGU-registrert gullforekomst 0.4 km unna. Avsides: 5.4 km fra bilvei – planlegg dagstur.</description><Point><coordinates>24.76331,69.20294,0</coordinates></Point></Placemark>
<Placemark><name>12B Buksaluhččenguoika (Kárášjohka)</name><styleUrl>#kB</styleUrl><description>P=80. Bratt stryk like oppstrøms – kulper og fjellsprekker. τ = 132 Pa ≈ 2.1× terskelen: sand og grus flyttes ved flom, gull blir liggende (retensjon). Berggrunn: Glimmerskifer (100 % gunstig oppstrøms). NGU-registrert gullforekomst 3.2 km unna. Avsides: 5.9 km fra bilvei – planlegg dagstur.</description><Point><coordinates>24.71528,69.17769,0</coordinates></Point></Placemark>
<Placemark><name>13B Mántalguoika (Iešjohka)</name><styleUrl>#kB</styleUrl><description>P=79. Bratt stryk like oppstrøms – kulper og fjellsprekker. Os: Bikká-Biretjohka kommer inn her – grus og tyngre materiale legges i osen og bankehodet nedenfor. τ = 30 Pa ≈ 0.9× terskelen: sand og grus flyttes ved flom, gull blir liggende (retensjon). Berggrunn: Granittisk gneis (98 % gunstig oppstrøms). Avsides: 2.7 km fra bilvei – planlegg dagstur.</description><Point><coordinates>24.64865,69.36692,0</coordinates></Point></Placemark>
<Placemark><name>14B Ájodappal (bekk)</name><styleUrl>#kB</styleUrl><description>P=78. Os: Rájájogaš kommer inn her – grus og tyngre materiale legges i osen og bankehodet nedenfor. Skarp sving – grav på innersvingen og bak store steiner. τ = 41 Pa ≈ 1.0× terskelen: sand og grus flyttes ved flom, gull blir liggende (retensjon). Berggrunn: Amfibolitt (76 % gunstig oppstrøms). NGU-registrert gullforekomst 7.2 km unna. Kort gange: bilvei 275 m unna.</description><Point><coordinates>25.08288,69.34146,0</coordinates></Point></Placemark>
<Placemark><name>15B Fálesgorži (Kárášjohka)</name><styleUrl>#kB</styleUrl><description>P=77. Bratt stryk like oppstrøms – kulper og fjellsprekker. τ = 41 Pa ≈ 1.2× terskelen: sand og grus flyttes ved flom, gull blir liggende (retensjon). Berggrunn: Glimmerskifer (100 % gunstig oppstrøms). NGU-registrert gullforekomst 4.1 km unna. Avsides: 5.8 km fra bilvei – planlegg dagstur.</description><Point><coordinates>24.69574,69.17314,0</coordinates></Point></Placemark>
<Placemark><name>16B Lásesguoika (Kárášjohka)</name><styleUrl>#kB</styleUrl><description>P=74. Bratt stryk like oppstrøms – kulper og fjellsprekker. τ = 98 Pa ≈ 1.9× terskelen: sand og grus flyttes ved flom, gull blir liggende (retensjon). Berggrunn: Amfibolgneis (97 % gunstig oppstrøms). NGU-registrert gullforekomst 2.6 km unna. Avsides: 6.7 km fra bilvei – planlegg dagstur.</description><Point><coordinates>24.76271,69.22292,0</coordinates></Point></Placemark>
<Placemark><name>17B Šuolggasavu (Kárášjohka)</name><styleUrl>#kB</styleUrl><description>P=74. Os: Šuolggajohka kommer inn her – grus og tyngre materiale legges i osen og bankehodet nedenfor. τ = 19 Pa ≈ 0.9× terskelen: sand og grus flyttes ved flom, gull blir liggende (retensjon). Berggrunn: Amfibolgneis (98 % gunstig oppstrøms). NGU-registrert gullforekomst 7.7 km unna. Lett: bilvei 55 m unna (track).</description><Point><coordinates>25.10025,69.33924,0</coordinates></Point></Placemark>
<Placemark><name>18B Inarijoki / Anárjohka, km 47.1</name><styleUrl>#kB</styleUrl><description>P=72. Os: Čáhppesjohka kommer inn her – grus og tyngre materiale legges i osen og bankehodet nedenfor. τ = 35 Pa ≈ 1.1× terskelen: sand og grus flyttes ved flom, gull blir liggende (retensjon). Berggrunn: Amfibolgneis (84 % gunstig oppstrøms). Lett: bilvei 72 m unna (Anárjohgeaidnu). Parkering 89 m unna.</description><Point><coordinates>25.79554,69.35696,0</coordinates></Point></Placemark>
<Placemark><name>19B Goikenjavesavu (Kárášjohka)</name><styleUrl>#kB</styleUrl><description>P=69. Os: Námmájohka kommer inn her – grus og tyngre materiale legges i osen og bankehodet nedenfor. τ = 30 Pa ≈ 0.9× terskelen: sand og grus flyttes ved flom, gull blir liggende (retensjon). Berggrunn: Amfibolgneis (98 % gunstig oppstrøms). Lett: bilvei 136 m unna (Šuolggajohnjálbmi).</description><Point><coordinates>25.15270,69.35358,0</coordinates></Point></Placemark>
<Placemark><name>20B bekk, km 1.5</name><styleUrl>#kB</styleUrl><description>P=69. Foss/stryk rett oppstrøms (12 m fall på 100 m) – fossekulp og fjell i dagen. Skarp sving – grav på innersvingen og bak store steiner. τ = 212 Pa ≈ 1.3× terskelen: sand og grus flyttes ved flom, gull blir liggende (retensjon). NGU-registrert gullforekomst 1.4 km unna. Gange 0.7 km fra nærmeste bilvei.</description><Point><coordinates>25.48743,69.13006,0</coordinates></Point></Placemark>
</Document></kml>