{"type": "FeatureCollection", "features": [{"type": "Feature", "geometry": {"type": "LineString", "coordinates": [[25.71678, 69.17966], [25.71497, 69.17911]]}, "properties": {"P": 23.18, "tau": 3.86, "tau_c": 11.65, "omega": 2.27, "M": 0.33, "D": 0.0, "R": 0.04, "sving": 0.34, "os": 0.16, "foss": 0.0, "juv": 0.0, "B": 0.89, "Q": 199.41, "w": 86.15, "h": 3.94, "S": 0.0001, "elv": "bekk", "km": 3.8}}, {"type": "Feature", "geometry": {"type": "LineString", "coordinates": [[25.75187, 69.06102], [25.75183, 69.06014]]}, "properties": {"P": 78.1, "tau": 16.09, "tau_c": 11.65, "omega": 9.85, "M": 1.38, "D": 0.0, "R": 0.99, "sving": 0.47, "os": 0.0, "foss": 0.0, "juv": 0.0, "B": 0.8, "Q": 100.39, "w": 10.0, "h": 16.4, "S": 0.0001, "elv": "bekk", "km": 2.6}}, {"type": "Feature", "geometry": {"type": "LineString", "coordinates": [[25.75183, 69.06014], [25.75017, 69.05961]]}, "properties": {"P": 60.99, "tau": 16.09, "tau_c": 11.65, "omega": 9.85, "M": 1.38, "D": 0.0, "R": 0.99, "sving": 0.01, "os": 0.0, "foss": 0.0, "juv": 0.0, "B": 0.8, "Q": 100.39, "w": 10.0, "h": 16.4, "S": 0.0001, "elv": "bekk", "km": 2.7}}, {"type": "Feature", "geometry": {"type": "LineString", "coordinates": [[25.73207, 69.26216], [25.72961, 69.26205]]}, "properties": {"P": 17.54, "tau": 4.2, "tau_c": 11.65, "omega": 2.6, "M": 0.36, "D": 0.0, "R": 0.06, "sving": 0.3, "os": 0.0, "foss": 0.0, "juv": 0.0, "B": 0.96, "Q": 228.06, "w": 86.14, "h": 4.28, "S": 0.0001, "elv": "bekk", "km": 3.7}}, {"type": "Feature", "geometry": {"type": "LineString", "coordinates": [[25.64197, 69.24628], [25.64322, 69.2457]]}, "properties": {"P": 94.91, "tau": 3.74, "tau_c": 11.65, "omega": 1.56, "M": 0.32, "D": 0.0, "R": 0.04, "sving": 1.0, "os": 1.0, "foss": 0.0, "juv": 0.0, "B": 1.0, "Q": 15.94, "w": 10.0, "h": 3.81, "S": 0.0001, "elv": "Iskorasjohka", "km": 0.0}}, {"type": "Feature", "geometry": {"type": "LineString", "coordinates": [[25.64322, 69.2457], [25.64507, 69.24599]]}, "properties": {"P": 77.68, "tau": 3.74, "tau_c": 11.65, "omega": 1.56, "M": 0.32, "D": 0.0, "R": 0.04, "sving": 0.96, "os": 0.67, "foss": 0.0, "juv": 0.0, "B": 1.0, "Q": 15.94, "w": 10.0, "h": 3.81, "S": 0.0001, "elv": "Iskorasjohka", "km": 0.1}}, {"type": "Feature", "geometry": {"type": "LineString", "coordinates": [[25.64507, 69.24599], [25.64646, 69.24674]]}, "properties": {"P": 62.37, "tau": 3.74, "tau_c": 11.65, "omega": 1.56, "M": 0.32, "D": 0.0, "R": 0.04, "sving": 0.76, "os": 0.53, "foss": 0.0, "juv": 0.0, "B": 1.01, "Q": 15.94, "w": 10.0, "h": 3.81, "S": 0.0001, "elv": "Iskorasjohka", "km": 0.2}}, {"type": "Feature", "geometry": {"type": "LineString", "coordinates": [[25.64646, 69.24674], [25.64783, 69.24749]]}, "properties": {"P": 32.69, "tau": 3.82, "tau_c": 11.65, "omega": 1.61, "M": 0.33, "D": 0.0, "R": 0.04, "sving": 0.19, "os": 0.45, "foss": 0.0, "juv": 0.0, "B": 1.01, "Q": 16.42, "w": 10.0, "h": 3.89, "S": 0.0001, "elv": "Iskorasjohka", "km": 0.3}}, {"type": "Feature", "geometry": {"type": "LineString", "coordinates": [[25.64783, 69.24749], [25.64893, 69.24827]]}, "properties": {"P": 62.91, "tau": 3.82, "tau_c": 11.65, "omega": 1.61, "M": 0.33, "D": 0.0, "R": 0.04, "sving": 0.57, "os": 0.72, "foss": 0.0, "juv": 0.0, "B": 1.01, "Q": 16.42, "w": 10.0, "h": 3.89, "S": 0.0001, "elv": "Iskorasjohka", "km": 0.4}}, {"type": "Feature", "geometry": {"type": "LineString", "coordinates": [[25.64893, 69.24827], [25.65134, 69.24819]]}, "properties": {"P": 68.16, "tau": 3.82, "tau_c": 11.65, "omega": 1.61, "M": 0.33, "D": 0.0, "R": 0.04, "sving": 0.6, "os": 0.8, "foss": 0.0, "juv": 0.0, "B": 1.01, "Q": 16.42, "w": 10.0, "h": 3.89, "S": 0.0001, "elv": "Iskorasjohka", "km": 0.5}}, {"type": "Feature", "geometry": {"type": "LineString", "coordinates": [[25.65134, 69.24819], [25.65352, 69.24774]]}, "properties": {"P": 48.28, "tau": 3.82, "tau_c": 11.65, "omega": 1.61, "M": 0.33, "D": 0.0, "R": 0.04, "sving": 0.46, "os": 0.51, "foss": 0.0, "juv": 0.0, "B": 1.01, "Q": 16.42, "w": 10.0, "h": 3.9, "S": 0.0001, "elv": "Iskorasjohka", "km": 0.6}}, {"type": "Feature", "geometry": {"type": "LineString", "coordinates": [[25.65352, 69.24774], [25.6556, 69.24724]]}, "properties": {"P": 26.43, "tau": 3.82, "tau_c": 11.65, "omega": 1.61, "M": 0.33, "D": 0.0, "R": 0.04, "sving": 0.17, "os": 0.33, "foss": 0.0, "juv": 0.0, "B": 1.02, "Q": 16.43, "w": 10.0, "h": 3.9, "S": 0.0001, "elv": "Iskorasjohka", "km": 0.7}}, {"type": "Feature", "geometry": {"type": "LineString", "coordinates": [[25.6556, 69.24724], [25.65808, 69.24714]]}, "properties": {"P": 21.34, "tau": 3.82, "tau_c": 11.65, "omega": 1.61, "M": 0.33, "D": 0.0, "R": 0.04, "sving": 0.18, "os": 0.21, "foss": 0.0, "juv": 0.0, "B": 1.02, "Q": 16.43, "w": 10.0, "h": 3.9, "S": 0.0001, "elv": "Iskorasjohka", "km": 0.8}}, {"type": "Feature", "geometry": {"type": "LineString", "coordinates": [[25.65808, 69.24714], [25.66043, 69.24746]]}, "properties": {"P": 15.67, "tau": 3.82, "tau_c": 11.65, "omega": 1.61, "M": 0.33, "D": 0.0, "R": 0.04, "sving": 0.14, "os": 0.13, "foss": 0.0, "juv": 0.0, "B": 1.02, "Q": 16.43, "w": 10.0, "h": 3.9, "S": 0.0001, "elv": "Iskorasjohka", "km": 0.9}}, {"type": "Feature", "geometry": {"type": "LineString", "coordinates": [[25.66043, 69.24746], [25.66292, 69.24743]]}, "properties": {"P": 17.0, "tau": 3.82, "tau_c": 11.65, "omega": 1.61, "M": 0.33, "D": 0.0, "R": 0.04, "sving": 0.21, "os": 0.08, "foss": 0.0, "juv": 0.0, "B": 1.02, "Q": 16.44, "w": 10.0, "h": 3.9, "S": 0.0001, "elv": "Iskorasjohka", "km": 1.0}}, {"type": "Feature", "geometry": {"type": "LineString", "coordinates": [[25.66292, 69.24743], [25.66419, 69.24676]]}, "properties": {"P": 15.73, "tau": 3.83, "tau_c": 11.65, "omega": 1.62, "M": 0.33, "D": 0.0, "R": 0.04, "sving": 0.22, "os": 0.05, "foss": 0.0, "juv": 0.0, "B": 1.02, "Q": 16.5, "w": 10.0, "h": 3.91, "S": 0.0001, "elv": "Iskorasjohka", "km": 1.1}}, {"type": "Feature", "geometry": {"type": "LineString", "coordinates": [[25.66419, 69.24676], [25.66613, 69.24621]]}, "properties": {"P": 3.99, "tau": 3.83, "tau_c": 11.65, "omega": 1.62, "M": 0.33, "D": 0.0, "R": 0.04, "sving": 0.02, "os": 0.0, "foss": 0.0, "juv": 0.0, "B": 1.02, "Q": 16.5, "w": 10.0, "h": 3.91, "S": 0.0001, "elv": "Iskorasjohka", "km": 1.2}}, {"type": "Feature", "geometry": {"type": "LineString", "coordinates": [[25.66613, 69.24621], [25.6686, 69.24602]]}, "properties": {"P": 16.52, "tau": 3.84, "tau_c": 11.65, "omega": 1.62, "M": 0.33, "D": 0.0, "R": 0.04, "sving": 0.28, "os": 0.0, "foss": 0.0, "juv": 0.0, "B": 1.02, "Q": 16.51, "w": 10.0, "h": 3.91, "S": 0.0001, "elv": "Iskorasjohka", "km": 1.3}}, {"type": "Feature", "geometry": {"type": "LineString", "coordinates": [[25.6686, 69.24602], [25.67112, 69.24595]]}, "properties": {"P": 5.96, "tau": 3.84, "tau_c": 11.65, "omega": 1.62, "M": 0.33, "D": 0.0, "R": 0.04, "sving": 0.06, "os": 0.0, "foss": 0.0, "juv": 0.0, "B": 1.02, "Q": 16.51, "w": 10.0, "h": 3.91, "S": 0.0001, "elv": "Iskorasjohka", "km": 1.4}}, {"type": "Feature", "geometry": {"type": "LineString", "coordinates": [[25.67112, 69.24595], [25.67356, 69.24576]]}, "properties": {"P": 24.65, "tau": 3.84, "tau_c": 11.65, "omega": 1.62, "M": 0.33, "D": 0.0, "R": 0.04, "sving": 0.39, "os": 0.07, "foss": 0.0, "juv": 0.0, "B": 1.02, "Q": 16.52, "w": 10.0, "h": 3.91, "S": 0.0001, "elv": "Iskorasjohka", "km": 1.5}}, {"type": "Feature", "geometry": {"type": "LineString", "coordinates": [[25.67356, 69.24576], [25.67524, 69.24511]]}, "properties": {"P": 9.19, "tau": 3.84, "tau_c": 11.65, "omega": 1.62, "M": 0.33, "D": 0.0, "R": 0.04, "sving": 0.02, "os": 0.11, "foss": 0.0, "juv": 0.0, "B": 1.02, "Q": 16.52, "w": 10.0, "h": 3.91, "S": 0.0001, "elv": "Iskorasjohka", "km": 1.6}}, {"type": "Feature", "geometry": {"type": "LineString", "coordinates": [[25.67524, 69.24511], [25.67599, 69.24429]]}, "properties": {"P": 30.63, "tau": 3.86, "tau_c": 11.65, "omega": 1.64, "M": 0.33, "D": 0.0, "R": 0.04, "sving": 0.42, "os": 0.16, "foss": 0.0, "juv": 0.0, "B": 1.02, "Q": 16.67, "w": 10.0, "h": 3.94, "S": 0.0001, "elv": "Iskorasjohka", "km": 1.7}}, {"type": "Feature", "geometry": {"type": "LineString", "coordinates": [[25.67599, 69.24429], [25.6779, 69.24427]]}, "properties": {"P": 21.97, "tau": 3.87, "tau_c": 11.65, "omega": 1.64, "M": 0.33, "D": 0.0, "R": 0.04, "sving": 0.2, "os": 0.2, "foss": 0.0, "juv": 0.0, "B": 1.02, "Q": 16.69, "w": 10.0, "h": 3.94, "S": 0.0001, "elv": "Iskorasjohka", "km": 1.8}}, {"type": "Feature", "geometry": {"type": "LineString", "coordinates": [[25.6779, 69.24427], [25.67945, 69.24495]]}, "properties": {"P": 33.88, "tau": 3.87, "tau_c": 11.65, "omega": 1.64, "M": 0.33, "D": 0.0, "R": 0.04, "sving": 0.36, "os": 0.29, "foss": 0.0, "juv": 0.0, "B": 1.02, "Q": 16.7, "w": 10.0, "h": 3.94, "S": 0.0001, "elv": "Iskorasjohka", "km": 1.9}}, {"type": "Feature", "geometry": {"type": "LineString", "coordinates": [[25.67945, 69.24495], [25.68182, 69.24469]]}, "properties": {"P": 34.19, "tau": 3.87, "tau_c": 11.65, "omega": 1.64, "M": 0.33, "D": 0.0, "R": 0.04, "sving": 0.28, "os": 0.38, "foss": 0.0, "juv": 0.0, "B": 1.02, "Q": 16.7, "w": 10.0, "h": 3.94, "S": 0.0001, "elv": "Iskorasjohka", "km": 2.0}}, {"type": "Feature", "geometry": {"type": "LineString", "coordinates": [[25.68182, 69.24469], [25.68422, 69.24443]]}, "properties": {"P": 33.79, "tau": 3.87, "tau_c": 11.65, "omega": 1.64, "M": 0.33, "D": 0.0, "R": 0.04, "sving": 0.03, "os": 0.62, "foss": 0.0, "juv": 0.0, "B": 1.02, "Q": 16.71, "w": 10.0, "h": 3.95, "S": 0.0001, "elv": "Iskorasjohka", "km": 2.1}}, {"type": "Feature", "geometry": {"type": "LineString", "coordinates": [[25.68422, 69.24443], [25.68609, 69.24501]]}, "properties": {"P": 63.96, "tau": 3.87, "tau_c": 11.65, "omega": 1.64, "M": 0.33, "D": 0.0, "R": 0.04, "sving": 0.3, "os": 0.99, "foss": 0.0, "juv": 0.0, "B": 1.02, "Q": 16.72, "w": 10.0, "h": 3.95, "S": 0.0001, "elv": "Iskorasjohka", "km": 2.2}}, {"type": "Feature", "geometry": {"type": "LineString", "coordinates": [[25.68609, 69.24501], [25.6875, 69.24575]]}, "properties": {"P": 33.06, "tau": 3.87, "tau_c": 11.65, "omega": 1.64, "M": 0.33, "D": 0.0, "R": 0.04, "sving": 0.03, "os": 0.61, "foss": 0.0, "juv": 0.0, "B": 1.02, "Q": 16.73, "w": 10.0, "h": 3.95, "S": 0.0001, "elv": "Iskorasjohka", "km": 2.3}}, {"type": "Feature", "geometry": {"type": "LineString", "coordinates": [[25.6875, 69.24575], [25.68955, 69.24614]]}, "properties": {"P": 45.44, "tau": 3.87, "tau_c": 11.65, "omega": 1.64, "M": 0.33, "D": 0.0, "R": 0.04, "sving": 0.52, "os": 0.37, "foss": 0.0, "juv": 0.0, "B": 1.02, "Q": 16.73, "w": 10.0, "h": 3.95, "S": 0.0001, "elv": "Iskorasjohka", "km": 2.4}}, {"type": "Feature", "geometry": {"type": "LineString", "coordinates": [[25.68955, 69.24614], [25.69179, 69.24596]]}, "properties": {"P": 16.62, "tau": 3.87, "tau_c": 11.65, "omega": 1.64, "M": 0.33, "D": 0.0, "R": 0.04, "sving": 0.04, "os": 0.24, "foss": 0.0, "juv": 0.0, "B": 1.02, "Q": 16.73, "w": 10.0, "h": 3.95, "S": 0.0001, "elv": "Iskorasjohka", "km": 2.5}}, {"type": "Feature", "geometry": {"type": "LineString", "coordinates": [[25.69179, 69.24596], [25.69291, 69.24564]]}, "properties": {"P": 26.75, "tau": 3.87, "tau_c": 11.65, "omega": 1.64, "M": 0.33, "D": 0.0, "R": 0.04, "sving": 0.32, "os": 0.18, "foss": 0.0, "juv": 0.0, "B": 1.02, "Q": 16.73, "w": 10.0, "h": 3.95, "S": 0.0001, "elv": "Iskorasjohka", "km": 2.6}}, {"type": "Feature", "geometry": {"type": "LineString", "coordinates": [[25.69291, 69.24564], [25.69453, 69.24631]]}, "properties": {"P": 35.48, "tau": 3.87, "tau_c": 11.65, "omega": 1.64, "M": 0.33, "D": 0.0, "R": 0.04, "sving": 0.53, "os": 0.16, "foss": 0.0, "juv": 0.0, "B": 1.02, "Q": 16.73, "w": 10.0, "h": 3.95, "S": 0.0001, "elv": "Iskorasjohka", "km": 2.7}}, {"type": "Feature", "geometry": {"type": "LineString", "coordinates": [[25.69453, 69.24631], [25.69662, 69.24603]]}, "properties": {"P": 10.59, "tau": 3.88, "tau_c": 11.65, "omega": 1.64, "M": 0.33, "D": 0.0, "R": 0.04, "sving": 0.05, "os": 0.1, "foss": 0.0, "juv": 0.0, "B": 1.02, "Q": 16.74, "w": 10.0, "h": 3.95, "S": 0.0001, "elv": "Iskorasjohka", "km": 2.8}}, {"type": "Feature", "geometry": {"type": "LineString", "coordinates": [[25.69662, 69.24603], [25.69648, 69.24518]]}, "properties": {"P": 36.5, "tau": 3.88, "tau_c": 11.65, "omega": 1.64, "M": 0.33, "D": 0.0, "R": 0.04, "sving": 0.63, "os": 0.07, "foss": 0.0, "juv": 0.0, "B": 1.02, "Q": 16.74, "w": 10.0, "h": 3.95, "S": 0.0001, "elv": "Iskorasjohka", "km": 2.9}}, {"type": "Feature", "geometry": {"type": "LineString", "coordinates": [[25.69648, 69.24518], [25.69829, 69.2448]]}, "properties": {"P": 13.68, "tau": 3.88, "tau_c": 11.65, "omega": 1.64, "M": 0.33, "D": 0.0, "R": 0.04, "sving": 0.13, "os": 0.08, "foss": 0.0, "juv": 0.0, "B": 1.02, "Q": 16.75, "w": 10.0, "h": 3.95, "S": 0.0001, "elv": "Iskorasjohka", "km": 3.0}}, {"type": "Feature", "geometry": {"type": "LineString", "coordinates": [[25.69829, 69.2448], [25.69996, 69.24416]]}, "properties": {"P": 29.76, "tau": 3.88, "tau_c": 11.65, "omega": 1.64, "M": 0.33, "D": 0.0, "R": 0.04, "sving": 0.5, "os": 0.06, "foss": 0.0, "juv": 0.0, "B": 1.02, "Q": 16.75, "w": 10.0, "h": 3.95, "S": 0.0001, "elv": "Iskorasjohka", "km": 3.1}}, {"type": "Feature", "geometry": {"type": "LineString", "coordinates": [[25.69996, 69.24416], [25.70182, 69.24416]]}, "properties": {"P": 13.78, "tau": 3.88, "tau_c": 11.65, "omega": 1.64, "M": 0.33, "D": 0.0, "R": 0.04, "sving": 0.22, "os": 0.0, "foss": 0.0, "juv": 0.0, "B": 1.02, "Q": 16.75, "w": 10.0, "h": 3.95, "S": 0.0001, "elv": "Iskorasjohka", "km": 3.2}}, {"type": "Feature", "geometry": {"type": "LineString", "coordinates": [[25.70182, 69.24416], [25.70329, 69.244]]}, "properties": {"P": 100.0, "tau": 33.45, "tau_c": 11.65, "omega": 22.32, "M": 2.87, "D": 0.0, "R": 0.56, "sving": 0.75, "os": 0.0, "foss": 0.0, "juv": 0.0, "B": 1.3, "Q": 227.54, "w": 10.0, "h": 34.1, "S": 0.0001, "elv": "Iskorasjohka", "km": 3.3}}, {"type": "Feature", "geometry": {"type": "LineString", "coordinates": [[25.70329, 69.244], [25.70569, 69.24405]]}, "properties": {"P": 81.65, "tau": 33.45, "tau_c": 11.65, "omega": 22.32, "M": 2.87, "D": 0.0, "R": 0.56, "sving": 0.44, "os": 0.0, "foss": 0.0, "juv": 0.0, "B": 1.3, "Q": 227.56, "w": 10.0, "h": 34.1, "S": 0.0001, "elv": "Iskorasjohka", "km": 3.4}}, {"type": "Feature", "geometry": {"type": "LineString", "coordinates": [[25.70569, 69.24405], [25.70665, 69.24488]]}, "properties": {"P": 99.2, "tau": 33.45, "tau_c": 11.65, "omega": 22.32, "M": 2.87, "D": 0.0, "R": 0.56, "sving": 0.74, "os": 0.0, "foss": 0.0, "juv": 0.0, "B": 1.3, "Q": 227.56, "w": 10.0, "h": 34.1, "S": 0.0001, "elv": "Iskorasjohka", "km": 3.5}}, {"type": "Feature", "geometry": {"type": "LineString", "coordinates": [[25.09816, 69.33756], [25.09858, 69.33838]]}, "properties": {"P": 24.87, "tau": 3.82, "tau_c": 11.65, "omega": 2.23, "M": 0.33, "D": -0.0, "R": 0.04, "sving": 0.36, "os": 0.0, "foss": 0.0, "juv": 0.0, "B": 1.28, "Q": 192.02, "w": 84.47, "h": 3.9, "S": 0.0001, "elv": "Šuolggajohka", "km": 2.7}}, {"type": "Feature", "geometry": {"type": "LineString", "coordinates": [[25.15714, 69.35464], [25.15569, 69.35531]]}, "properties": {"P": 27.7, "tau": 3.98, "tau_c": 11.65, "omega": 2.37, "M": 0.34, "D": 0.0, "R": 0.05, "sving": 0.5, "os": 0.0, "foss": 0.0, "juv": 0.0, "B": 1.05, "Q": 192.74, "w": 79.69, "h": 4.06, "S": 0.0001, "elv": "Námmájohka", "km": 3.3}}, {"type": "Feature", "geometry": {"type": "LineString", "coordinates": [[25.79559, 69.35808], [25.79656, 69.35735]]}, "properties": {"P": 5.35, "tau": 4.2, "tau_c": 11.65, "omega": 2.61, "M": 0.36, "D": 0.0, "R": 0.06, "sving": 0.02, "os": 0.0, "foss": 0.0, "juv": 0.0, "B": 0.95, "Q": 240.27, "w": 90.37, "h": 4.28, "S": 0.0001, "elv": "Čáhppesjohka", "km": 4.5}}, {"type": "Feature", "geometry": {"type": "LineString", "coordinates": [[24.87284, 69.31523], [24.87394, 69.31444]]}, "properties": {"P": 29.31, "tau": 3.88, "tau_c": 11.65, "omega": 2.26, "M": 0.33, "D": 0.0, "R": 0.04, "sving": 0.46, "os": 0.11, "foss": 0.0, "juv": 0.0, "B": 0.99, "Q": 167.24, "w": 72.5, "h": 3.95, "S": 0.0001, "elv": "Vuolit Gáldojohka", "km": 3.0}}, {"type": "Feature", "geometry": {"type": "LineString", "coordinates": [[24.84515, 69.31054], [24.84649, 69.3098]]}, "properties": {"P": 6.93, "tau": 3.88, "tau_c": 11.65, "omega": 2.26, "M": 0.33, "D": 0.0, "R": 0.04, "sving": 0.08, "os": 0.0, "foss": 0.0, "juv": 0.0, "B": 1.02, "Q": 165.83, "w": 71.94, "h": 3.95, "S": 0.0001, "elv": "bekk", "km": 2.2}}, {"type": "Feature", "geometry": {"type": "LineString", "coordinates": [[25.00468, 69.32529], [25.00694, 69.32507]]}, "properties": {"P": 30.36, "tau": 3.86, "tau_c": 11.65, "omega": 2.26, "M": 0.33, "D": 0.0, "R": 0.04, "sving": 0.31, "os": 0.13, "foss": 0.0, "juv": 0.0, "B": 1.27, "Q": 181.37, "w": 78.71, "h": 3.94, "S": 0.0001, "elv": "Roavvejogaš", "km": 5.3}}, {"type": "Feature", "geometry": {"type": "LineString", "coordinates": [[24.83099, 69.30642], [24.83218, 69.30574]]}, "properties": {"P": 18.04, "tau": 3.85, "tau_c": 11.65, "omega": 2.24, "M": 0.33, "D": 0.0, "R": 0.04, "sving": 0.32, "os": 0.0, "foss": 0.0, "juv": 0.0, "B": 1.0, "Q": 165.68, "w": 72.72, "h": 3.92, "S": 0.0001, "elv": "Heastajogaš", "km": 3.0}}, {"type": "Feature", "geometry": {"type": "LineString", "coordinates": [[24.86505, 69.31355], [24.86529, 69.31271]]}, "properties": {"P": 48.19, "tau": 3.83, "tau_c": 11.65, "omega": 2.22, "M": 0.33, "D": -0.0, "R": 0.04, "sving": 0.27, "os": 0.16, "foss": 0.34, "juv": 0.0, "B": 1.26, "Q": 166.12, "w": 73.37, "h": 3.91, "S": 0.0001, "elv": "Bajit Gáldojohka", "km": 5.7}}, {"type": "Feature", "geometry": {"type": "LineString", "coordinates": [[24.82098, 69.29049], [24.82327, 69.29085]]}, "properties": {"P": 44.42, "tau": 3.71, "tau_c": 11.65, "omega": 2.11, "M": 0.32, "D": 0.0, "R": 0.04, "sving": 0.32, "os": 0.1, "foss": 0.29, "juv": 0.0, "B": 1.26, "Q": 164.37, "w": 76.25, "h": 3.78, "S": 0.0001, "elv": "Nuorrojohka", "km": 7.3}}, {"type": "Feature", "geometry": {"type": "LineString", "coordinates": [[24.82348, 69.29574], [24.8241, 69.2949]]}, "properties": {"P": 36.92, "tau": 3.87, "tau_c": 11.65, "omega": 2.25, "M": 0.33, "D": 0.0, "R": 0.04, "sving": 0.68, "os": 0.08, "foss": 0.0, "juv": 0.0, "B": 0.97, "Q": 164.54, "w": 71.67, "h": 3.94, "S": 0.0001, "elv": "bekk", "km": 2.1}}, {"type": "Feature", "geometry": {"type": "LineString", "coordinates": [[24.82346, 69.26464], [24.82387, 69.2654]]}, "properties": {"P": 16.13, "tau": 3.83, "tau_c": 11.65, "omega": 2.21, "M": 0.33, "D": -0.0, "R": 0.04, "sving": 0.24, "os": 0.08, "foss": 0.0, "juv": 0.0, "B": 0.9, "Q": 159.43, "w": 70.64, "h": 3.9, "S": 0.0001, "elv": "bekk", "km": 2.1}}, {"type": "Feature", "geometry": {"type": "LineString", "coordinates": [[24.90011, 69.30577], [24.90049, 69.30664]]}, "properties": {"P": 11.61, "tau": 3.7, "tau_c": 11.65, "omega": 2.12, "M": 0.32, "D": -0.0, "R": 0.04, "sving": 0.16, "os": 0.0, "foss": 0.0, "juv": 0.0, "B": 1.16, "Q": 175.46, "w": 81.35, "h": 3.78, "S": 0.0001, "elv": "Noaidatjohka", "km": 11.8}}, {"type": "Feature", "geometry": {"type": "LineString", "coordinates": [[24.75098, 69.2186], [24.75328, 69.21839]]}, "properties": {"P": 5.74, "tau": 3.79, "tau_c": 11.65, "omega": 2.18, "M": 0.33, "D": 0.0, "R": 0.04, "sving": 0.07, "os": 0.0, "foss": 0.0, "juv": 0.0, "B": 0.95, "Q": 153.8, "w": 69.37, "h": 3.86, "S": 0.0001, "elv": "bekk", "km": 2.1}}, {"type": "Feature", "geometry": {"type": "LineString", "coordinates": [[24.77925, 69.23928], [24.78082, 69.23876]]}, "properties": {"P": 17.08, "tau": 3.72, "tau_c": 11.65, "omega": 2.12, "M": 0.32, "D": 0.0, "R": 0.04, "sving": 0.28, "os": 0.0, "foss": 0.0, "juv": 0.0, "B": 1.1, "Q": 156.7, "w": 72.68, "h": 3.79, "S": 0.0001, "elv": "bekk", "km": 3.5}}, {"type": "Feature", "geometry": {"type": "LineString", "coordinates": [[24.78527, 69.2311], [24.78444, 69.23193]]}, "properties": {"P": 34.66, "tau": 3.71, "tau_c": 11.65, "omega": 2.1, "M": 0.32, "D": 0.0, "R": 0.04, "sving": 0.42, "os": 0.0, "foss": 0.28, "juv": 0.0, "B": 1.0, "Q": 156.64, "w": 73.01, "h": 3.78, "S": 0.0001, "elv": "Dápmotjohka", "km": 1.0}}, {"type": "Feature", "geometry": {"type": "LineString", "coordinates": [[24.64044, 69.37879], [24.64245, 69.3792]]}, "properties": {"P": 16.28, "tau": 3.89, "tau_c": 11.65, "omega": 2.27, "M": 0.33, "D": -0.0, "R": 0.04, "sving": 0.12, "os": 0.23, "foss": 0.0, "juv": 0.0, "B": 0.84, "Q": 167.05, "w": 72.2, "h": 3.96, "S": 0.0001, "elv": "bekk", "km": 2.1}}, {"type": "Feature", "geometry": {"type": "LineString", "coordinates": [[25.73166, 69.29694], [25.73347, 69.29644]]}, "properties": {"P": 6.91, "tau": 4.23, "tau_c": 11.65, "omega": 2.63, "M": 0.36, "D": 0.0, "R": 0.06, "sving": 0.05, "os": 0.0, "foss": 0.0, "juv": 0.0, "B": 0.96, "Q": 233.14, "w": 86.96, "h": 4.31, "S": 0.0001, "elv": "bekk", "km": 0.8}}, {"type": "Feature", "geometry": {"type": "LineString", "coordinates": [[25.73347, 69.29644], [25.73559, 69.29656]]}, "properties": {"P": 17.6, "tau": 3.58, "tau_c": 11.65, "omega": 2.04, "M": 0.31, "D": 0.05, "R": 0.03, "sving": 0.28, "os": 0.0, "foss": 0.0, "juv": 0.0, "B": 0.97, "Q": 233.14, "w": 112.19, "h": 3.65, "S": 0.0001, "elv": "bekk", "km": 0.9}}, {"type": "Feature", "geometry": {"type": "LineString", "coordinates": [[25.75623, 69.34106], [25.75773, 69.34052]]}, "properties": {"P": 8.3, "tau": 4.32, "tau_c": 11.65, "omega": 2.71, "M": 0.37, "D": 0.0, "R": 0.07, "sving": 0.1, "os": 0.0, "foss": 0.0, "juv": 0.0, "B": 0.87, "Q": 236.42, "w": 85.43, "h": 4.4, "S": 0.0001, "elv": "bekk", "km": 1.5}}, {"type": "Feature", "geometry": {"type": "LineString", "coordinates": [[25.63236, 69.24709], [25.63198, 69.24631]]}, "properties": {"P": 37.4, "tau": 3.72, "tau_c": 11.65, "omega": 1.55, "M": 0.32, "D": 0.0, "R": 0.04, "sving": 0.06, "os": 0.7, "foss": 0.0, "juv": 0.0, "B": 0.99, "Q": 15.83, "w": 10.0, "h": 3.79, "S": 0.0001, "elv": "Iškorasjohka", "km": 0.3}}, {"type": "Feature", "geometry": {"type": "LineString", "coordinates": [[25.63198, 69.24631], [25.634, 69.24584]]}, "properties": {"P": 52.16, "tau": 3.72, "tau_c": 11.65, "omega": 1.55, "M": 0.32, "D": 0.0, "R": 0.04, "sving": 0.22, "os": 0.87, "foss": 0.0, "juv": 0.0, "B": 0.99, "Q": 15.83, "w": 10.0, "h": 3.79, "S": 0.0001, "elv": "Iškorasjohka", "km": 0.4}}, {"type": "Feature", "geometry": {"type": "LineString", "coordinates": [[25.634, 69.24584], [25.63651, 69.24582]]}, "properties": {"P": 63.39, "tau": 3.72, "tau_c": 11.65, "omega": 1.55, "M": 0.32, "D": 0.0, "R": 0.04, "sving": 0.78, "os": 0.54, "foss": 0.0, "juv": 0.0, "B": 1.0, "Q": 15.84, "w": 10.0, "h": 3.79, "S": 0.0001, "elv": "Iškorasjohka", "km": 0.5}}, {"type": "Feature", "geometry": {"type": "LineString", "coordinates": [[25.63651, 69.24582], [25.63889, 69.24554]]}, "properties": {"P": 34.79, "tau": 3.72, "tau_c": 11.65, "omega": 1.55, "M": 0.32, "D": 0.0, "R": 0.04, "sving": 0.35, "os": 0.35, "foss": 0.0, "juv": 0.0, "B": 1.0, "Q": 15.84, "w": 10.0, "h": 3.8, "S": 0.0001, "elv": "Iškorasjohka", "km": 0.6}}, {"type": "Feature", "geometry": {"type": "LineString", "coordinates": [[25.63889, 69.24554], [25.64117, 69.24584]]}, "properties": {"P": 21.11, "tau": 3.74, "tau_c": 11.65, "omega": 1.56, "M": 0.32, "D": 0.0, "R": 0.04, "sving": 0.18, "os": 0.21, "foss": 0.0, "juv": 0.0, "B": 1.0, "Q": 15.92, "w": 10.0, "h": 3.81, "S": 0.0001, "elv": "Iškorasjohka", "km": 0.7}}, {"type": "Feature", "geometry": {"type": "LineString", "coordinates": [[25.69128, 69.19937], [25.69355, 69.19936]]}, "properties": {"P": 13.42, "tau": 3.98, "tau_c": 11.65, "omega": 2.38, "M": 0.34, "D": 0.0, "R": 0.05, "sving": 0.11, "os": 0.06, "foss": 0.0, "juv": 0.0, "B": 1.18, "Q": 203.28, "w": 83.68, "h": 4.06, "S": 0.0001, "elv": "Máreveadji", "km": 3.9}}, {"type": "Feature", "geometry": {"type": "LineString", "coordinates": [[25.68933, 69.20446], [25.6918, 69.20451]]}, "properties": {"P": 11.28, "tau": 4.12, "tau_c": 11.65, "omega": 2.51, "M": 0.35, "D": 0.0, "R": 0.06, "sving": 0.17, "os": 0.0, "foss": 0.0, "juv": 0.0, "B": 0.94, "Q": 203.3, "w": 79.42, "h": 4.2, "S": 0.0001, "elv": "bekk", "km": 1.5}}, {"type": "Feature", "geometry": {"type": "LineString", "coordinates": [[25.71223, 69.1761], [25.71453, 69.17631]]}, "properties": {"P": 21.92, "tau": 4.04, "tau_c": 11.65, "omega": 2.43, "M": 0.35, "D": 0.0, "R": 0.05, "sving": 0.27, "os": 0.19, "foss": 0.0, "juv": 0.0, "B": 0.89, "Q": 191.71, "w": 77.53, "h": 4.12, "S": 0.0001, "elv": "Njaláhasjohka", "km": 3.7}}, {"type": "Feature", "geometry": {"type": "LineString", "coordinates": [[24.63974, 69.39901], [24.64206, 69.39876]]}, "properties": {"P": 36.49, "tau": 3.66, "tau_c": 11.65, "omega": 2.07, "M": 0.31, "D": 0.0, "R": 0.03, "sving": 0.57, "os": 0.0, "foss": 0.0, "juv": 0.0, "B": 1.26, "Q": 168.66, "w": 79.87, "h": 3.73, "S": 0.0001, "elv": "bekk", "km": 0.1}}, {"type": "Feature", "geometry": {"type": "LineString", "coordinates": [[24.65335, 69.36765], [24.65336, 69.36683]]}, "properties": {"P": 19.93, "tau": 3.89, "tau_c": 11.65, "omega": 2.27, "M": 0.33, "D": -0.0, "R": 0.04, "sving": 0.02, "os": 0.0, "foss": 0.42, "juv": 0.0, "B": 0.85, "Q": 166.83, "w": 72.15, "h": 3.96, "S": 0.0001, "elv": "Bikká-Biretjohka", "km": 3.3}}, {"type": "Feature", "geometry": {"type": "LineString", "coordinates": [[25.14485, 69.34058], [25.14283, 69.34099]]}, "properties": {"P": 53.76, "tau": 4.06, "tau_c": 11.65, "omega": 2.44, "M": 0.35, "D": 0.0, "R": 0.05, "sving": 0.78, "os": 0.49, "foss": 0.0, "juv": 0.0, "B": 0.86, "Q": 192.25, "w": 77.27, "h": 4.13, "S": 0.0001, "elv": "bekk", "km": 0.2}}, {"type": "Feature", "geometry": {"type": "LineString", "coordinates": [[25.76359, 69.33081], [25.76271, 69.33155]]}, "properties": {"P": 24.32, "tau": 4.25, "tau_c": 11.65, "omega": 2.65, "M": 0.36, "D": 0.0, "R": 0.06, "sving": 0.37, "os": 0.13, "foss": 0.0, "juv": 0.0, "B": 0.87, "Q": 236.08, "w": 87.34, "h": 4.33, "S": 0.0001, "elv": "bekk", "km": 0.6}}, {"type": "Feature", "geometry": {"type": "LineString", "coordinates": [[25.76271, 69.33155], [25.76033, 69.33186]]}, "properties": {"P": 25.53, "tau": 3.6, "tau_c": 11.65, "omega": 2.05, "M": 0.31, "D": 0.05, "R": 0.03, "sving": 0.37, "os": 0.15, "foss": 0.0, "juv": 0.0, "B": 0.87, "Q": 236.17, "w": 112.82, "h": 3.67, "S": 0.0001, "elv": "bekk", "km": 0.7}}, {"type": "Feature", "geometry": {"type": "LineString", "coordinates": [[25.71333, 69.20876], [25.71286, 69.20957]]}, "properties": {"P": 12.82, "tau": 4.11, "tau_c": 11.65, "omega": 2.5, "M": 0.35, "D": 0.0, "R": 0.05, "sving": 0.2, "os": 0.0, "foss": 0.0, "juv": 0.0, "B": 0.95, "Q": 203.58, "w": 79.98, "h": 4.19, "S": 0.0001, "elv": "bekk", "km": 4.6}}, {"type": "Feature", "geometry": {"type": "LineString", "coordinates": [[25.7152, 69.22788], [25.71565, 69.22707]]}, "properties": {"P": 39.37, "tau": 4.13, "tau_c": 11.65, "omega": 2.52, "M": 0.35, "D": -0.0, "R": 0.06, "sving": 0.76, "os": 0.0, "foss": 0.0, "juv": 0.0, "B": 1.01, "Q": 205.14, "w": 79.99, "h": 4.21, "S": 0.0001, "elv": "bekk", "km": 3.6}}, {"type": "Feature", "geometry": {"type": "LineString", "coordinates": [[25.74955, 69.28897], [25.74957, 69.28958]]}, "properties": {"P": 28.74, "tau": 4.29, "tau_c": 11.65, "omega": 2.68, "M": 0.37, "D": -0.0, "R": 0.06, "sving": 0.41, "os": 0.17, "foss": 0.0, "juv": 0.0, "B": 0.91, "Q": 231.45, "w": 84.66, "h": 4.37, "S": 0.0001, "elv": "bekk", "km": 2.2}}, {"type": "Feature", "geometry": {"type": "LineString", "coordinates": [[25.74957, 69.28958], [25.74939, 69.29029]]}, "properties": {"P": 36.91, "tau": 3.6, "tau_c": 11.65, "omega": 2.05, "M": 0.31, "D": 0.05, "R": 0.03, "sving": 0.6, "os": 0.16, "foss": 0.0, "juv": 0.0, "B": 0.91, "Q": 231.45, "w": 110.79, "h": 3.67, "S": 0.0001, "elv": "bekk", "km": 2.3}}, {"type": "Feature", "geometry": {"type": "LineString", "coordinates": [[25.74355, 69.31472], [25.74434, 69.31557]]}, "properties": {"P": 14.58, "tau": 4.31, "tau_c": 11.65, "omega": 2.7, "M": 0.37, "D": -0.0, "R": 0.07, "sving": 0.15, "os": 0.1, "foss": 0.0, "juv": 0.0, "B": 0.88, "Q": 234.33, "w": 85.06, "h": 4.39, "S": 0.0001, "elv": "bekk", "km": 2.7}}, {"type": "Feature", "geometry": {"type": "LineString", "coordinates": [[25.74434, 69.31557], [25.74476, 69.31637]]}, "properties": {"P": 17.55, "tau": 3.61, "tau_c": 11.65, "omega": 2.06, "M": 0.31, "D": 0.05, "R": 0.03, "sving": 0.25, "os": 0.06, "foss": 0.0, "juv": 0.0, "B": 0.88, "Q": 234.33, "w": 111.42, "h": 3.68, "S": 0.0001, "elv": "bekk", "km": 2.8}}, {"type": "Feature", "geometry": {"type": "LineString", "coordinates": [[25.06086, 69.33887], [25.06277, 69.33905]]}, "properties": {"P": 4.2, "tau": 3.88, "tau_c": 11.65, "omega": 2.27, "M": 0.33, "D": 0.0, "R": 0.04, "sving": 0.01, "os": 0.0, "foss": 0.0, "juv": 0.0, "B": 1.14, "Q": 181.82, "w": 78.42, "h": 3.95, "S": 0.0001, "elv": "bekk", "km": 1.5}}]}