{
"type": "FeatureCollection",
"features": [
{
"type": "Feature",
"geometry": {
"type": "Point",
"coordinates": [
9.14603,
60.04781
]
},
"properties": {
"elv": "Numedalslågen",
"km": 3.4,
"z": 228.26,
"S": 0.01,
"Q": 135.0,
"w": 60.91,
"w_q": 34.86,
"h": 0.92,
"tau": 124.47,
"tau_c": 85.71,
"omega": 301.06,
"M": 1.45,
"D": -0.0,
"R": 1.0,
"sving": 0.55,
"os": 0.71,
"os_navn": "sideelv",
"foss": 0.44,
"foss_drop": 0.0,
"juv": 0.0,
"B": 1.29,
"frac_fav": 1.0,
"d_gull_km": 60.42,
"berg": "Kvartsskifer | Kvartsskifer, metasandstein og metaryolitt. Heddalgruppen, sten til ton alder, avsetningsalder &lt;1121 mill. år | Telemark litotektoniske enhet",
"p_raw": 0.65,
"A_km2": 2278.43,
"gate": 1.0,
"P": 100.0,
"rank": 1,
"klasse": "A",
"navn": "Vikje (Numedalslågen)",
"hvorfor": "Bratt stryk like oppstrøms – kulper og fjellsprekker. Os: sideelv kommer inn her – grus og tyngre materiale legges i osen og bankehodet nedenfor. Skarp sving – grav på innersvingen og bak store steiner. τ = 124 Pa ≈ 1.5× terskelen: sand og grus flyttes ved flom, gull blir liggende (retensjon). Berggrunn: Kvartsskifer (100 % gunstig oppstrøms). Regulert (Mykstufoss dam, 1964) – minstevann og gammelt elveleie tilgjengelig."
}
},
{
"type": "Feature",
"geometry": {
"type": "Point",
"coordinates": [
9.1192,
60.06847
]
},
"properties": {
"elv": "Numedalslågen",
"km": 0.1,
"z": 247.08,
"S": 0.02,
"Q": 135.0,
"w": 46.0,
"w_q": 34.86,
"h": 0.93,
"tau": 212.93,
"tau_c": 111.19,
"omega": 670.91,
"M": 1.91,
"D": 0.17,
"R": 0.92,
"sving": 0.09,
"os": 0.48,
"os_navn": "sideelv",
"foss": 0.72,
"foss_drop": 9.32,
"juv": 0.11,
"B": 1.29,
"frac_fav": 1.0,
"d_gull_km": 61.81,
"berg": "Kvartsskifer | Kvartsskifer, metasandstein og metaryolitt. Heddalgruppen, sten til ton alder, avsetningsalder &lt;1121 mill. år | Telemark litotektoniske enhet",
"p_raw": 0.6,
"A_km2": 2267.21,
"gate": 1.0,
"P": 92.55,
"rank": 2,
"klasse": "A",
"navn": "Bogstrand (Numedalslågen)",
"hvorfor": "Foss/stryk rett oppstrøms (9 m fall på 100 m) – fossekulp og fjell i dagen. τ = 213 Pa ≈ 1.9× terskelen: sand og grus flyttes ved flom, gull blir liggende (retensjon). Berggrunn: Kvartsskifer (100 % gunstig oppstrøms). Regulert (Kjerredammen, 1964) – minstevann og gammelt elveleie tilgjengelig."
}
},
{
"type": "Feature",
"geometry": {
"type": "Point",
"coordinates": [
9.13355,
60.05817
]
},
"properties": {
"elv": "Numedalslågen",
"km": 1.8,
"z": 236.87,
"S": 0.01,
"Q": 135.0,
"w": 74.0,
"w_q": 34.86,
"h": 1.01,
"tau": 67.21,
"tau_c": 60.04,
"omega": 121.6,
"M": 1.12,
"D": 0.14,
"R": 0.89,
"sving": 0.48,
"os": 0.92,
"os_navn": "sideelv",
"foss": 0.0,
"foss_drop": 0.0,
"juv": 0.0,
"B": 1.29,
"frac_fav": 1.0,
"d_gull_km": 61.25,
"berg": "Kvartsskifer | Kvartsskifer, metasandstein og metaryolitt. Heddalgruppen, sten til ton alder, avsetningsalder &lt;1121 mill. år | Telemark litotektoniske enhet",
"p_raw": 0.59,
"A_km2": 2272.65,
"gate": 1.0,
"P": 90.73,
"rank": 3,
"klasse": "A",
"navn": "Haugen (Numedalslågen)",
"hvorfor": "Os: sideelv kommer inn her – grus og tyngre materiale legges i osen og bankehodet nedenfor. τ = 67 Pa ≈ 1.1× terskelen: sand og grus flyttes ved flom, gull blir liggende (retensjon). Berggrunn: Kvartsskifer (100 % gunstig oppstrøms). Regulert (Kjerredammen, 1964) – minstevann og gammelt elveleie tilgjengelig."
}
},
{
"type": "Feature",
"geometry": {
"type": "Point",
"coordinates": [
9.2965,
59.96972
]
},
"properties": {
"elv": "bekk",
"km": 0.0,
"z": 201.44,
"S": 0.02,
"Q": 303.51,
"w": 129.62,
"w_q": 52.26,
"h": 0.81,
"tau": 182.77,
"tau_c": 110.69,
"omega": 530.48,
"M": 1.65,
"D": 0.03,
"R": 0.99,
"sving": 0.61,
"os": 1.0,
"os_navn": "Tinnesbekken",
"foss": 1.0,
"foss_drop": 5.51,
"juv": 0.12,
"B": 0.84,
"frac_fav": 0.4,
"d_gull_km": 51.46,
"berg": "",
"p_raw": 0.55,
"A_km2": 2529.28,
"gate": 1.0,
"P": 85.05,
"rank": 4,
"klasse": "A",
"navn": "Tinnes (bekk)",
"hvorfor": "Foss/stryk rett oppstrøms (6 m fall på 100 m) – fossekulp og fjell i dagen. Os: Tinnesbekken kommer inn her – grus og tyngre materiale legges i osen og bankehodet nedenfor. Skarp sving – grav på innersvingen og bak store steiner. τ = 183 Pa ≈ 1.7× terskelen: sand og grus flyttes ved flom, gull blir liggende (retensjon)."
}
},
{
"type": "Feature",
"geometry": {
"type": "Point",
"coordinates": [
9.16011,
60.04744
]
},
"properties": {
"elv": "Numedalslågen",
"km": 4.3,
"z": 212.12,
"S": 0.0,
"Q": 135.0,
"w": 89.83,
"w_q": 34.86,
"h": 1.09,
"tau": 38.17,
"tau_c": 43.59,
"omega": 52.8,
"M": 0.88,
"D": 0.4,
"R": 0.67,
"sving": 0.27,
"os": 0.84,
"os_navn": "Nørdsteåe",
"foss": 0.0,
"foss_drop": 0.0,
"juv": 0.0,
"B": 1.29,
"frac_fav": 1.0,
"d_gull_km": 60.3,
"berg": "Kvartsskifer | Kvartsskifer, metasandstein og metaryolitt. Heddalgruppen, sten til ton alder, avsetningsalder &lt;1121 mill. år | Telemark litotektoniske enhet",
"p_raw": 0.53,
"A_km2": 2281.82,
"gate": 1.0,
"P": 81.82,
"rank": 5,
"klasse": "A",
"navn": "Nordre Bjørkgarden (Numedalslågen)",
"hvorfor": "Os: Nørdsteåe kommer inn her – grus og tyngre materiale legges i osen og bankehodet nedenfor. Strømeffekten faller 40 % over strekningen – tungt materiale slipper her. τ = 38 Pa ≈ 0.9× terskelen: sand og grus flyttes ved flom, gull blir liggende (retensjon). Berggrunn: Kvartsskifer (100 % gunstig oppstrøms). Regulert (Mykstufoss dam, 1964) – minstevann og gammelt elveleie tilgjengelig."
}
},
{
"type": "Feature",
"geometry": {
"type": "Point",
"coordinates": [
9.27216,
60.01942
]
},
"properties": {
"elv": "Numedalslågen",
"km": 12.8,
"z": 196.55,
"S": 0.0,
"Q": 240.65,
"w": 89.92,
"w_q": 46.54,
"h": 1.86,
"tau": 35.35,
"tau_c": 32.07,
"omega": 50.9,
"M": 1.1,
"D": 0.07,
"R": 0.88,
"sving": 0.54,
"os": 0.82,
"os_navn": "Nordåe",
"foss": 0.0,
"foss_drop": 0.0,
"juv": 0.0,
"B": 1.21,
"frac_fav": 0.89,
"d_gull_km": 56.96,
"berg": "Intermediær vulkansk bergart | Intermediær vulkansk bergart, dacittisk til andesittisk sammensetning, uensartet, lagdelt, mange steder med mafiske lag og stedvis med sedimentære lag, finkornet, ekstrusjonsalder c. 1541 mill. år | Kongsberg litotektoniske enhet",
"p_raw": 0.53,
"A_km2": 2486.52,
"gate": 1.0,
"P": 81.23,
"rank": 6,
"klasse": "A",
"navn": "Skogly (Numedalslågen)",
"hvorfor": "Os: Nordåe kommer inn her – grus og tyngre materiale legges i osen og bankehodet nedenfor. Skarp sving – grav på innersvingen og bak store steiner. τ = 35 Pa ≈ 1.1× terskelen: sand og grus flyttes ved flom, gull blir liggende (retensjon). Berggrunn: Intermediær vulkansk bergart (89 % gunstig oppstrøms)."
}
},
{
"type": "Feature",
"geometry": {
"type": "Point",
"coordinates": [
9.28504,
59.97858
]
},
"properties": {
"elv": "Stærnesbekken",
"km": 2.1,
"z": 199.56,
"S": 0.01,
"Q": 302.08,
"w": 155.14,
"w_q": 52.14,
"h": 0.83,
"tau": 117.89,
"tau_c": 87.63,
"omega": 276.46,
"M": 1.35,
"D": 0.58,
"R": 0.98,
"sving": 0.42,
"os": 1.0,
"os_navn": "sideelv",
"foss": 0.37,
"foss_drop": 7.05,
"juv": 0.0,
"B": 0.82,
"frac_fav": 0.38,
"d_gull_km": 52.42,
"berg": "Granittisk gneis | Granittisk gneis, vanligvis øyegneis, stedvis migmatittisk, sten alder, intrusjonsalder c. 1146 mill. år | Telemark litotektoniske enhet",
"p_raw": 0.52,
"A_km2": 2517.37,
"gate": 1.0,
"P": 79.76,
"rank": 7,
"klasse": "A",
"navn": "Landsverk (Stærnesbekken)",
"hvorfor": "Foss/stryk rett oppstrøms (7 m fall på 100 m) – fossekulp og fjell i dagen. Os: sideelv kommer inn her – grus og tyngre materiale legges i osen og bankehodet nedenfor. Strømeffekten faller 58 % over strekningen – tungt materiale slipper her. τ = 118 Pa ≈ 1.3× terskelen: sand og grus flyttes ved flom, gull blir liggende (retensjon). Berggrunn: Granittisk gneis (38 % gunstig oppstrøms)."
}
},
{
"type": "Feature",
"geometry": {
"type": "Point",
"coordinates": [
9.06094,
60.09893
]
},
"properties": {
"elv": "Sundeelve",
"km": 2.9,
"z": 276.1,
"S": 0.11,
"Q": 251.32,
"w": 88.31,
"w_q": 47.56,
"h": 0.57,
"tau": 616.02,
"tau_c": 242.49,
"omega": 3094.08,
"M": 2.54,
"D": 0.0,
"R": 0.68,
"sving": 0.66,
"os": 0.05,
"os_navn": "sideelv",
"foss": 1.0,
"foss_drop": 12.77,
"juv": 0.0,
"B": 1.18,
"frac_fav": 0.87,
"d_gull_km": 63.21,
"berg": "Metasandstein | Metasandstein og muskovitt-kvartsskifer, stedvis med konglomerat | Telemark litotektoniske enhet",
"p_raw": 0.5,
"A_km2": 2094.31,
"gate": 1.0,
"P": 77.19,
"rank": 8,
"klasse": "A",
"navn": "Nedre Sunde (Sundeelve)",
"hvorfor": "Foss/stryk rett oppstrøms (13 m fall på 100 m) – fossekulp og fjell i dagen. Skarp sving – grav på innersvingen og bak store steiner. τ = 616 Pa ≈ 2.5× terskelen: sand og grus flyttes ved flom, gull blir liggende (retensjon). Berggrunn: Metasandstein (87 % gunstig oppstrøms)."
}
},
{
"type": "Feature",
"geometry": {
"type": "Point",
"coordinates": [
9.19535,
60.04383
]
},
"properties": {
"elv": "Tondra",
"km": 5.2,
"z": 207.4,
"S": 0.02,
"Q": 341.88,
"w": 137.28,
"w_q": 55.47,
"h": 0.86,
"tau": 178.69,
"tau_c": 106.08,
"omega": 518.16,
"M": 1.68,
"D": 0.1,
"R": 0.98,
"sving": 0.55,
"os": 0.06,
"os_navn": "sideelv",
"foss": 0.51,
"foss_drop": 3.64,
"juv": 0.0,
"B": 1.14,
"frac_fav": 0.8,
"d_gull_km": 59.76,
"berg": "Kvartsskifer | Kvartsskifer, metasandstein og metaryolitt. Heddalgruppen, sten til ton alder, avsetningsalder &lt;1121 mill. år | Telemark litotektoniske enhet",
"p_raw": 0.5,
"A_km2": 2441.97,
"gate": 1.0,
"P": 76.34,
"rank": 9,
"klasse": "A",
"navn": "Gvammen (Tondra)",
"hvorfor": "Foss/stryk rett oppstrøms (4 m fall på 100 m) – fossekulp og fjell i dagen. Skarp sving – grav på innersvingen og bak store steiner. τ = 179 Pa ≈ 1.7× terskelen: sand og grus flyttes ved flom, gull blir liggende (retensjon). Berggrunn: Kvartsskifer (80 % gunstig oppstrøms). Regulert (Mykstufoss dam, 1964) – minstevann og gammelt elveleie tilgjengelig."
}
},
{
"type": "Feature",
"geometry": {
"type": "Point",
"coordinates": [
9.18177,
60.04257
]
},
"properties": {
"elv": "Numedalslågen",
"km": 5.7,
"z": 205.38,
"S": 0.0,
"Q": 135.0,
"w": 87.83,
"w_q": 34.86,
"h": 1.3,
"tau": 26.41,
"tau_c": 33.13,
"omega": 31.2,
"M": 0.8,
"D": 0.31,
"R": 0.57,
"sving": 0.2,
"os": 0.98,
"os_navn": "Sønsteåe",
"foss": 0.0,
"foss_drop": 0.0,
"juv": 0.0,
"B": 1.29,
"frac_fav": 1.0,
"d_gull_km": 59.67,
"berg": "Kvartsskifer | Kvartsskifer, metasandstein og metaryolitt. Heddalgruppen, sten til ton alder, avsetningsalder &lt;1121 mill. år | Telemark litotektoniske enhet",
"p_raw": 0.49,
"A_km2": 2401.53,
"gate": 1.0,
"P": 75.91,
"rank": 10,
"klasse": "B",
"navn": "Øye (Numedalslågen)",
"hvorfor": "Os: Sønsteåe kommer inn her – grus og tyngre materiale legges i osen og bankehodet nedenfor. Strømeffekten faller 31 % over strekningen – tungt materiale slipper her. Berggrunn: Kvartsskifer (100 % gunstig oppstrøms). Regulert (Mykstufoss dam, 1964) – minstevann og gammelt elveleie tilgjengelig."
}
},
{
"type": "Feature",
"geometry": {
"type": "Point",
"coordinates": [
9.33901,
59.93989
]
},
"properties": {
"elv": "Numedalslågen",
"km": 24.4,
"z": 192.87,
"S": 0.01,
"Q": 245.76,
"w": 74.0,
"w_q": 47.03,
"h": 1.22,
"tau": 144.22,
"tau_c": 80.0,
"omega": 393.03,
"M": 1.8,
"D": 0.11,
"R": 0.95,
"sving": 0.09,
"os": 0.1,
"os_navn": "Helletjønnelve",
"foss": 1.0,
"foss_drop": 5.81,
"juv": 0.0,
"B": 1.12,
"frac_fav": 0.76,
"d_gull_km": 48.32,
"berg": "Intermediær vulkansk bergart | Intermediær vulkansk bergart, dacittisk til andesittisk sammensetning, uensartet, lagdelt, mange steder med mafiske lag og stedvis med sedimentære lag, finkornet, ekstrusjonsalder c. 1541 mill. år | Kongsberg litotektoniske enhet",
"p_raw": 0.49,
"A_km2": 2593.44,
"gate": 1.0,
"P": 75.52,
"rank": 11,
"klasse": "B",
"navn": "Åsan (Numedalslågen)",
"hvorfor": "Foss/stryk rett oppstrøms (6 m fall på 100 m) – fossekulp og fjell i dagen. τ = 144 Pa ≈ 1.8× terskelen: sand og grus flyttes ved flom, gull blir liggende (retensjon). Berggrunn: Intermediær vulkansk bergart (76 % gunstig oppstrøms). Regulert (Djupdalsdammen, 1976) – minstevann og gammelt elveleie tilgjengelig."
}
},
{
"type": "Feature",
"geometry": {
"type": "Point",
"coordinates": [
9.33198,
59.93248
]
},
"properties": {
"elv": "Numedalslågen",
"km": 25.5,
"z": 183.88,
"S": 0.0,
"Q": 150.0,
"w": 78.0,
"w_q": 36.74,
"h": 1.16,
"tau": 54.34,
"tau_c": 50.4,
"omega": 90.31,
"M": 1.08,
"D": -0.0,
"R": 0.86,
"sving": 0.47,
"os": 0.82,
"os_navn": "Liarbekken",
"foss": 0.0,
"foss_drop": 0.0,
"juv": 0.0,
"B": 1.12,
"frac_fav": 0.76,
"d_gull_km": 47.45,
"berg": "Intermediær vulkansk bergart | Intermediær vulkansk bergart, dacittisk til andesittisk sammensetning, uensartet, lagdelt, mange steder med mafiske lag og stedvis med sedimentære lag, finkornet, ekstrusjonsalder c. 1541 mill. år | Kongsberg litotektoniske enhet",
"p_raw": 0.46,
"A_km2": 2596.4,
"gate": 1.0,
"P": 70.09,
"rank": 12,
"klasse": "B",
"navn": "Bakkebråtån (Numedalslågen)",
"hvorfor": "Os: Liarbekken kommer inn her – grus og tyngre materiale legges i osen og bankehodet nedenfor. τ = 54 Pa ≈ 1.1× terskelen: sand og grus flyttes ved flom, gull blir liggende (retensjon). Berggrunn: Intermediær vulkansk bergart (76 % gunstig oppstrøms). Regulert (Djupdalsdammen, 1976) – minstevann og gammelt elveleie tilgjengelig."
}
},
{
"type": "Feature",
"geometry": {
"type": "Point",
"coordinates": [
9.25743,
60.01657
]
},
"properties": {
"elv": "Numedalslågen",
"km": 11.9,
"z": 198.09,
"S": 0.0,
"Q": 240.25,
"w": 72.0,
"w_q": 46.5,
"h": 3.13,
"tau": 17.31,
"tau_c": 17.31,
"omega": 18.48,
"M": 1.0,
"D": -0.0,
"R": 0.8,
"sving": 0.15,
"os": 0.97,
"os_navn": "sideelv",
"foss": 0.0,
"foss_drop": 0.0,
"juv": 0.0,
"B": 1.23,
"frac_fav": 0.91,
"d_gull_km": 56.63,
"berg": "Intermediær vulkansk bergart | Intermediær vulkansk bergart, dacittisk til andesittisk sammensetning, uensartet, lagdelt, mange steder med mafiske lag og stedvis med sedimentære lag, finkornet, ekstrusjonsalder c. 1541 mill. år | Kongsberg litotektoniske enhet",
"p_raw": 0.45,
"A_km2": 2462.67,
"gate": 1.0,
"P": 69.18,
"rank": 13,
"klasse": "B",
"navn": "Vårvikhaugen (Numedalslågen)",
"hvorfor": "Os: sideelv kommer inn her – grus og tyngre materiale legges i osen og bankehodet nedenfor. τ = 17 Pa ≈ 1.0× terskelen: sand og grus flyttes ved flom, gull blir liggende (retensjon). Berggrunn: Intermediær vulkansk bergart (91 % gunstig oppstrøms)."
}
},
{
"type": "Feature",
"geometry": {
"type": "Point",
"coordinates": [
9.33777,
59.92662
]
},
"properties": {
"elv": "Numedalslågen",
"km": 26.7,
"z": 179.85,
"S": 0.0,
"Q": 150.0,
"w": 64.0,
"w_q": 36.74,
"h": 1.62,
"tau": 37.58,
"tau_c": 35.37,
"omega": 54.23,
"M": 1.06,
"D": 0.1,
"R": 0.85,
"sving": 0.83,
"os": 0.3,
"os_navn": "sideelv",
"foss": 0.0,
"foss_drop": 0.0,
"juv": 0.0,
"B": 1.11,
"frac_fav": 0.75,
"d_gull_km": 46.84,
"berg": "Intermediær vulkansk bergart | Intermediær vulkansk bergart, dacittisk til andesittisk sammensetning, uensartet, lagdelt, mange steder med mafiske lag og stedvis med sedimentære lag, finkornet, ekstrusjonsalder c. 1541 mill. år | Kongsberg litotektoniske enhet",
"p_raw": 0.45,
"A_km2": 2605.4,
"gate": 1.0,
"P": 68.41,
"rank": 14,
"klasse": "B",
"navn": "Teigen (Numedalslågen)",
"hvorfor": "Skarp sving – grav på innersvingen og bak store steiner. τ = 38 Pa ≈ 1.1× terskelen: sand og grus flyttes ved flom, gull blir liggende (retensjon). Berggrunn: Intermediær vulkansk bergart (75 % gunstig oppstrøms). Regulert (Djupdalsdammen, 1976) – minstevann og gammelt elveleie tilgjengelig."
}
},
{
"type": "Feature",
"geometry": {
"type": "Point",
"coordinates": [
9.34172,
59.91881
]
},
"properties": {
"elv": "Rostadelve",
"km": 2.1,
"z": 179.79,
"S": 0.03,
"Q": 312.81,
"w": 115.51,
"w_q": 53.06,
"h": 0.84,
"tau": 221.07,
"tau_c": 119.07,
"omega": 709.91,
"M": 1.86,
"D": 0.25,
"R": 0.94,
"sving": 1.0,
"os": 0.0,
"os_navn": "",
"foss": 0.51,
"foss_drop": 4.87,
"juv": 0.05,
"B": 0.84,
"frac_fav": 0.4,
"d_gull_km": 45.99,
"berg": "",
"p_raw": 0.44,
"A_km2": 2606.77,
"gate": 1.0,
"P": 67.01,
"rank": 15,
"klasse": "B",
"navn": "Søre Haugen (Rostadelve)",
"hvorfor": "Foss/stryk rett oppstrøms (5 m fall på 100 m) – fossekulp og fjell i dagen. Skarp sving – grav på innersvingen og bak store steiner. τ = 221 Pa ≈ 1.9× terskelen: sand og grus flyttes ved flom, gull blir liggende (retensjon). Regulert (Djupdalsdammen, 1976) – minstevann og gammelt elveleie tilgjengelig."
}
},
{
"type": "Feature",
"geometry": {
"type": "Point",
"coordinates": [
9.21378,
60.03994
]
},
"properties": {
"elv": "Numedalslågen",
"km": 7.7,
"z": 201.39,
"S": 0.0,
"Q": 238.4,
"w": 125.17,
"w_q": 46.32,
"h": 1.46,
"tau": 30.71,
"tau_c": 33.72,
"omega": 40.05,
"M": 0.91,
"D": 0.02,
"R": 0.71,
"sving": 0.07,
"os": 0.91,
"os_navn": "Hekteåe",
"foss": 0.0,
"foss_drop": 0.0,
"juv": 0.0,
"B": 1.29,
"frac_fav": 1.0,
"d_gull_km": 59.28,
"berg": "Kvartsskifer | Kvartsskifer, metasandstein og metaryolitt. Heddalgruppen, sten til ton alder, avsetningsalder &lt;1121 mill. år | Telemark litotektoniske enhet",
"p_raw": 0.42,
"A_km2": 2446.69,
"gate": 1.0,
"P": 65.04,
"rank": 16,
"klasse": "B",
"navn": "Bekkjordsmogen (Numedalslågen)",
"hvorfor": "Os: Hekteåe kommer inn her – grus og tyngre materiale legges i osen og bankehodet nedenfor. τ = 31 Pa ≈ 0.9× terskelen: sand og grus flyttes ved flom, gull blir liggende (retensjon). Berggrunn: Kvartsskifer (100 % gunstig oppstrøms)."
}
},
{
"type": "Feature",
"geometry": {
"type": "Point",
"coordinates": [
9.2727,
59.99598
]
},
"properties": {
"elv": "Ulstadåe",
"km": 3.2,
"z": 195.04,
"S": 0.05,
"Q": 349.97,
"w": 168.36,
"w_q": 56.12,
"h": 0.59,
"tau": 295.13,
"tau_c": 164.29,
"omega": 1037.37,
"M": 1.8,
"D": 0.37,
"R": 0.96,
"sving": 0.31,
"os": 0.42,
"os_navn": "sideelv",
"foss": 0.51,
"foss_drop": 13.38,
"juv": 0.0,
"B": 0.81,
"frac_fav": 0.36,
"d_gull_km": 54.34,
"berg": "Granittisk gneis | Granittisk gneis, vanligvis øyegneis, stedvis migmatittisk, sten alder, intrusjonsalder c. 1146 mill. år | Telemark litotektoniske enhet",
"p_raw": 0.4,
"A_km2": 2499.79,
"gate": 1.0,
"P": 62.21,
"rank": 17,
"klasse": "B",
"navn": "Ulstad (Ulstadåe)",
"hvorfor": "Foss/stryk rett oppstrøms (13 m fall på 100 m) – fossekulp og fjell i dagen. Strømeffekten faller 37 % over strekningen – tungt materiale slipper her. τ = 295 Pa ≈ 1.8× terskelen: sand og grus flyttes ved flom, gull blir liggende (retensjon). Berggrunn: Granittisk gneis (36 % gunstig oppstrøms)."
}
},
{
"type": "Feature",
"geometry": {
"type": "Point",
"coordinates": [
9.35642,
59.89326
]
},
"properties": {
"elv": "Juva",
"km": 3.5,
"z": 177.16,
"S": 0.01,
"Q": 325.03,
"w": 108.7,
"w_q": 54.09,
"h": 1.4,
"tau": 84.44,
"tau_c": 57.21,
"omega": 180.96,
"M": 1.48,
"D": 0.0,
"R": 1.0,
"sving": 0.76,
"os": 0.46,
"os_navn": "sideelv",
"foss": 0.0,
"foss_drop": 0.0,
"juv": 0.0,
"B": 0.93,
"frac_fav": 0.51,
"d_gull_km": 43.26,
"berg": "Kvartsskifer | Kvartsskifer, metasandstein og metaryolitt. Heddalgruppen, sten til ton alder, avsetningsalder &lt;1121 mill. år | Telemark litotektoniske enhet",
"p_raw": 0.4,
"A_km2": 2708.59,
"gate": 1.0,
"P": 62.05,
"rank": 18,
"klasse": "B",
"navn": "Gjuvenes (Juva)",
"hvorfor": "Skarp sving – grav på innersvingen og bak store steiner. τ = 84 Pa ≈ 1.5× terskelen: sand og grus flyttes ved flom, gull blir liggende (retensjon). Berggrunn: Kvartsskifer (51 % gunstig oppstrøms)."
}
},
{
"type": "Feature",
"geometry": {
"type": "Point",
"coordinates": [
9.31505,
59.95206
]
},
"properties": {
"elv": "Bergseidelve",
"km": 0.4,
"z": 196.78,
"S": 0.05,
"Q": 309.87,
"w": 102.78,
"w_q": 52.81,
"h": 0.74,
"tau": 366.15,
"tau_c": 163.07,
"omega": 1482.34,
"M": 2.25,
"D": 0.0,
"R": 0.8,
"sving": 0.18,
"os": 0.16,
"os_navn": "sideelv",
"foss": 0.72,
"foss_drop": 9.49,
"juv": 0.0,
"B": 1.11,
"frac_fav": 0.75,
"d_gull_km": 49.55,
"berg": "Kvartsitt | Kvartsitt til metasandstein, Blefjellkvartsitten, avsetningsalder &lt;1404 mill. år | Telemark litotektoniske enhet",
"p_raw": 0.4,
"A_km2": 2582.28,
"gate": 1.0,
"P": 61.04,
"rank": 19,
"klasse": "B",
"navn": "Båtstøhaugen (Bergseidelve)",
"hvorfor": "Foss/stryk rett oppstrøms (9 m fall på 100 m) – fossekulp og fjell i dagen. τ = 366 Pa ≈ 2.2× terskelen: sand og grus flyttes ved flom, gull blir liggende (retensjon). Berggrunn: Kvartsitt (75 % gunstig oppstrøms). Regulert (Djupdalsdammen, 1976) – minstevann og gammelt elveleie tilgjengelig."
}
},
{
"type": "Feature",
"geometry": {
"type": "Point",
"coordinates": [
9.26742,
60.00478
]
},
"properties": {
"elv": "Søre Fetjanbekk",
"km": 2.8,
"z": 195.02,
"S": 0.06,
"Q": 299.03,
"w": 127.38,
"w_q": 51.88,
"h": 0.62,
"tau": 339.18,
"tau_c": 172.1,
"omega": 1285.65,
"M": 1.97,
"D": 0.37,
"R": 0.9,
"sving": 0.52,
"os": 0.0,
"os_navn": "",
"foss": 0.51,
"foss_drop": 14.65,
"juv": 0.0,
"B": 0.84,
"frac_fav": 0.4,
"d_gull_km": 55.32,
"berg": "",
"p_raw": 0.38,
"A_km2": 2491.88,
"gate": 1.0,
"P": 58.68,
"rank": 20,
"klasse": "B",
"navn": "Glitre (Søre Fetjanbekk)",
"hvorfor": "Foss/stryk rett oppstrøms (15 m fall på 100 m) – fossekulp og fjell i dagen. Skarp sving – grav på innersvingen og bak store steiner. Strømeffekten faller 37 % over strekningen – tungt materiale slipper her. τ = 339 Pa ≈ 2.0× terskelen: sand og grus flyttes ved flom, gull blir liggende (retensjon)."
}
}
]
}