{"type": "FeatureCollection", "features": [{"type": "Feature", "geometry": {"type": "Point", "coordinates": [9.14779, 60.05432]}, "properties": {"type": "basemetall", "s2_oh_z": null, "s2_feox_z": null}}, {"type": "Feature", "geometry": {"type": "Point", "coordinates": [9.16532, 60.01023]}, "properties": {"type": "basemetall", "s2_oh_z": 0.79, "s2_feox_z": 1.0}}, {"type": "Feature", "geometry": {"type": "Point", "coordinates": [9.17382, 60.01716]}, "properties": {"type": "basemetall", "s2_oh_z": null, "s2_feox_z": null}}, {"type": "Feature", "geometry": {"type": "Point", "coordinates": [9.11739, 60.09081]}, "properties": {"type": "basemetall", "s2_oh_z": 0.66, "s2_feox_z": 0.98}}, {"type": "Feature", "geometry": {"type": "Point", "coordinates": [9.29076, 59.99861]}, "properties": {"type": "basemetall", "s2_oh_z": null, "s2_feox_z": null}}, {"type": "Feature", "geometry": {"type": "Point", "coordinates": [9.12725, 60.01222]}, "properties": {"type": "basemetall", "s2_oh_z": 0.49, "s2_feox_z": 0.72}}]}