<?xml version="1.0" encoding="UTF-8"?>
<gpx version="1.1" creator="gulloye" xmlns="http://www.topografix.com/GPX/1/1">
  <wpt lat="60.04781" lon="9.14603"><name>1 A – Vikje (Numedalslågen)</name><desc>Bratt stryk like oppstrøms – kulper og fjellsprekker. Os: sideelv kommer inn her – grus og tyngre materiale legges i osen og bankehodet nedenfor. Skarp sving – grav på innersvingen og bak store steiner. τ = 124 Pa ≈ 1.5× terskelen: sand og grus flyttes ved flom, gull blir liggende (retensjon). Berggrunn: Kvartsskifer (100 % gunstig oppstrøms). Regulert (Mykstufoss dam, 1964) – minstevann og gammelt elveleie tilgjengelig.</desc></wpt>
  <wpt lat="60.06847" lon="9.11920"><name>2 A – Bogstrand (Numedalslågen)</name><desc>Foss/stryk rett oppstrøms (9 m fall på 100 m) – fossekulp og fjell i dagen. τ = 213 Pa ≈ 1.9× terskelen: sand og grus flyttes ved flom, gull blir liggende (retensjon). Berggrunn: Kvartsskifer (100 % gunstig oppstrøms). Regulert (Kjerredammen, 1964) – minstevann og gammelt elveleie tilgjengelig.</desc></wpt>
  <wpt lat="60.05817" lon="9.13355"><name>3 A – Haugen (Numedalslågen)</name><desc>Os: sideelv kommer inn her – grus og tyngre materiale legges i osen og bankehodet nedenfor. τ = 67 Pa ≈ 1.1× terskelen: sand og grus flyttes ved flom, gull blir liggende (retensjon). Berggrunn: Kvartsskifer (100 % gunstig oppstrøms). Regulert (Kjerredammen, 1964) – minstevann og gammelt elveleie tilgjengelig.</desc></wpt>
  <wpt lat="59.96972" lon="9.29650"><name>4 A – Tinnes (bekk)</name><desc>Foss/stryk rett oppstrøms (6 m fall på 100 m) – fossekulp og fjell i dagen. Os: Tinnesbekken kommer inn her – grus og tyngre materiale legges i osen og bankehodet nedenfor. Skarp sving – grav på innersvingen og bak store steiner. τ = 183 Pa ≈ 1.7× terskelen: sand og grus flyttes ved flom, gull blir liggende (retensjon).</desc></wpt>
  <wpt lat="60.04744" lon="9.16011"><name>5 A – Nordre Bjørkgarden (Numedalslågen)</name><desc>Os: Nørdsteåe kommer inn her – grus og tyngre materiale legges i osen og bankehodet nedenfor. Strømeffekten faller 40 % over strekningen – tungt materiale slipper her. τ = 38 Pa ≈ 0.9× terskelen: sand og grus flyttes ved flom, gull blir liggende (retensjon). Berggrunn: Kvartsskifer (100 % gunstig oppstrøms). Regulert (Mykstufoss dam, 1964) – minstevann og gammelt elveleie tilgjengelig.</desc></wpt>
  <wpt lat="60.01942" lon="9.27216"><name>6 A – Skogly (Numedalslågen)</name><desc>Os: Nordåe kommer inn her – grus og tyngre materiale legges i osen og bankehodet nedenfor. Skarp sving – grav på innersvingen og bak store steiner. τ = 35 Pa ≈ 1.1× terskelen: sand og grus flyttes ved flom, gull blir liggende (retensjon). Berggrunn: Intermediær vulkansk bergart (89 % gunstig oppstrøms).</desc></wpt>
  <wpt lat="59.97858" lon="9.28504"><name>7 A – Landsverk (Stærnesbekken)</name><desc>Foss/stryk rett oppstrøms (7 m fall på 100 m) – fossekulp og fjell i dagen. Os: sideelv kommer inn her – grus og tyngre materiale legges i osen og bankehodet nedenfor. Strømeffekten faller 58 % over strekningen – tungt materiale slipper her. τ = 118 Pa ≈ 1.3× terskelen: sand og grus flyttes ved flom, gull blir liggende (retensjon). Berggrunn: Granittisk gneis (38 % gunstig oppstrøms).</desc></wpt>
  <wpt lat="60.09893" lon="9.06094"><name>8 A – Nedre Sunde (Sundeelve)</name><desc>Foss/stryk rett oppstrøms (13 m fall på 100 m) – fossekulp og fjell i dagen. Skarp sving – grav på innersvingen og bak store steiner. τ = 616 Pa ≈ 2.5× terskelen: sand og grus flyttes ved flom, gull blir liggende (retensjon). Berggrunn: Metasandstein (87 % gunstig oppstrøms).</desc></wpt>
  <wpt lat="60.04383" lon="9.19535"><name>9 A – Gvammen (Tondra)</name><desc>Foss/stryk rett oppstrøms (4 m fall på 100 m) – fossekulp og fjell i dagen. Skarp sving – grav på innersvingen og bak store steiner. τ = 179 Pa ≈ 1.7× terskelen: sand og grus flyttes ved flom, gull blir liggende (retensjon). Berggrunn: Kvartsskifer (80 % gunstig oppstrøms). Regulert (Mykstufoss dam, 1964) – minstevann og gammelt elveleie tilgjengelig.</desc></wpt>
  <wpt lat="60.04257" lon="9.18177"><name>10 B – Øye (Numedalslågen)</name><desc>Os: Sønsteåe kommer inn her – grus og tyngre materiale legges i osen og bankehodet nedenfor. Strømeffekten faller 31 % over strekningen – tungt materiale slipper her. Berggrunn: Kvartsskifer (100 % gunstig oppstrøms). Regulert (Mykstufoss dam, 1964) – minstevann og gammelt elveleie tilgjengelig.</desc></wpt>
  <wpt lat="59.93989" lon="9.33901"><name>11 B – Åsan (Numedalslågen)</name><desc>Foss/stryk rett oppstrøms (6 m fall på 100 m) – fossekulp og fjell i dagen. τ = 144 Pa ≈ 1.8× terskelen: sand og grus flyttes ved flom, gull blir liggende (retensjon). Berggrunn: Intermediær vulkansk bergart (76 % gunstig oppstrøms). Regulert (Djupdalsdammen, 1976) – minstevann og gammelt elveleie tilgjengelig.</desc></wpt>
  <wpt lat="59.93248" lon="9.33198"><name>12 B – Bakkebråtån (Numedalslågen)</name><desc>Os: Liarbekken kommer inn her – grus og tyngre materiale legges i osen og bankehodet nedenfor. τ = 54 Pa ≈ 1.1× terskelen: sand og grus flyttes ved flom, gull blir liggende (retensjon). Berggrunn: Intermediær vulkansk bergart (76 % gunstig oppstrøms). Regulert (Djupdalsdammen, 1976) – minstevann og gammelt elveleie tilgjengelig.</desc></wpt>
  <wpt lat="60.01657" lon="9.25743"><name>13 B – Vårvikhaugen (Numedalslågen)</name><desc>Os: sideelv kommer inn her – grus og tyngre materiale legges i osen og bankehodet nedenfor. τ = 17 Pa ≈ 1.0× terskelen: sand og grus flyttes ved flom, gull blir liggende (retensjon). Berggrunn: Intermediær vulkansk bergart (91 % gunstig oppstrøms).</desc></wpt>
  <wpt lat="59.92662" lon="9.33777"><name>14 B – Teigen (Numedalslågen)</name><desc>Skarp sving – grav på innersvingen og bak store steiner. τ = 38 Pa ≈ 1.1× terskelen: sand og grus flyttes ved flom, gull blir liggende (retensjon). Berggrunn: Intermediær vulkansk bergart (75 % gunstig oppstrøms). Regulert (Djupdalsdammen, 1976) – minstevann og gammelt elveleie tilgjengelig.</desc></wpt>
  <wpt lat="59.91881" lon="9.34172"><name>15 B – Søre Haugen (Rostadelve)</name><desc>Foss/stryk rett oppstrøms (5 m fall på 100 m) – fossekulp og fjell i dagen. Skarp sving – grav på innersvingen og bak store steiner. τ = 221 Pa ≈ 1.9× terskelen: sand og grus flyttes ved flom, gull blir liggende (retensjon). Regulert (Djupdalsdammen, 1976) – minstevann og gammelt elveleie tilgjengelig.</desc></wpt>
  <wpt lat="60.03994" lon="9.21378"><name>16 B – Bekkjordsmogen (Numedalslågen)</name><desc>Os: Hekteåe kommer inn her – grus og tyngre materiale legges i osen og bankehodet nedenfor. τ = 31 Pa ≈ 0.9× terskelen: sand og grus flyttes ved flom, gull blir liggende (retensjon). Berggrunn: Kvartsskifer (100 % gunstig oppstrøms).</desc></wpt>
  <wpt lat="59.99598" lon="9.27270"><name>17 B – Ulstad (Ulstadåe)</name><desc>Foss/stryk rett oppstrøms (13 m fall på 100 m) – fossekulp og fjell i dagen. Strømeffekten faller 37 % over strekningen – tungt materiale slipper her. τ = 295 Pa ≈ 1.8× terskelen: sand og grus flyttes ved flom, gull blir liggende (retensjon). Berggrunn: Granittisk gneis (36 % gunstig oppstrøms).</desc></wpt>
  <wpt lat="59.89326" lon="9.35642"><name>18 B – Gjuvenes (Juva)</name><desc>Skarp sving – grav på innersvingen og bak store steiner. τ = 84 Pa ≈ 1.5× terskelen: sand og grus flyttes ved flom, gull blir liggende (retensjon). Berggrunn: Kvartsskifer (51 % gunstig oppstrøms).</desc></wpt>
  <wpt lat="59.95206" lon="9.31505"><name>19 B – Båtstøhaugen (Bergseidelve)</name><desc>Foss/stryk rett oppstrøms (9 m fall på 100 m) – fossekulp og fjell i dagen. τ = 366 Pa ≈ 2.2× terskelen: sand og grus flyttes ved flom, gull blir liggende (retensjon). Berggrunn: Kvartsitt (75 % gunstig oppstrøms). Regulert (Djupdalsdammen, 1976) – minstevann og gammelt elveleie tilgjengelig.</desc></wpt>
  <wpt lat="60.00478" lon="9.26742"><name>20 B – Glitre (Søre Fetjanbekk)</name><desc>Foss/stryk rett oppstrøms (15 m fall på 100 m) – fossekulp og fjell i dagen. Skarp sving – grav på innersvingen og bak store steiner. Strømeffekten faller 37 % over strekningen – tungt materiale slipper her. τ = 339 Pa ≈ 2.0× terskelen: sand og grus flyttes ved flom, gull blir liggende (retensjon).</desc></wpt>
</gpx>