<?xml version="1.0" encoding="UTF-8"?>
<kml xmlns="http://www.opengis.net/kml/2.2"><Document>
<name>GULLØYE – Rollag</name>
<Style id="kA"><IconStyle><color>ff2b39c0</color><scale>1.1</scale></IconStyle></Style>
<Style id="kB"><IconStyle><color>ff227ee6</color><scale>1.1</scale></IconStyle></Style>
<Style id="kC"><IconStyle><color>ff0fc4f1</color><scale>1.1</scale></IconStyle></Style>
<Placemark><name>1A Vikje (Numedalslågen)</name><styleUrl>#kA</styleUrl><description>P=100. Bratt stryk like oppstrøms – kulper og fjellsprekker. Os: sideelv kommer inn her – grus og tyngre materiale legges i osen og bankehodet nedenfor. Skarp sving – grav på innersvingen og bak store steiner. τ = 124 Pa ≈ 1.5× terskelen: sand og grus flyttes ved flom, gull blir liggende (retensjon). Berggrunn: Kvartsskifer (100 % gunstig oppstrøms). Regulert (Mykstufoss dam, 1964) – minstevann og gammelt elveleie tilgjengelig. Lett: bilvei 54 m unna (service). Parkering 296 m unna.</description><Point><coordinates>9.14603,60.04781,0</coordinates></Point></Placemark>
<Placemark><name>2A Bogstrand (Numedalslågen)</name><styleUrl>#kA</styleUrl><description>P=92. Foss/stryk rett oppstrøms (9 m fall på 100 m) – fossekulp og fjell i dagen. τ = 204 Pa ≈ 1.9× terskelen: sand og grus flyttes ved flom, gull blir liggende (retensjon). Berggrunn: Kvartsskifer (100 % gunstig oppstrøms). Regulert (Kjerredammen, 1964) – minstevann og gammelt elveleie tilgjengelig. Kort gange: bilvei 221 m unna.</description><Point><coordinates>9.12083,60.06816,0</coordinates></Point></Placemark>
<Placemark><name>3A Haugen (Numedalslågen)</name><styleUrl>#kA</styleUrl><description>P=91. Os: sideelv kommer inn her – grus og tyngre materiale legges i osen og bankehodet nedenfor. τ = 67 Pa ≈ 1.1× terskelen: sand og grus flyttes ved flom, gull blir liggende (retensjon). Berggrunn: Kvartsskifer (100 % gunstig oppstrøms). Regulert (Kjerredammen, 1964) – minstevann og gammelt elveleie tilgjengelig. Lett: bilvei 129 m unna (Numedalsvegen).</description><Point><coordinates>9.13355,60.05817,0</coordinates></Point></Placemark>
<Placemark><name>4A Nordre Bjørkgarden (Numedalslågen)</name><styleUrl>#kA</styleUrl><description>P=82. Os: Nørdsteåe kommer inn her – grus og tyngre materiale legges i osen og bankehodet nedenfor. Strømeffekten faller 40 % over strekningen – tungt materiale slipper her. τ = 38 Pa ≈ 0.9× terskelen: sand og grus flyttes ved flom, gull blir liggende (retensjon). Berggrunn: Kvartsskifer (100 % gunstig oppstrøms). Regulert (Mykstufoss dam, 1964) – minstevann og gammelt elveleie tilgjengelig. Lett: bilvei 102 m unna (Østsida). Parkering 579 m unna.</description><Point><coordinates>9.16011,60.04744,0</coordinates></Point></Placemark>
<Placemark><name>5A Skogly (Numedalslågen)</name><styleUrl>#kA</styleUrl><description>P=81. Os: Nordåe kommer inn her – grus og tyngre materiale legges i osen og bankehodet nedenfor. Skarp sving – grav på innersvingen og bak store steiner. τ = 35 Pa ≈ 1.1× terskelen: sand og grus flyttes ved flom, gull blir liggende (retensjon). Berggrunn: Intermediær vulkansk bergart (89 % gunstig oppstrøms). Lett: bilvei 138 m unna (Rollagsvegen). Parkering 178 m unna.</description><Point><coordinates>9.27216,60.01942,0</coordinates></Point></Placemark>
<Placemark><name>6A Øye (Numedalslågen)</name><styleUrl>#kA</styleUrl><description>P=76. Os: Sønsteåe kommer inn her – grus og tyngre materiale legges i osen og bankehodet nedenfor. Strømeffekten faller 31 % over strekningen – tungt materiale slipper her. Berggrunn: Kvartsskifer (100 % gunstig oppstrøms). Regulert (Mykstufoss dam, 1964) – minstevann og gammelt elveleie tilgjengelig. Lett: bilvei 55 m unna (track). Parkering 900 m unna.</description><Point><coordinates>9.18177,60.04257,0</coordinates></Point></Placemark>
<Placemark><name>7A Landsverk (Stærnesbekken)</name><styleUrl>#kA</styleUrl><description>P=76. Foss/stryk rett oppstrøms (7 m fall på 100 m) – fossekulp og fjell i dagen. Os: sideelv kommer inn her – grus og tyngre materiale legges i osen og bankehodet nedenfor. Strømeffekten faller 42 % over strekningen – tungt materiale slipper her. τ = 118 Pa ≈ 1.3× terskelen: sand og grus flyttes ved flom, gull blir liggende (retensjon). Berggrunn: Granittisk gneis (38 % gunstig oppstrøms). Lett: bilvei 16 m unna (Rollagsvegen). Parkering 875 m unna.</description><Point><coordinates>9.28504,59.97858,0</coordinates></Point></Placemark>
<Placemark><name>8A Åsan (Numedalslågen)</name><styleUrl>#kA</styleUrl><description>P=76. Foss/stryk rett oppstrøms (6 m fall på 100 m) – fossekulp og fjell i dagen. τ = 144 Pa ≈ 1.8× terskelen: sand og grus flyttes ved flom, gull blir liggende (retensjon). Berggrunn: Intermediær vulkansk bergart (76 % gunstig oppstrøms). Regulert (Djupdalsdammen, 1976) – minstevann og gammelt elveleie tilgjengelig. Lett: bilvei 51 m unna (service).</description><Point><coordinates>9.33901,59.93989,0</coordinates></Point></Placemark>
<Placemark><name>9A Nordre Kongsjorden (Tondra)</name><styleUrl>#kA</styleUrl><description>P=72. Foss/stryk rett oppstrøms (4 m fall på 100 m) – fossekulp og fjell i dagen. Skarp sving – grav på innersvingen og bak store steiner. τ = 166 Pa ≈ 1.8× terskelen: sand og grus flyttes ved flom, gull blir liggende (retensjon). Berggrunn: Kvartsskifer (80 % gunstig oppstrøms). Regulert (Mykstufoss dam, 1964) – minstevann og gammelt elveleie tilgjengelig. Kort gange: bilvei 285 m unna.</description><Point><coordinates>9.19464,60.04301,0</coordinates></Point></Placemark>
<Placemark><name>10B Bakkebråtån (Numedalslågen)</name><styleUrl>#kB</styleUrl><description>P=70. Os: Liarbekken kommer inn her – grus og tyngre materiale legges i osen og bankehodet nedenfor. τ = 54 Pa ≈ 1.1× terskelen: sand og grus flyttes ved flom, gull blir liggende (retensjon). Berggrunn: Intermediær vulkansk bergart (76 % gunstig oppstrøms). Regulert (Djupdalsdammen, 1976) – minstevann og gammelt elveleie tilgjengelig. Kort gange: bilvei 183 m unna.</description><Point><coordinates>9.33198,59.93248,0</coordinates></Point></Placemark>
<Placemark><name>11B Vårvikhaugen (Numedalslågen)</name><styleUrl>#kB</styleUrl><description>P=69. Os: sideelv kommer inn her – grus og tyngre materiale legges i osen og bankehodet nedenfor. τ = 17 Pa ≈ 1.0× terskelen: sand og grus flyttes ved flom, gull blir liggende (retensjon). Berggrunn: Intermediær vulkansk bergart (91 % gunstig oppstrøms). Lett: bilvei 95 m unna (Rollagsvegen). Parkering 980 m unna.</description><Point><coordinates>9.25743,60.01657,0</coordinates></Point></Placemark>
<Placemark><name>12B Teigen (Numedalslågen)</name><styleUrl>#kB</styleUrl><description>P=68. Skarp sving – grav på innersvingen og bak store steiner. τ = 38 Pa ≈ 1.1× terskelen: sand og grus flyttes ved flom, gull blir liggende (retensjon). Berggrunn: Intermediær vulkansk bergart (75 % gunstig oppstrøms). Regulert (Djupdalsdammen, 1976) – minstevann og gammelt elveleie tilgjengelig. Lett: bilvei 76 m unna (Numedalsvegen).</description><Point><coordinates>9.33777,59.92662,0</coordinates></Point></Placemark>
<Placemark><name>13B Bekkjordsmogen (Numedalslågen)</name><styleUrl>#kB</styleUrl><description>P=65. Os: Hekteåe kommer inn her – grus og tyngre materiale legges i osen og bankehodet nedenfor. τ = 31 Pa ≈ 0.9× terskelen: sand og grus flyttes ved flom, gull blir liggende (retensjon). Berggrunn: Kvartsskifer (100 % gunstig oppstrøms). Lett: bilvei 123 m unna (Østsida).</description><Point><coordinates>9.21378,60.03994,0</coordinates></Point></Placemark>
<Placemark><name>14B Tinnes (bekk)</name><styleUrl>#kB</styleUrl><description>P=62. Foss/stryk rett oppstrøms (6 m fall på 100 m) – fossekulp og fjell i dagen. τ = 150 Pa ≈ 1.6× terskelen: sand og grus flyttes ved flom, gull blir liggende (retensjon). Lett: bilvei 103 m unna (Numedalsvegen).</description><Point><coordinates>9.29895,59.96857,0</coordinates></Point></Placemark>
<Placemark><name>15B Ulstad (Ulstadåe)</name><styleUrl>#kB</styleUrl><description>P=60. Foss/stryk rett oppstrøms (13 m fall på 100 m) – fossekulp og fjell i dagen. τ = 295 Pa ≈ 1.8× terskelen: sand og grus flyttes ved flom, gull blir liggende (retensjon). Berggrunn: Granittisk gneis (36 % gunstig oppstrøms). Lett: bilvei 145 m unna (service).</description><Point><coordinates>9.27270,59.99598,0</coordinates></Point></Placemark>
<Placemark><name>16B Glitre (Søre Fetjanbekk)</name><styleUrl>#kB</styleUrl><description>P=59. Foss/stryk rett oppstrøms (15 m fall på 100 m) – fossekulp og fjell i dagen. Skarp sving – grav på innersvingen og bak store steiner. Strømeffekten faller 37 % over strekningen – tungt materiale slipper her. τ = 339 Pa ≈ 2.0× terskelen: sand og grus flyttes ved flom, gull blir liggende (retensjon). Lett: bilvei 107 m unna (Numedalsvegen).</description><Point><coordinates>9.26742,60.00478,0</coordinates></Point></Placemark>
<Placemark><name>17B Skørre (Numedalslågen)</name><styleUrl>#kB</styleUrl><description>P=58. τ = 32 Pa ≈ 1.4× terskelen: sand og grus flyttes ved flom, gull blir liggende (retensjon). Berggrunn: Intermediær vulkansk bergart (94 % gunstig oppstrøms). Lett: bilvei 39 m unna (Numedalsvegen). Parkering 1156 m unna.</description><Point><coordinates>9.24265,60.02123,0</coordinates></Point></Placemark>
<Placemark><name>18B Søre Haugen (Rostadelve)</name><styleUrl>#kB</styleUrl><description>P=58. Foss/stryk rett oppstrøms (5 m fall på 100 m) – fossekulp og fjell i dagen. Skarp sving – grav på innersvingen og bak store steiner. τ = 243 Pa ≈ 2.0× terskelen: sand og grus flyttes ved flom, gull blir liggende (retensjon). Regulert (Djupdalsdammen, 1976) – minstevann og gammelt elveleie tilgjengelig. Kort gange: bilvei 169 m unna.</description><Point><coordinates>9.34172,59.91881,0</coordinates></Point></Placemark>
<Placemark><name>19B Rebberud (Numedalslågen)</name><styleUrl>#kB</styleUrl><description>P=56. Os: Steinkloppbekken kommer inn her – grus og tyngre materiale legges i osen og bankehodet nedenfor. τ = 20 Pa ≈ 0.8× terskelen: sand og grus flyttes ved flom, gull blir liggende (retensjon). Berggrunn: Intermediær vulkansk bergart (74 % gunstig oppstrøms). Kort gange: bilvei 270 m unna.</description><Point><coordinates>9.35305,59.91255,0</coordinates></Point></Placemark>
<Placemark><name>20B Gjuvenes (Juva)</name><styleUrl>#kB</styleUrl><description>P=55. Skarp sving – grav på innersvingen og bak store steiner. τ = 45 Pa ≈ 1.2× terskelen: sand og grus flyttes ved flom, gull blir liggende (retensjon). Berggrunn: Kvartsskifer (51 % gunstig oppstrøms). Kort gange: bilvei 240 m unna.</description><Point><coordinates>9.36013,59.89353,0</coordinates></Point></Placemark>
</Document></kml>