{
"type": "FeatureCollection",
"features": [
{
"type": "Feature",
"geometry": {
"type": "Point",
"coordinates": [
10.56113,
64.28836
]
},
"properties": {
"elv": "Steinsdalselva",
"km": 6.5,
"z": 19.51,
"S": 0.03,
"Q": 41.95,
"w": 44.98,
"w_q": 19.43,
"h": 0.44,
"tau": 122.19,
"tau_c": 122.94,
"omega": 260.65,
"M": 0.99,
"D": -0.0,
"R": 0.79,
"sving": 0.27,
"os": 0.39,
"os_navn": "Skauvåsbekken",
"foss": 1.0,
"foss_drop": 15.16,
"juv": 0.0,
"B": 0.95,
"frac_fav": 0.84,
"d_gull_km": 105.23,
"berg": "Granittisk gneis | Migmatittgneis, uinndelt. Granittisk til granodiorittisk sammensetning | Nær stedeget grunnfjell",
"p_raw": 0.42,
"A_km2": 233.04,
"gate": 1.0,
"P": 100.0,
"rank": 1,
"klasse": "A",
"d_vei_m": 49,
"vei_navn": "Steinsdalsveien",
"d_sti_m": 1286,
"d_parkering_m": 290,
"adkomst": "Lett: bilvei 49 m unna (Steinsdalsveien). Parkering 290 m unna.",
"navn": "Nordmelansfossen (Steinsdalselva)",
"hvorfor": "Foss/stryk rett oppstrøms (15 m fall på 100 m) – fossekulp og fjell i dagen. τ = 122 Pa ≈ 1.0× terskelen: sand og grus flyttes ved flom, gull blir liggende (retensjon). Berggrunn: Granittisk gneis (84 % gunstig oppstrøms).",
"s2_anomali": 4.0,
"s2_feox_z": 6.66,
"satsjekk": "Automatisk bildeanalyse: ingen tydelige trekk."
}
},
{
"type": "Feature",
"geometry": {
"type": "Point",
"coordinates": [
10.65456,
64.27945
]
},
"properties": {
"elv": "Skippelva",
"km": 7.8,
"z": 111.0,
"S": 0.01,
"Q": 7.74,
"w": 24.87,
"w_q": 8.35,
"h": 0.38,
"tau": 19.07,
"tau_c": 52.04,
"omega": 15.59,
"M": 0.37,
"D": 0.5,
"R": 0.06,
"sving": 0.78,
"os": 0.85,
"os_navn": "Granlibekken",
"foss": 0.41,
"foss_drop": 0.0,
"juv": 0.0,
"B": 0.82,
"frac_fav": 0.91,
"d_gull_km": 101.05,
"berg": "Granittisk gneis | Migmatittgneis, uinndelt. Granittisk til granodiorittisk sammensetning | Nær stedeget grunnfjell",
"p_raw": 0.35,
"A_km2": 43.02,
"gate": 1.0,
"P": 82.24,
"rank": 2,
"klasse": "A",
"d_vei_m": 46,
"vei_navn": "Steinsseterveien",
"d_sti_m": 5612,
"d_parkering_m": 4881,
"adkomst": "Lett: bilvei 46 m unna (Steinsseterveien).",
"navn": "Smørdalsfossen (Skippelva)",
"hvorfor": "Bratt stryk like oppstrøms – kulper og fjellsprekker. Os: Granlibekken kommer inn her – grus og tyngre materiale legges i osen og bankehodet nedenfor. Skarp sving – grav på innersvingen og bak store steiner. Strømeffekten faller 50 % over strekningen – tungt materiale slipper her. Berggrunn: Granittisk gneis (91 % gunstig oppstrøms).",
"s2_anomali": 3.13,
"s2_feox_z": 3.13,
"satsjekk": "Automatisk bildeanalyse: dypt/mørkt vann."
}
},
{
"type": "Feature",
"geometry": {
"type": "Point",
"coordinates": [
10.62592,
64.25815
]
},
"properties": {
"elv": "Steinsdalselva",
"km": 0.7,
"z": 27.89,
"S": 0.02,
"Q": 29.52,
"w": 48.99,
"w_q": 16.3,
"h": 0.37,
"tau": 75.81,
"tau_c": 105.55,
"omega": 124.13,
"M": 0.72,
"D": 0.1,
"R": 0.47,
"sving": 0.4,
"os": 0.61,
"os_navn": "Skolengsbekken",
"foss": 0.54,
"foss_drop": 8.55,
"juv": 0.0,
"B": 0.92,
"frac_fav": 0.84,
"d_gull_km": 102.97,
"berg": "Granittisk gneis | Migmatittgneis, uinndelt. Granittisk til granodiorittisk sammensetning | Nær stedeget grunnfjell",
"p_raw": 0.34,
"A_km2": 163.99,
"gate": 1.0,
"P": 80.47,
"rank": 3,
"klasse": "A",
"d_vei_m": 129,
"vei_navn": "Granskogveien",
"d_sti_m": 5178,
"d_parkering_m": 4895,
"adkomst": "Lett: bilvei 129 m unna (Granskogveien).",
"navn": "Skolengsholmen (Steinsdalselva)",
"hvorfor": "Foss/stryk rett oppstrøms (9 m fall på 100 m) – fossekulp og fjell i dagen. Os: Skolengsbekken kommer inn her – grus og tyngre materiale legges i osen og bankehodet nedenfor. Berggrunn: Granittisk gneis (84 % gunstig oppstrøms).",
"s2_anomali": 4.0,
"s2_feox_z": 343.16,
"satsjekk": "Automatisk bildeanalyse: ingen tydelige trekk."
}
},
{
"type": "Feature",
"geometry": {
"type": "Point",
"coordinates": [
10.67999,
64.2845
]
},
"properties": {
"elv": "Skippelva",
"km": 6.1,
"z": 191.61,
"S": 0.01,
"Q": 6.56,
"w": 23.09,
"w_q": 7.68,
"h": 0.32,
"tau": 24.54,
"tau_c": 64.89,
"omega": 22.1,
"M": 0.38,
"D": 0.0,
"R": 0.07,
"sving": 0.92,
"os": 0.59,
"os_navn": "sideelv",
"foss": 1.0,
"foss_drop": 3.54,
"juv": 0.0,
"B": 0.81,
"frac_fav": 0.91,
"d_gull_km": 99.72,
"berg": "Granittisk gneis | Migmatittgneis, uinndelt. Granittisk til granodiorittisk sammensetning | Nær stedeget grunnfjell",
"p_raw": 0.32,
"A_km2": 36.42,
"gate": 1.0,
"P": 75.34,
"rank": 4,
"klasse": "A",
"d_vei_m": 80,
"vei_navn": "Steinsseterveien",
"d_sti_m": 6000,
"d_parkering_m": 5997,
"adkomst": "Lett: bilvei 80 m unna (Steinsseterveien).",
"navn": "Stakkslættet (Skippelva)",
"hvorfor": "Foss/stryk rett oppstrøms (4 m fall på 100 m) – fossekulp og fjell i dagen. Os: sideelv kommer inn her – grus og tyngre materiale legges i osen og bankehodet nedenfor. Skarp sving – grav på innersvingen og bak store steiner. Berggrunn: Granittisk gneis (91 % gunstig oppstrøms).",
"s2_anomali": null,
"s2_feox_z": null,
"satsjekk": "Automatisk bildeanalyse: dypt/mørkt vann."
}
},
{
"type": "Feature",
"geometry": {
"type": "Point",
"coordinates": [
10.82112,
64.36179
]
},
"properties": {
"elv": "Storelva",
"km": 12.1,
"z": 21.67,
"S": 0.04,
"Q": 14.24,
"w": 31.17,
"w_q": 11.32,
"h": 0.26,
"tau": 100.64,
"tau_c": 145.47,
"omega": 178.69,
"M": 0.69,
"D": -0.0,
"R": 0.44,
"sving": 0.44,
"os": 0.56,
"os_navn": "Trollengelva",
"foss": 1.0,
"foss_drop": 15.76,
"juv": 0.0,
"B": 0.7,
"frac_fav": 0.57,
"d_gull_km": 91.33,
"berg": "Granittisk gneis | Migmatittgneis, uinndelt. Granittisk til granodiorittisk sammensetning | Nær stedeget grunnfjell",
"p_raw": 0.29,
"A_km2": 79.08,
"gate": 1.0,
"P": 67.56,
"rank": 5,
"klasse": "B",
"d_vei_m": 19,
"vei_navn": "Bøleveien",
"d_sti_m": 6824,
"d_parkering_m": 14192,
"adkomst": "Lett: bilvei 19 m unna (Bøleveien).",
"navn": "Jøssundfossen (Storelva)",
"hvorfor": "Foss/stryk rett oppstrøms (16 m fall på 100 m) – fossekulp og fjell i dagen. Os: Trollengelva kommer inn her – grus og tyngre materiale legges i osen og bankehodet nedenfor. Berggrunn: Granittisk gneis (57 % gunstig oppstrøms).",
"s2_anomali": null,
"s2_feox_z": null,
"satsjekk": "Automatisk bildeanalyse: dypt/mørkt vann."
}
},
{
"type": "Feature",
"geometry": {
"type": "Point",
"coordinates": [
10.63221,
64.27722
]
},
"properties": {
"elv": "bekk",
"km": 0.7,
"z": 94.0,
"S": 0.14,
"Q": 8.01,
"w": 17.77,
"w_q": 8.49,
"h": 0.17,
"tau": 242.96,
"tau_c": 274.32,
"omega": 627.05,
"M": 0.89,
"D": 0.0,
"R": 0.68,
"sving": 0.12,
"os": 0.55,
"os_navn": "Tverbekken",
"foss": 0.72,
"foss_drop": 37.5,
"juv": 0.0,
"B": 0.73,
"frac_fav": 0.71,
"d_gull_km": 102.16,
"berg": "Amfibolitt | Amfibolitt og glimmerskifer i veksling | Midtre kaledonsk dekkeserie",
"p_raw": 0.28,
"A_km2": 44.5,
"gate": 1.0,
"P": 65.14,
"rank": 6,
"klasse": "B",
"d_vei_m": 156,
"vei_navn": "Steinsseterveien",
"d_sti_m": 4680,
"d_parkering_m": 3925,
"adkomst": "Kort gange: bilvei 156 m unna.",
"navn": "Tausdalsfossen (bekk)",
"hvorfor": "Foss/stryk rett oppstrøms (37 m fall på 100 m) – fossekulp og fjell i dagen. Os: Tverbekken kommer inn her – grus og tyngre materiale legges i osen og bankehodet nedenfor. τ = 243 Pa ≈ 0.9× terskelen: sand og grus flyttes ved flom, gull blir liggende (retensjon). Berggrunn: Amfibolitt (71 % gunstig oppstrøms).",
"s2_anomali": 4.0,
"s2_feox_z": 5.34,
"satsjekk": "Automatisk bildeanalyse: tett vegetasjon – elva delvis skjult."
}
},
{
"type": "Feature",
"geometry": {
"type": "Point",
"coordinates": [
10.61559,
64.27477
]
},
"properties": {
"elv": "Skippelva",
"km": 9.9,
"z": 53.94,
"S": 0.08,
"Q": 8.24,
"w": 24.7,
"w_q": 8.61,
"h": 0.17,
"tau": 136.38,
"tau_c": 206.91,
"omega": 264.1,
"M": 0.66,
"D": 0.05,
"R": 0.39,
"sving": 0.46,
"os": 0.0,
"os_navn": "",
"foss": 1.0,
"foss_drop": 18.52,
"juv": 0.0,
"B": 0.83,
"frac_fav": 0.91,
"d_gull_km": 103.0,
"berg": "Granittisk gneis | Migmatittgneis, uinndelt. Granittisk til granodiorittisk sammensetning | Nær stedeget grunnfjell",
"p_raw": 0.27,
"A_km2": 45.77,
"gate": 1.0,
"P": 64.42,
"rank": 7,
"klasse": "B",
"d_vei_m": 61,
"vei_navn": "Steinsseterveien",
"d_sti_m": 3947,
"d_parkering_m": 3324,
"adkomst": "Lett: bilvei 61 m unna (Steinsseterveien).",
"navn": "Kvernafossen (Skippelva)",
"hvorfor": "Foss/stryk rett oppstrøms (19 m fall på 100 m) – fossekulp og fjell i dagen. Berggrunn: Granittisk gneis (91 % gunstig oppstrøms).",
"s2_anomali": 2.39,
"s2_feox_z": 2.39,
"satsjekk": "Automatisk bildeanalyse: dypt/mørkt vann."
}
},
{
"type": "Feature",
"geometry": {
"type": "Point",
"coordinates": [
10.84414,
64.36754
]
},
"properties": {
"elv": "Gaupdalsbekken",
"km": 1.2,
"z": 11.75,
"S": 0.15,
"Q": 4.3,
"w": 13.6,
"w_q": 6.22,
"h": 0.14,
"tau": 201.5,
"tau_c": 279.34,
"omega": 456.02,
"M": 0.72,
"D": 0.0,
"R": 0.47,
"sving": 0.33,
"os": 0.38,
"os_navn": "Austerelva",
"foss": 1.0,
"foss_drop": 19.23,
"juv": 0.0,
"B": 0.71,
"frac_fav": 0.79,
"d_gull_km": 90.13,
"berg": "Amfibolitt | Amfibolitt og glimmerskifer i veksling | Midtre kaledonsk dekkeserie",
"p_raw": 0.27,
"A_km2": 23.88,
"gate": 1.0,
"P": 63.24,
"rank": 8,
"klasse": "B",
"d_vei_m": 73,
"vei_navn": "Jøssundveien",
"d_sti_m": 5565,
"d_parkering_m": 14806,
"adkomst": "Lett: bilvei 73 m unna (Jøssundveien).",
"navn": "Einan (Gaupdalsbekken)",
"hvorfor": "Foss/stryk rett oppstrøms (19 m fall på 100 m) – fossekulp og fjell i dagen. Berggrunn: Amfibolitt (79 % gunstig oppstrøms).",
"s2_anomali": null,
"s2_feox_z": null,
"satsjekk": "Automatisk bildeanalyse: dypt/mørkt vann."
}
},
{
"type": "Feature",
"geometry": {
"type": "Point",
"coordinates": [
10.53522,
64.28925
]
},
"properties": {
"elv": "Steinsdalselva",
"km": 7.9,
"z": 1.06,
"S": 0.0,
"Q": 44.52,
"w": 60.01,
"w_q": 20.02,
"h": 1.36,
"tau": 5.65,
"tau_c": 14.98,
"omega": 3.08,
"M": 0.38,
"D": 0.37,
"R": 0.07,
"sving": 0.31,
"os": 0.79,
"os_navn": "Bjørndalsbekken",
"foss": 0.0,
"foss_drop": 0.0,
"juv": 0.0,
"B": 0.95,
"frac_fav": 0.84,
"d_gull_km": 106.43,
"berg": "Granittisk gneis | Migmatittgneis, uinndelt. Granittisk til granodiorittisk sammensetning | Nær stedeget grunnfjell",
"p_raw": 0.24,
"A_km2": 247.36,
"gate": 1.0,
"P": 57.7,
"rank": 9,
"klasse": "B",
"d_vei_m": 171,
"vei_navn": "Kjerkbakkan",
"d_sti_m": 302,
"d_parkering_m": 1054,
"adkomst": "Kort gange: bilvei 171 m unna. Parkering 1054 m unna.",
"navn": "Aftensøya (Steinsdalselva)",
"hvorfor": "Os: Bjørndalsbekken kommer inn her – grus og tyngre materiale legges i osen og bankehodet nedenfor. Strømeffekten faller 37 % over strekningen – tungt materiale slipper her. Berggrunn: Granittisk gneis (84 % gunstig oppstrøms).",
"s2_anomali": 4.0,
"s2_feox_z": 6.96,
"satsjekk": "Automatisk bildeanalyse: grus/sandbanke synlig, dypt/mørkt vann."
}
},
{
"type": "Feature",
"geometry": {
"type": "Point",
"coordinates": [
10.63034,
64.32889
]
},
"properties": {
"elv": "Sveselva",
"km": 2.4,
"z": 104.53,
"S": 0.04,
"Q": 2.19,
"w": 12.13,
"w_q": 4.44,
"h": 0.15,
"tau": 57.69,
"tau_c": 145.05,
"omega": 70.37,
"M": 0.4,
"D": -0.0,
"R": 0.09,
"sving": 0.67,
"os": 0.85,
"os_navn": "sideelv",
"foss": 1.0,
"foss_drop": 3.58,
"juv": 0.0,
"B": 0.6,
"frac_fav": 0.68,
"d_gull_km": 101.04,
"berg": "Granittisk gneis | Migmatittgneis, uinndelt. Granittisk til granodiorittisk sammensetning | Nær stedeget grunnfjell",
"p_raw": 0.24,
"A_km2": 12.19,
"gate": 1.0,
"P": 56.68,
"rank": 10,
"klasse": "B",
"d_vei_m": 2061,
"vei_navn": "track",
"d_sti_m": 2211,
"d_parkering_m": 5591,
"adkomst": "Avsides: 2.1 km fra bilvei – planlegg dagstur.",
"navn": "Sveselva, km 2.4",
"hvorfor": "Foss/stryk rett oppstrøms (4 m fall på 100 m) – fossekulp og fjell i dagen. Os: sideelv kommer inn her – grus og tyngre materiale legges i osen og bankehodet nedenfor. Skarp sving – grav på innersvingen og bak store steiner. Berggrunn: Granittisk gneis (68 % gunstig oppstrøms).",
"s2_anomali": null,
"s2_feox_z": null,
"satsjekk": "Automatisk bildeanalyse: dypt/mørkt vann, tett vegetasjon – elva delvis skjult."
}
},
{
"type": "Feature",
"geometry": {
"type": "Point",
"coordinates": [
10.88457,
64.37523
]
},
"properties": {
"elv": "Austerelva",
"km": 2.0,
"z": 91.23,
"S": 0.11,
"Q": 1.65,
"w": 11.17,
"w_q": 3.85,
"h": 0.1,
"tau": 104.52,
"tau_c": 242.71,
"omega": 160.39,
"M": 0.43,
"D": 0.02,
"R": 0.11,
"sving": 0.09,
"os": 0.94,
"os_navn": "Tuvbekken",
"foss": 1.0,
"foss_drop": 17.54,
"juv": 0.0,
"B": 0.71,
"frac_fav": 1.0,
"d_gull_km": 88.08,
"berg": "Amfibolitt | Amfibolitt og glimmerskifer i veksling | Midtre kaledonsk dekkeserie",
"p_raw": 0.24,
"A_km2": 9.14,
"gate": 1.0,
"P": 56.52,
"rank": 11,
"klasse": "B",
"d_vei_m": 70,
"vei_navn": "Jøssundveien",
"d_sti_m": 3446,
"d_parkering_m": 16180,
"adkomst": "Lett: bilvei 70 m unna (Jøssundveien).",
"navn": "Gammelsetertjønnin (Austerelva)",
"hvorfor": "Foss/stryk rett oppstrøms (18 m fall på 100 m) – fossekulp og fjell i dagen. Os: Tuvbekken kommer inn her – grus og tyngre materiale legges i osen og bankehodet nedenfor. Berggrunn: Amfibolitt (100 % gunstig oppstrøms).",
"s2_anomali": null,
"s2_feox_z": null,
"satsjekk": "Automatisk bildeanalyse: dypt/mørkt vann, tett vegetasjon – elva delvis skjult."
}
},
{
"type": "Feature",
"geometry": {
"type": "Point",
"coordinates": [
10.58627,
64.26881
]
},
"properties": {
"elv": "Steinsdalselva",
"km": 3.8,
"z": 22.17,
"S": 0.0,
"Q": 39.06,
"w": 56.25,
"w_q": 18.75,
"h": 0.97,
"tau": 10.75,
"tau_c": 24.48,
"omega": 7.69,
"M": 0.44,
"D": 0.0,
"R": 0.12,
"sving": 0.63,
"os": 0.82,
"os_navn": "Rosselva",
"foss": 0.0,
"foss_drop": 0.0,
"juv": 0.0,
"B": 0.94,
"frac_fav": 0.84,
"d_gull_km": 104.54,
"berg": "Granittisk gneis | Migmatittgneis, uinndelt. Granittisk til granodiorittisk sammensetning | Nær stedeget grunnfjell",
"p_raw": 0.24,
"A_km2": 217.0,
"gate": 1.0,
"P": 55.58,
"rank": 12,
"klasse": "B",
"d_vei_m": 76,
"vei_navn": "Steinsveien",
"d_sti_m": 2919,
"d_parkering_m": 2777,
"adkomst": "Lett: bilvei 76 m unna (Steinsveien).",
"navn": "Melhus (Steinsdalselva)",
"hvorfor": "Os: Rosselva kommer inn her – grus og tyngre materiale legges i osen og bankehodet nedenfor. Skarp sving – grav på innersvingen og bak store steiner. Berggrunn: Granittisk gneis (84 % gunstig oppstrøms).",
"s2_anomali": 4.0,
"s2_feox_z": 10.11,
"satsjekk": "Automatisk bildeanalyse: tett vegetasjon – elva delvis skjult."
}
},
{
"type": "Feature",
"geometry": {
"type": "Point",
"coordinates": [
10.8014,
64.36065
]
},
"properties": {
"elv": "Skjellåa",
"km": 5.2,
"z": 31.88,
"S": 0.03,
"Q": 3.58,
"w": 17.03,
"w_q": 5.67,
"h": 0.17,
"tau": 56.61,
"tau_c": 134.4,
"omega": 70.16,
"M": 0.42,
"D": 0.13,
"R": 0.11,
"sving": 0.78,
"os": 0.0,
"os_navn": "",
"foss": 1.0,
"foss_drop": 11.67,
"juv": 0.0,
"B": 0.73,
"frac_fav": 0.87,
"d_gull_km": 92.29,
"berg": "Granittisk gneis | Migmatittgneis, uinndelt. Granittisk til granodiorittisk sammensetning | Nær stedeget grunnfjell",
"p_raw": 0.23,
"A_km2": 19.87,
"gate": 1.0,
"P": 55.32,
"rank": 13,
"klasse": "B",
"d_vei_m": 20,
"vei_navn": "Bøleveien",
"d_sti_m": 7766,
"d_parkering_m": 13484,
"adkomst": "Lett: bilvei 20 m unna (Bøleveien).",
"navn": "Bakkenget (Skjellåa)",
"hvorfor": "Foss/stryk rett oppstrøms (12 m fall på 100 m) – fossekulp og fjell i dagen. Skarp sving – grav på innersvingen og bak store steiner. Berggrunn: Granittisk gneis (87 % gunstig oppstrøms).",
"s2_anomali": null,
"s2_feox_z": null,
"satsjekk": "Automatisk bildeanalyse: dypt/mørkt vann, tett vegetasjon – elva delvis skjult."
}
},
{
"type": "Feature",
"geometry": {
"type": "Point",
"coordinates": [
10.84956,
64.34987
]
},
"properties": {
"elv": "Storelva",
"km": 9.6,
"z": 45.55,
"S": 0.01,
"Q": 12.83,
"w": 31.77,
"w_q": 10.75,
"h": 0.35,
"tau": 38.47,
"tau_c": 77.03,
"omega": 44.31,
"M": 0.5,
"D": 0.03,
"R": 0.19,
"sving": 0.92,
"os": 0.91,
"os_navn": "sideelv",
"foss": 0.0,
"foss_drop": 0.0,
"juv": 0.0,
"B": 0.69,
"frac_fav": 0.56,
"d_gull_km": 90.2,
"berg": "Granittisk gneis | Migmatittgneis, uinndelt. Granittisk til granodiorittisk sammensetning | Nær stedeget grunnfjell",
"p_raw": 0.23,
"A_km2": 71.29,
"gate": 1.0,
"P": 53.5,
"rank": 14,
"klasse": "B",
"d_vei_m": 47,
"vei_navn": "Opplandsveien",
"d_sti_m": 6216,
"d_parkering_m": 15645,
"adkomst": "Lett: bilvei 47 m unna (Opplandsveien).",
"navn": "Aunan (Storelva)",
"hvorfor": "Os: sideelv kommer inn her – grus og tyngre materiale legges i osen og bankehodet nedenfor. Skarp sving – grav på innersvingen og bak store steiner. Berggrunn: Granittisk gneis (56 % gunstig oppstrøms).",
"s2_anomali": null,
"s2_feox_z": null,
"satsjekk": "Automatisk bildeanalyse: ingen tydelige trekk."
}
},
{
"type": "Feature",
"geometry": {
"type": "Point",
"coordinates": [
10.87077,
64.37196
]
},
"properties": {
"elv": "Austerelva",
"km": 2.8,
"z": 45.94,
"S": 0.02,
"Q": 3.68,
"w": 15.47,
"w_q": 5.76,
"h": 0.22,
"tau": 38.01,
"tau_c": 95.59,
"omega": 40.22,
"M": 0.4,
"D": 0.26,
"R": 0.09,
"sving": 0.19,
"os": 0.81,
"os_navn": "Lomtjønnbekken",
"foss": 0.37,
"foss_drop": 7.84,
"juv": 0.0,
"B": 0.79,
"frac_fav": 1.0,
"d_gull_km": 88.79,
"berg": "Amfibolitt | Amfibolitt og glimmerskifer i veksling | Midtre kaledonsk dekkeserie",
"p_raw": 0.22,
"A_km2": 20.46,
"gate": 1.0,
"P": 52.12,
"rank": 15,
"klasse": "B",
"d_vei_m": 20,
"vei_navn": "Jøssundveien",
"d_sti_m": 4190,
"d_parkering_m": 15723,
"adkomst": "Lett: bilvei 20 m unna (Jøssundveien).",
"navn": "Austerelva, km 2.8",
"hvorfor": "Foss/stryk rett oppstrøms (8 m fall på 100 m) – fossekulp og fjell i dagen. Os: Lomtjønnbekken kommer inn her – grus og tyngre materiale legges i osen og bankehodet nedenfor. Berggrunn: Amfibolitt (100 % gunstig oppstrøms).",
"s2_anomali": null,
"s2_feox_z": null,
"satsjekk": "Automatisk bildeanalyse: dypt/mørkt vann, tett vegetasjon – elva delvis skjult."
}
},
{
"type": "Feature",
"geometry": {
"type": "Point",
"coordinates": [
10.70994,
64.28472
]
},
"properties": {
"elv": "Skippelva",
"km": 4.2,
"z": 198.96,
"S": 0.01,
"Q": 3.52,
"w": 16.89,
"w_q": 5.63,
"h": 0.27,
"tau": 19.37,
"tau_c": 62.46,
"omega": 15.04,
"M": 0.31,
"D": 0.25,
"R": 0.03,
"sving": 0.54,
"os": 0.89,
"os_navn": "Annelibekken",
"foss": 0.0,
"foss_drop": 0.0,
"juv": 0.0,
"B": 0.75,
"frac_fav": 0.91,
"d_gull_km": 98.3,
"berg": "Granittisk gneis | Migmatittgneis, uinndelt. Granittisk til granodiorittisk sammensetning | Nær stedeget grunnfjell",
"p_raw": 0.2,
"A_km2": 19.57,
"gate": 1.0,
"P": 48.01,
"rank": 16,
"klasse": "B",
"d_vei_m": 129,
"vei_navn": "Steinsseterveien",
"d_sti_m": 7123,
"d_parkering_m": 7439,
"adkomst": "Lett: bilvei 129 m unna (Steinsseterveien).",
"navn": "Nesa (Skippelva)",
"hvorfor": "Os: Annelibekken kommer inn her – grus og tyngre materiale legges i osen og bankehodet nedenfor. Skarp sving – grav på innersvingen og bak store steiner. Berggrunn: Granittisk gneis (91 % gunstig oppstrøms).",
"s2_anomali": null,
"s2_feox_z": null,
"satsjekk": "Automatisk bildeanalyse: dypt/mørkt vann, tett vegetasjon – elva delvis skjult."
}
},
{
"type": "Feature",
"geometry": {
"type": "Point",
"coordinates": [
10.93924,
64.31788
]
},
"properties": {
"elv": "Storelva",
"km": 2.3,
"z": 145.72,
"S": 0.03,
"Q": 5.7,
"w": 21.85,
"w_q": 7.16,
"h": 0.2,
"tau": 57.01,
"tau_c": 123.13,
"omega": 73.17,
"M": 0.46,
"D": 0.05,
"R": 0.15,
"sving": 0.04,
"os": 1.0,
"os_navn": "Langsteinholbekken",
"foss": 0.72,
"foss_drop": 8.17,
"juv": 0.0,
"B": 0.61,
"frac_fav": 0.53,
"d_gull_km": 86.65,
"berg": "Granittisk gneis | Migmatittgneis, uinndelt. Granittisk til granodiorittisk sammensetning | Nær stedeget grunnfjell",
"p_raw": 0.19,
"A_km2": 31.69,
"gate": 1.0,
"P": 44.71,
"rank": 17,
"klasse": "C",
"d_vei_m": 1052,
"vei_navn": "service",
"d_sti_m": 7127,
"d_parkering_m": 18764,
"adkomst": "Gange 1.1 km fra nærmeste bilvei.",
"navn": "Sørseteren (Storelva)",
"hvorfor": "Foss/stryk rett oppstrøms (8 m fall på 100 m) – fossekulp og fjell i dagen. Os: Langsteinholbekken kommer inn her – grus og tyngre materiale legges i osen og bankehodet nedenfor. Berggrunn: Granittisk gneis (53 % gunstig oppstrøms).",
"s2_anomali": null,
"s2_feox_z": null,
"satsjekk": "Automatisk bildeanalyse: tett vegetasjon – elva delvis skjult."
}
},
{
"type": "Feature",
"geometry": {
"type": "Point",
"coordinates": [
10.61411,
64.26353
]
},
"properties": {
"elv": "Steinsdalselva",
"km": 1.6,
"z": 25.01,
"S": 0.0,
"Q": 29.86,
"w": 49.18,
"w_q": 16.39,
"h": 0.81,
"tau": 12.56,
"tau_c": 28.99,
"omega": 9.44,
"M": 0.43,
"D": 0.1,
"R": 0.12,
"sving": 0.12,
"os": 0.91,
"os_navn": "sideelv",
"foss": 0.0,
"foss_drop": 0.0,
"juv": 0.0,
"B": 0.92,
"frac_fav": 0.84,
"d_gull_km": 103.38,
"berg": "Granittisk gneis | Migmatittgneis, uinndelt. Granittisk til granodiorittisk sammensetning | Nær stedeget grunnfjell",
"p_raw": 0.19,
"A_km2": 165.88,
"gate": 1.0,
"P": 44.08,
"rank": 18,
"klasse": "C",
"d_vei_m": 36,
"vei_navn": "Granskogveien",
"d_sti_m": 4372,
"d_parkering_m": 4065,
"adkomst": "Lett: bilvei 36 m unna (Granskogveien).",
"navn": "Teberøya (Steinsdalselva)",
"hvorfor": "Os: sideelv kommer inn her – grus og tyngre materiale legges i osen og bankehodet nedenfor. Berggrunn: Granittisk gneis (84 % gunstig oppstrøms).",
"s2_anomali": 4.0,
"s2_feox_z": 9.19,
"satsjekk": "Automatisk bildeanalyse: tett vegetasjon – elva delvis skjult."
}
},
{
"type": "Feature",
"geometry": {
"type": "Point",
"coordinates": [
10.73767,
64.29508
]
},
"properties": {
"elv": "Skippelva",
"km": 2.0,
"z": 227.86,
"S": 0.02,
"Q": 2.31,
"w": 13.78,
"w_q": 4.56,
"h": 0.19,
"tau": 29.39,
"tau_c": 92.43,
"omega": 26.53,
"M": 0.32,
"D": 0.23,
"R": 0.04,
"sving": 1.0,
"os": 0.35,
"os_navn": "sideelv",
"foss": 0.0,
"foss_drop": 0.0,
"juv": 0.0,
"B": 0.71,
"frac_fav": 0.91,
"d_gull_km": 96.73,
"berg": "Granittisk gneis | Migmatittgneis, uinndelt. Granittisk til granodiorittisk sammensetning | Nær stedeget grunnfjell",
"p_raw": 0.18,
"A_km2": 12.86,
"gate": 1.0,
"P": 42.92,
"rank": 19,
"klasse": "C",
"d_vei_m": 1588,
"vei_navn": "Steinsseterveien",
"d_sti_m": 7766,
"d_parkering_m": 8772,
"adkomst": "Gange 1.6 km fra nærmeste bilvei.",
"navn": "Holman (Skippelva)",
"hvorfor": "Skarp sving – grav på innersvingen og bak store steiner. Berggrunn: Granittisk gneis (91 % gunstig oppstrøms).",
"s2_anomali": null,
"s2_feox_z": null,
"satsjekk": "Automatisk bildeanalyse: dypt/mørkt vann, tett vegetasjon – elva delvis skjult."
}
},
{
"type": "Feature",
"geometry": {
"type": "Point",
"coordinates": [
10.75328,
64.34981
]
},
"properties": {
"elv": "Skjellåa",
"km": 2.5,
"z": 132.97,
"S": 0.04,
"Q": 2.85,
"w": 14.0,
"w_q": 5.06,
"h": 0.16,
"tau": 65.39,
"tau_c": 151.0,
"omega": 85.7,
"M": 0.43,
"D": 0.0,
"R": 0.12,
"sving": 0.04,
"os": 0.44,
"os_navn": "Indre Trollengelva",
"foss": 1.0,
"foss_drop": 9.76,
"juv": 0.0,
"B": 0.71,
"frac_fav": 0.87,
"d_gull_km": 94.78,
"berg": "Granittisk gneis | Migmatittgneis, uinndelt. Granittisk til granodiorittisk sammensetning | Nær stedeget grunnfjell",
"p_raw": 0.18,
"A_km2": 15.81,
"gate": 1.0,
"P": 42.26,
"rank": 20,
"klasse": "C",
"d_vei_m": 2506,
"vei_navn": "service",
"d_sti_m": 8594,
"d_parkering_m": 11596,
"adkomst": "Avsides: 2.5 km fra bilvei – planlegg dagstur.",
"navn": "Øykvikseteren (Skjellåa)",
"hvorfor": "Foss/stryk rett oppstrøms (10 m fall på 100 m) – fossekulp og fjell i dagen. Berggrunn: Granittisk gneis (87 % gunstig oppstrøms).",
"s2_anomali": null,
"s2_feox_z": null,
"satsjekk": "Automatisk bildeanalyse: dypt/mørkt vann, tett vegetasjon – elva delvis skjult."
}
}
]
}