<?xml version="1.0" encoding="UTF-8"?>
<kml xmlns="http://www.opengis.net/kml/2.2"><Document>
<name>GULLØYE – Vik</name>
<Style id="kA"><IconStyle><color>ff2b39c0</color><scale>1.1</scale></IconStyle></Style>
<Style id="kB"><IconStyle><color>ff227ee6</color><scale>1.1</scale></IconStyle></Style>
<Style id="kC"><IconStyle><color>ff0fc4f1</color><scale>1.1</scale></IconStyle></Style>
<Placemark><name>1A Nordmelansfossen (Steinsdalselva)</name><styleUrl>#kA</styleUrl><description>P=100. Foss/stryk rett oppstrøms (15 m fall på 100 m) – fossekulp og fjell i dagen. τ = 122 Pa ≈ 1.0× terskelen: sand og grus flyttes ved flom, gull blir liggende (retensjon). Berggrunn: Granittisk gneis (84 % gunstig oppstrøms). Lett: bilvei 49 m unna (Steinsdalsveien). Parkering 290 m unna.</description><Point><coordinates>10.56113,64.28836,0</coordinates></Point></Placemark>
<Placemark><name>2A Smørdalsfossen (Skippelva)</name><styleUrl>#kA</styleUrl><description>P=82. Bratt stryk like oppstrøms – kulper og fjellsprekker. Os: Granlibekken kommer inn her – grus og tyngre materiale legges i osen og bankehodet nedenfor. Skarp sving – grav på innersvingen og bak store steiner. Strømeffekten faller 50 % over strekningen – tungt materiale slipper her. Berggrunn: Granittisk gneis (91 % gunstig oppstrøms). Lett: bilvei 46 m unna (Steinsseterveien).</description><Point><coordinates>10.65456,64.27945,0</coordinates></Point></Placemark>
<Placemark><name>3A Skolengsholmen (Steinsdalselva)</name><styleUrl>#kA</styleUrl><description>P=80. Foss/stryk rett oppstrøms (9 m fall på 100 m) – fossekulp og fjell i dagen. Os: Skolengsbekken kommer inn her – grus og tyngre materiale legges i osen og bankehodet nedenfor. Berggrunn: Granittisk gneis (84 % gunstig oppstrøms). Lett: bilvei 129 m unna (Granskogveien).</description><Point><coordinates>10.62592,64.25815,0</coordinates></Point></Placemark>
<Placemark><name>4A Stakkslættet (Skippelva)</name><styleUrl>#kA</styleUrl><description>P=75. Foss/stryk rett oppstrøms (4 m fall på 100 m) – fossekulp og fjell i dagen. Os: sideelv kommer inn her – grus og tyngre materiale legges i osen og bankehodet nedenfor. Skarp sving – grav på innersvingen og bak store steiner. Berggrunn: Granittisk gneis (91 % gunstig oppstrøms). Lett: bilvei 80 m unna (Steinsseterveien).</description><Point><coordinates>10.67999,64.28450,0</coordinates></Point></Placemark>
<Placemark><name>5B Jøssundfossen (Storelva)</name><styleUrl>#kB</styleUrl><description>P=68. Foss/stryk rett oppstrøms (16 m fall på 100 m) – fossekulp og fjell i dagen. Os: Trollengelva kommer inn her – grus og tyngre materiale legges i osen og bankehodet nedenfor. Berggrunn: Granittisk gneis (57 % gunstig oppstrøms). Lett: bilvei 19 m unna (Bøleveien).</description><Point><coordinates>10.82112,64.36179,0</coordinates></Point></Placemark>
<Placemark><name>6B Tausdalsfossen (bekk)</name><styleUrl>#kB</styleUrl><description>P=65. Foss/stryk rett oppstrøms (37 m fall på 100 m) – fossekulp og fjell i dagen. Os: Tverbekken kommer inn her – grus og tyngre materiale legges i osen og bankehodet nedenfor. τ = 243 Pa ≈ 0.9× terskelen: sand og grus flyttes ved flom, gull blir liggende (retensjon). Berggrunn: Amfibolitt (71 % gunstig oppstrøms). Kort gange: bilvei 156 m unna.</description><Point><coordinates>10.63221,64.27722,0</coordinates></Point></Placemark>
<Placemark><name>7B Kvernafossen (Skippelva)</name><styleUrl>#kB</styleUrl><description>P=64. Foss/stryk rett oppstrøms (19 m fall på 100 m) – fossekulp og fjell i dagen. Berggrunn: Granittisk gneis (91 % gunstig oppstrøms). Lett: bilvei 61 m unna (Steinsseterveien).</description><Point><coordinates>10.61559,64.27477,0</coordinates></Point></Placemark>
<Placemark><name>8B Einan (Gaupdalsbekken)</name><styleUrl>#kB</styleUrl><description>P=63. Foss/stryk rett oppstrøms (19 m fall på 100 m) – fossekulp og fjell i dagen. Berggrunn: Amfibolitt (79 % gunstig oppstrøms). Lett: bilvei 73 m unna (Jøssundveien).</description><Point><coordinates>10.84414,64.36754,0</coordinates></Point></Placemark>
<Placemark><name>9B Aftensøya (Steinsdalselva)</name><styleUrl>#kB</styleUrl><description>P=58. Os: Bjørndalsbekken kommer inn her – grus og tyngre materiale legges i osen og bankehodet nedenfor. Strømeffekten faller 37 % over strekningen – tungt materiale slipper her. Berggrunn: Granittisk gneis (84 % gunstig oppstrøms). Kort gange: bilvei 171 m unna. Parkering 1054 m unna.</description><Point><coordinates>10.53522,64.28925,0</coordinates></Point></Placemark>
<Placemark><name>10B Sveselva, km 2.4</name><styleUrl>#kB</styleUrl><description>P=57. Foss/stryk rett oppstrøms (4 m fall på 100 m) – fossekulp og fjell i dagen. Os: sideelv kommer inn her – grus og tyngre materiale legges i osen og bankehodet nedenfor. Skarp sving – grav på innersvingen og bak store steiner. Berggrunn: Granittisk gneis (68 % gunstig oppstrøms). Avsides: 2.1 km fra bilvei – planlegg dagstur.</description><Point><coordinates>10.63034,64.32889,0</coordinates></Point></Placemark>
<Placemark><name>11B Gammelsetertjønnin (Austerelva)</name><styleUrl>#kB</styleUrl><description>P=57. Foss/stryk rett oppstrøms (18 m fall på 100 m) – fossekulp og fjell i dagen. Os: Tuvbekken kommer inn her – grus og tyngre materiale legges i osen og bankehodet nedenfor. Berggrunn: Amfibolitt (100 % gunstig oppstrøms). Lett: bilvei 70 m unna (Jøssundveien).</description><Point><coordinates>10.88457,64.37523,0</coordinates></Point></Placemark>
<Placemark><name>12B Melhus (Steinsdalselva)</name><styleUrl>#kB</styleUrl><description>P=56. Os: Rosselva kommer inn her – grus og tyngre materiale legges i osen og bankehodet nedenfor. Skarp sving – grav på innersvingen og bak store steiner. Berggrunn: Granittisk gneis (84 % gunstig oppstrøms). Lett: bilvei 76 m unna (Steinsveien).</description><Point><coordinates>10.58627,64.26881,0</coordinates></Point></Placemark>
<Placemark><name>13B Bakkenget (Skjellåa)</name><styleUrl>#kB</styleUrl><description>P=55. Foss/stryk rett oppstrøms (12 m fall på 100 m) – fossekulp og fjell i dagen. Skarp sving – grav på innersvingen og bak store steiner. Berggrunn: Granittisk gneis (87 % gunstig oppstrøms). Lett: bilvei 20 m unna (Bøleveien).</description><Point><coordinates>10.80140,64.36065,0</coordinates></Point></Placemark>
<Placemark><name>14B Aunan (Storelva)</name><styleUrl>#kB</styleUrl><description>P=54. Os: sideelv kommer inn her – grus og tyngre materiale legges i osen og bankehodet nedenfor. Skarp sving – grav på innersvingen og bak store steiner. Berggrunn: Granittisk gneis (56 % gunstig oppstrøms). Lett: bilvei 47 m unna (Opplandsveien).</description><Point><coordinates>10.84956,64.34987,0</coordinates></Point></Placemark>
<Placemark><name>15B Austerelva, km 2.8</name><styleUrl>#kB</styleUrl><description>P=52. Foss/stryk rett oppstrøms (8 m fall på 100 m) – fossekulp og fjell i dagen. Os: Lomtjønnbekken kommer inn her – grus og tyngre materiale legges i osen og bankehodet nedenfor. Berggrunn: Amfibolitt (100 % gunstig oppstrøms). Lett: bilvei 20 m unna (Jøssundveien).</description><Point><coordinates>10.87077,64.37196,0</coordinates></Point></Placemark>
<Placemark><name>16B Nesa (Skippelva)</name><styleUrl>#kB</styleUrl><description>P=48. Os: Annelibekken kommer inn her – grus og tyngre materiale legges i osen og bankehodet nedenfor. Skarp sving – grav på innersvingen og bak store steiner. Berggrunn: Granittisk gneis (91 % gunstig oppstrøms). Lett: bilvei 129 m unna (Steinsseterveien).</description><Point><coordinates>10.70994,64.28472,0</coordinates></Point></Placemark>
<Placemark><name>17C Sørseteren (Storelva)</name><styleUrl>#kC</styleUrl><description>P=45. Foss/stryk rett oppstrøms (8 m fall på 100 m) – fossekulp og fjell i dagen. Os: Langsteinholbekken kommer inn her – grus og tyngre materiale legges i osen og bankehodet nedenfor. Berggrunn: Granittisk gneis (53 % gunstig oppstrøms). Gange 1.1 km fra nærmeste bilvei.</description><Point><coordinates>10.93924,64.31788,0</coordinates></Point></Placemark>
<Placemark><name>18C Teberøya (Steinsdalselva)</name><styleUrl>#kC</styleUrl><description>P=44. Os: sideelv kommer inn her – grus og tyngre materiale legges i osen og bankehodet nedenfor. Berggrunn: Granittisk gneis (84 % gunstig oppstrøms). Lett: bilvei 36 m unna (Granskogveien).</description><Point><coordinates>10.61411,64.26353,0</coordinates></Point></Placemark>
<Placemark><name>19C Holman (Skippelva)</name><styleUrl>#kC</styleUrl><description>P=43. Skarp sving – grav på innersvingen og bak store steiner. Berggrunn: Granittisk gneis (91 % gunstig oppstrøms). Gange 1.6 km fra nærmeste bilvei.</description><Point><coordinates>10.73767,64.29508,0</coordinates></Point></Placemark>
<Placemark><name>20C Øykvikseteren (Skjellåa)</name><styleUrl>#kC</styleUrl><description>P=42. Foss/stryk rett oppstrøms (10 m fall på 100 m) – fossekulp og fjell i dagen. Berggrunn: Granittisk gneis (87 % gunstig oppstrøms). Avsides: 2.5 km fra bilvei – planlegg dagstur.</description><Point><coordinates>10.75328,64.34981,0</coordinates></Point></Placemark>
</Document></kml>