<?xml version="1.0" encoding="UTF-8"?>
<gpx version="1.1" creator="gulloye" xmlns="http://www.topografix.com/GPX/1/1">
  <wpt lat="64.28836" lon="10.56113"><name>1 A – Nordmelansfossen (Steinsdalselva)</name><desc>Foss/stryk rett oppstrøms (15 m fall på 100 m) – fossekulp og fjell i dagen. τ = 122 Pa ≈ 1.0× terskelen: sand og grus flyttes ved flom, gull blir liggende (retensjon). Berggrunn: Granittisk gneis (84 % gunstig oppstrøms).</desc></wpt>
  <wpt lat="64.27945" lon="10.65456"><name>2 A – Smørdalsfossen (Skippelva)</name><desc>Bratt stryk like oppstrøms – kulper og fjellsprekker. Os: Granlibekken kommer inn her – grus og tyngre materiale legges i osen og bankehodet nedenfor. Skarp sving – grav på innersvingen og bak store steiner. Strømeffekten faller 50 % over strekningen – tungt materiale slipper her. Berggrunn: Granittisk gneis (91 % gunstig oppstrøms).</desc></wpt>
  <wpt lat="64.25815" lon="10.62592"><name>3 A – Skolengsholmen (Steinsdalselva)</name><desc>Foss/stryk rett oppstrøms (9 m fall på 100 m) – fossekulp og fjell i dagen. Os: Skolengsbekken kommer inn her – grus og tyngre materiale legges i osen og bankehodet nedenfor. Berggrunn: Granittisk gneis (84 % gunstig oppstrøms).</desc></wpt>
  <wpt lat="64.28450" lon="10.67999"><name>4 A – Stakkslættet (Skippelva)</name><desc>Foss/stryk rett oppstrøms (4 m fall på 100 m) – fossekulp og fjell i dagen. Os: sideelv kommer inn her – grus og tyngre materiale legges i osen og bankehodet nedenfor. Skarp sving – grav på innersvingen og bak store steiner. Berggrunn: Granittisk gneis (91 % gunstig oppstrøms).</desc></wpt>
  <wpt lat="64.36179" lon="10.82112"><name>5 B – Jøssundfossen (Storelva)</name><desc>Foss/stryk rett oppstrøms (16 m fall på 100 m) – fossekulp og fjell i dagen. Os: Trollengelva kommer inn her – grus og tyngre materiale legges i osen og bankehodet nedenfor. Berggrunn: Granittisk gneis (57 % gunstig oppstrøms).</desc></wpt>
  <wpt lat="64.27722" lon="10.63221"><name>6 B – Tausdalsfossen (bekk)</name><desc>Foss/stryk rett oppstrøms (37 m fall på 100 m) – fossekulp og fjell i dagen. Os: Tverbekken kommer inn her – grus og tyngre materiale legges i osen og bankehodet nedenfor. τ = 243 Pa ≈ 0.9× terskelen: sand og grus flyttes ved flom, gull blir liggende (retensjon). Berggrunn: Amfibolitt (71 % gunstig oppstrøms).</desc></wpt>
  <wpt lat="64.27477" lon="10.61559"><name>7 B – Kvernafossen (Skippelva)</name><desc>Foss/stryk rett oppstrøms (19 m fall på 100 m) – fossekulp og fjell i dagen. Berggrunn: Granittisk gneis (91 % gunstig oppstrøms).</desc></wpt>
  <wpt lat="64.36754" lon="10.84414"><name>8 B – Einan (Gaupdalsbekken)</name><desc>Foss/stryk rett oppstrøms (19 m fall på 100 m) – fossekulp og fjell i dagen. Berggrunn: Amfibolitt (79 % gunstig oppstrøms).</desc></wpt>
  <wpt lat="64.28925" lon="10.53522"><name>9 B – Aftensøya (Steinsdalselva)</name><desc>Os: Bjørndalsbekken kommer inn her – grus og tyngre materiale legges i osen og bankehodet nedenfor. Strømeffekten faller 37 % over strekningen – tungt materiale slipper her. Berggrunn: Granittisk gneis (84 % gunstig oppstrøms).</desc></wpt>
  <wpt lat="64.32889" lon="10.63034"><name>10 B – Sveselva, km 2.4</name><desc>Foss/stryk rett oppstrøms (4 m fall på 100 m) – fossekulp og fjell i dagen. Os: sideelv kommer inn her – grus og tyngre materiale legges i osen og bankehodet nedenfor. Skarp sving – grav på innersvingen og bak store steiner. Berggrunn: Granittisk gneis (68 % gunstig oppstrøms).</desc></wpt>
  <wpt lat="64.37523" lon="10.88457"><name>11 B – Gammelsetertjønnin (Austerelva)</name><desc>Foss/stryk rett oppstrøms (18 m fall på 100 m) – fossekulp og fjell i dagen. Os: Tuvbekken kommer inn her – grus og tyngre materiale legges i osen og bankehodet nedenfor. Berggrunn: Amfibolitt (100 % gunstig oppstrøms).</desc></wpt>
  <wpt lat="64.26881" lon="10.58627"><name>12 B – Melhus (Steinsdalselva)</name><desc>Os: Rosselva kommer inn her – grus og tyngre materiale legges i osen og bankehodet nedenfor. Skarp sving – grav på innersvingen og bak store steiner. Berggrunn: Granittisk gneis (84 % gunstig oppstrøms).</desc></wpt>
  <wpt lat="64.36065" lon="10.80140"><name>13 B – Bakkenget (Skjellåa)</name><desc>Foss/stryk rett oppstrøms (12 m fall på 100 m) – fossekulp og fjell i dagen. Skarp sving – grav på innersvingen og bak store steiner. Berggrunn: Granittisk gneis (87 % gunstig oppstrøms).</desc></wpt>
  <wpt lat="64.34987" lon="10.84956"><name>14 B – Aunan (Storelva)</name><desc>Os: sideelv kommer inn her – grus og tyngre materiale legges i osen og bankehodet nedenfor. Skarp sving – grav på innersvingen og bak store steiner. Berggrunn: Granittisk gneis (56 % gunstig oppstrøms).</desc></wpt>
  <wpt lat="64.37196" lon="10.87077"><name>15 B – Austerelva, km 2.8</name><desc>Foss/stryk rett oppstrøms (8 m fall på 100 m) – fossekulp og fjell i dagen. Os: Lomtjønnbekken kommer inn her – grus og tyngre materiale legges i osen og bankehodet nedenfor. Berggrunn: Amfibolitt (100 % gunstig oppstrøms).</desc></wpt>
  <wpt lat="64.28472" lon="10.70994"><name>16 B – Nesa (Skippelva)</name><desc>Os: Annelibekken kommer inn her – grus og tyngre materiale legges i osen og bankehodet nedenfor. Skarp sving – grav på innersvingen og bak store steiner. Berggrunn: Granittisk gneis (91 % gunstig oppstrøms).</desc></wpt>
  <wpt lat="64.31788" lon="10.93924"><name>17 C – Sørseteren (Storelva)</name><desc>Foss/stryk rett oppstrøms (8 m fall på 100 m) – fossekulp og fjell i dagen. Os: Langsteinholbekken kommer inn her – grus og tyngre materiale legges i osen og bankehodet nedenfor. Berggrunn: Granittisk gneis (53 % gunstig oppstrøms).</desc></wpt>
  <wpt lat="64.26353" lon="10.61411"><name>18 C – Teberøya (Steinsdalselva)</name><desc>Os: sideelv kommer inn her – grus og tyngre materiale legges i osen og bankehodet nedenfor. Berggrunn: Granittisk gneis (84 % gunstig oppstrøms).</desc></wpt>
  <wpt lat="64.29508" lon="10.73767"><name>19 C – Holman (Skippelva)</name><desc>Skarp sving – grav på innersvingen og bak store steiner. Berggrunn: Granittisk gneis (91 % gunstig oppstrøms).</desc></wpt>
  <wpt lat="64.34981" lon="10.75328"><name>20 C – Øykvikseteren (Skjellåa)</name><desc>Foss/stryk rett oppstrøms (10 m fall på 100 m) – fossekulp og fjell i dagen. Berggrunn: Granittisk gneis (87 % gunstig oppstrøms).</desc></wpt>
</gpx>