{
"type": "FeatureCollection",
"features": [
{
"type": "Feature",
"geometry": {
"type": "Point",
"coordinates": [
7.97783,
59.44448
]
},
"properties": {
"elv": "Tokke",
"km": 1.9,
"z": 83.09,
"S": 0.0,
"Q": 280.76,
"w": 66.0,
"w_q": 50.27,
"h": 1.88,
"tau": 88.21,
"tau_c": 50.31,
"omega": 199.06,
"M": 1.75,
"D": 0.15,
"R": 0.97,
"sving": 0.66,
"os": 0.75,
"os_navn": "Heibøåi",
"foss": 0.0,
"foss_drop": 0.0,
"juv": 0.04,
"B": 1.22,
"frac_fav": 0.91,
"d_gull_km": 36.44,
"berg": "Meta-arkose | Metasandsteiner, vesentlig meta-arkose og kvartsitt | Telemark litotektoniske enhet",
"p_raw": 0.59,
"A_km2": 2339.65,
"gate": 1.0,
"P": 96.66,
"rank": 1,
"klasse": "A",
"d_vei_m": 51,
"vei_navn": "Storvegen",
"d_sti_m": 43,
"d_parkering_m": 188,
"adkomst": "Lett: bilvei 51 m unna (Storvegen). Parkering 188 m unna.",
"navn": "Tønsberg (Tokke)",
"hvorfor": "Os: Heibøåi kommer inn her – grus og tyngre materiale legges i osen og bankehodet nedenfor. Skarp sving – grav på innersvingen og bak store steiner. τ = 88 Pa ≈ 1.8× terskelen: sand og grus flyttes ved flom, gull blir liggende (retensjon). Berggrunn: Meta-arkose (91 % gunstig oppstrøms).",
"s2_anomali": 1.68,
"s2_feox_z": 0.96,
"satsjekk": "Automatisk bildeanalyse: ingen tydelige trekk."
}
},
{
"type": "Feature",
"geometry": {
"type": "Point",
"coordinates": [
8.42355,
59.6084
]
},
"properties": {
"elv": "Åmotsdalsåi",
"km": 2.1,
"z": 422.13,
"S": 0.03,
"Q": 32.37,
"w": 34.0,
"w_q": 17.07,
"h": 0.46,
"tau": 116.55,
"tau_c": 117.57,
"omega": 243.33,
"M": 0.99,
"D": 0.0,
"R": 0.79,
"sving": 0.66,
"os": 0.79,
"os_navn": "Valeåi",
"foss": 1.0,
"foss_drop": 4.47,
"juv": 0.0,
"B": 1.02,
"frac_fav": 0.87,
"d_gull_km": 7.69,
"berg": "Kvartsitt | Kvartsitt, stedvis konglomerat | Telemark litotektoniske enhet",
"p_raw": 0.58,
"A_km2": 269.74,
"gate": 1.0,
"P": 94.15,
"rank": 2,
"klasse": "A",
"d_vei_m": 35,
"vei_navn": "Åmotsdalsvegen",
"d_sti_m": 981,
"d_parkering_m": 1237,
"adkomst": "Lett: bilvei 35 m unna (Åmotsdalsvegen). Parkering 1237 m unna.",
"navn": "Åmot (Åmotsdalsåi)",
"hvorfor": "Foss/stryk rett oppstrøms (4 m fall på 100 m) – fossekulp og fjell i dagen. Os: Valeåi kommer inn her – grus og tyngre materiale legges i osen og bankehodet nedenfor. Skarp sving – grav på innersvingen og bak store steiner. τ = 117 Pa ≈ 1.0× terskelen: sand og grus flyttes ved flom, gull blir liggende (retensjon). Berggrunn: Kvartsitt (87 % gunstig oppstrøms). NGU-registrert gullforekomst 7.7 km unna.",
"s2_anomali": 1.25,
"s2_feox_z": 1.25,
"satsjekk": "Automatisk bildeanalyse: dypt/mørkt vann."
}
},
{
"type": "Feature",
"geometry": {
"type": "Point",
"coordinates": [
8.52348,
59.56462
]
},
"properties": {
"elv": "Flatdøla",
"km": 3.0,
"z": 257.3,
"S": 0.04,
"Q": 43.65,
"w": 35.89,
"w_q": 19.82,
"h": 0.47,
"tau": 173.2,
"tau_c": 140.5,
"omega": 443.86,
"M": 1.23,
"D": 0.0,
"R": 0.95,
"sving": 0.04,
"os": 0.88,
"os_navn": "Spelbekk",
"foss": 1.0,
"foss_drop": 9.41,
"juv": 0.0,
"B": 1.09,
"frac_fav": 0.91,
"d_gull_km": 3.6,
"berg": "Kvartsitt | Kvartsitt, stedvis konglomerat | Telemark litotektoniske enhet",
"p_raw": 0.57,
"A_km2": 363.73,
"gate": 1.0,
"P": 93.65,
"rank": 3,
"klasse": "A",
"d_vei_m": 53,
"vei_navn": "service",
"d_sti_m": 2235,
"d_parkering_m": 2234,
"adkomst": "Lett: bilvei 53 m unna (service).",
"navn": "Rjukanfoss (Flatdøla)",
"hvorfor": "Foss/stryk rett oppstrøms (9 m fall på 100 m) – fossekulp og fjell i dagen. Os: Spelbekk kommer inn her – grus og tyngre materiale legges i osen og bankehodet nedenfor. τ = 173 Pa ≈ 1.2× terskelen: sand og grus flyttes ved flom, gull blir liggende (retensjon). Berggrunn: Kvartsitt (91 % gunstig oppstrøms). NGU-registrert gullforekomst 3.6 km unna.",
"s2_anomali": 2.34,
"s2_feox_z": 2.34,
"satsjekk": "Automatisk bildeanalyse: ingen tydelige trekk."
}
},
{
"type": "Feature",
"geometry": {
"type": "Point",
"coordinates": [
8.00649,
59.43923
]
},
"properties": {
"elv": "Tokke",
"km": 4.4,
"z": 72.57,
"S": 0.0,
"Q": 282.21,
"w": 96.0,
"w_q": 50.4,
"h": 2.42,
"tau": 23.41,
"tau_c": 22.9,
"omega": 28.49,
"M": 1.02,
"D": 0.3,
"R": 0.82,
"sving": 0.4,
"os": 0.9,
"os_navn": "sideelv",
"foss": 0.0,
"foss_drop": 0.0,
"juv": 0.0,
"B": 1.23,
"frac_fav": 0.91,
"d_gull_km": 35.52,
"berg": "Meta-arkose | Metasandsteiner, vesentlig meta-arkose og kvartsitt | Telemark litotektoniske enhet",
"p_raw": 0.56,
"A_km2": 2351.78,
"gate": 1.0,
"P": 91.61,
"rank": 4,
"klasse": "A",
"d_vei_m": 62,
"vei_navn": "service",
"d_sti_m": 30,
"d_parkering_m": 617,
"adkomst": "Lett: bilvei 62 m unna (service). Parkering 617 m unna.",
"navn": "Nestestog (Tokke)",
"hvorfor": "Os: sideelv kommer inn her – grus og tyngre materiale legges i osen og bankehodet nedenfor. τ = 23 Pa ≈ 1.0× terskelen: sand og grus flyttes ved flom, gull blir liggende (retensjon). Berggrunn: Meta-arkose (91 % gunstig oppstrøms).",
"s2_anomali": 4.0,
"s2_feox_z": 6.59,
"satsjekk": "Automatisk bildeanalyse: dypt/mørkt vann."
}
},
{
"type": "Feature",
"geometry": {
"type": "Point",
"coordinates": [
8.00849,
59.59809
]
},
"properties": {
"elv": "Tokke",
"km": 3.7,
"z": 573.33,
"S": 0.01,
"Q": 110.5,
"w": 54.91,
"w_q": 31.54,
"h": 0.89,
"tau": 109.3,
"tau_c": 81.36,
"omega": 246.29,
"M": 1.34,
"D": 0.13,
"R": 0.98,
"sving": 0.28,
"os": 0.0,
"os_navn": "",
"foss": 1.0,
"foss_drop": 3.28,
"juv": 0.07,
"B": 1.19,
"frac_fav": 1.0,
"d_gull_km": 30.96,
"berg": "Meta-arkose | Metasandsteiner, vesentlig meta-arkose og kvartsitt | Telemark litotektoniske enhet",
"p_raw": 0.56,
"A_km2": 920.82,
"gate": 1.0,
"P": 91.41,
"rank": 5,
"klasse": "A",
"d_vei_m": 28,
"vei_navn": "service",
"d_sti_m": 1185,
"d_parkering_m": 3457,
"adkomst": "Lett: bilvei 28 m unna (service).",
"navn": "Midtveit (Tokke)",
"hvorfor": "Foss/stryk rett oppstrøms (3 m fall på 100 m) – fossekulp og fjell i dagen. τ = 109 Pa ≈ 1.3× terskelen: sand og grus flyttes ved flom, gull blir liggende (retensjon). Berggrunn: Meta-arkose (100 % gunstig oppstrøms).",
"s2_anomali": 1.33,
"s2_feox_z": 1.33,
"satsjekk": "Automatisk bildeanalyse: ingen tydelige trekk."
}
},
{
"type": "Feature",
"geometry": {
"type": "Point",
"coordinates": [
8.55127,
59.56519
]
},
"properties": {
"elv": "Flatdøla",
"km": 4.8,
"z": 190.09,
"S": 0.02,
"Q": 44.79,
"w": 28.0,
"w_q": 20.08,
"h": 0.65,
"tau": 149.01,
"tau_c": 111.59,
"omega": 368.28,
"M": 1.34,
"D": 0.08,
"R": 0.98,
"sving": 0.02,
"os": 0.63,
"os_navn": "Tverråi",
"foss": 1.0,
"foss_drop": 6.85,
"juv": 0.0,
"B": 1.1,
"frac_fav": 0.92,
"d_gull_km": 3.04,
"berg": "Kvartsitt | Kvartsitt, stedvis konglomerat | Telemark litotektoniske enhet",
"p_raw": 0.56,
"A_km2": 373.24,
"gate": 1.0,
"P": 90.96,
"rank": 6,
"klasse": "A",
"d_vei_m": 128,
"vei_navn": "service",
"d_sti_m": 808,
"d_parkering_m": 1057,
"adkomst": "Lett: bilvei 128 m unna (service). Parkering 1057 m unna.",
"navn": "Gjuvland (Flatdøla)",
"hvorfor": "Foss/stryk rett oppstrøms (7 m fall på 100 m) – fossekulp og fjell i dagen. Os: Tverråi kommer inn her – grus og tyngre materiale legges i osen og bankehodet nedenfor. τ = 149 Pa ≈ 1.3× terskelen: sand og grus flyttes ved flom, gull blir liggende (retensjon). Berggrunn: Kvartsitt (92 % gunstig oppstrøms). NGU-registrert gullforekomst 3.0 km unna.",
"s2_anomali": null,
"s2_feox_z": null,
"satsjekk": "Automatisk bildeanalyse: dypt/mørkt vann."
}
},
{
"type": "Feature",
"geometry": {
"type": "Point",
"coordinates": [
8.43025,
59.61747
]
},
"properties": {
"elv": "Åmotsdalsåi",
"km": 0.9,
"z": 445.45,
"S": 0.02,
"Q": 26.61,
"w": 24.0,
"w_q": 15.48,
"h": 0.54,
"tau": 106.97,
"tau_c": 103.07,
"omega": 217.77,
"M": 1.04,
"D": 0.2,
"R": 0.83,
"sving": 0.5,
"os": 0.81,
"os_navn": "Heiåi",
"foss": 0.72,
"foss_drop": 4.99,
"juv": 0.0,
"B": 1.0,
"frac_fav": 0.87,
"d_gull_km": 7.63,
"berg": "Kvartsitt | Kvartsitt, stedvis konglomerat | Telemark litotektoniske enhet",
"p_raw": 0.55,
"A_km2": 221.75,
"gate": 1.0,
"P": 89.83,
"rank": 7,
"klasse": "A",
"d_vei_m": 85,
"vei_navn": "Heiåvegen",
"d_sti_m": 1173,
"d_parkering_m": 343,
"adkomst": "Lett: bilvei 85 m unna (Heiåvegen). Parkering 343 m unna.",
"navn": "Solstad (Åmotsdalsåi)",
"hvorfor": "Foss/stryk rett oppstrøms (5 m fall på 100 m) – fossekulp og fjell i dagen. Os: Heiåi kommer inn her – grus og tyngre materiale legges i osen og bankehodet nedenfor. τ = 107 Pa ≈ 1.0× terskelen: sand og grus flyttes ved flom, gull blir liggende (retensjon). Berggrunn: Kvartsitt (87 % gunstig oppstrøms). NGU-registrert gullforekomst 7.6 km unna.",
"s2_anomali": 0.57,
"s2_feox_z": 0.33,
"satsjekk": "Automatisk bildeanalyse: dypt/mørkt vann."
}
},
{
"type": "Feature",
"geometry": {
"type": "Point",
"coordinates": [
7.99199,
59.55062
]
},
"properties": {
"elv": "Tokke",
"km": 2.5,
"z": 394.04,
"S": 0.02,
"Q": 227.99,
"w": 54.0,
"w_q": 45.3,
"h": 1.31,
"tau": 200.09,
"tau_c": 90.81,
"omega": 643.76,
"M": 2.2,
"D": 0.03,
"R": 0.81,
"sving": 0.59,
"os": 0.59,
"os_navn": "sideelv",
"foss": 1.0,
"foss_drop": 4.5,
"juv": 0.09,
"B": 1.01,
"frac_fav": 0.65,
"d_gull_km": 32.25,
"berg": "Meta-arkose | Metasandsteiner, vesentlig meta-arkose og kvartsitt | Telemark litotektoniske enhet",
"p_raw": 0.55,
"A_km2": 1899.91,
"gate": 1.0,
"P": 89.77,
"rank": 8,
"klasse": "A",
"d_vei_m": 280,
"vei_navn": "track",
"d_sti_m": 1292,
"d_parkering_m": 1926,
"adkomst": "Kort gange: bilvei 280 m unna.",
"navn": "Groven (Tokke)",
"hvorfor": "Foss/stryk rett oppstrøms (4 m fall på 100 m) – fossekulp og fjell i dagen. Os: sideelv kommer inn her – grus og tyngre materiale legges i osen og bankehodet nedenfor. Skarp sving – grav på innersvingen og bak store steiner. τ = 200 Pa ≈ 2.2× terskelen: sand og grus flyttes ved flom, gull blir liggende (retensjon). Berggrunn: Meta-arkose (65 % gunstig oppstrøms).",
"s2_anomali": 2.86,
"s2_feox_z": 0.71,
"satsjekk": "Automatisk bildeanalyse: dypt/mørkt vann."
}
},
{
"type": "Feature",
"geometry": {
"type": "Point",
"coordinates": [
8.48338,
59.581
]
},
"properties": {
"elv": "Mandalselvi",
"km": 4.7,
"z": 317.41,
"S": 0.09,
"Q": 33.6,
"w": 34.13,
"w_q": 17.39,
"h": 0.32,
"tau": 283.4,
"tau_c": 219.13,
"omega": 874.04,
"M": 1.29,
"D": 0.0,
"R": 0.97,
"sving": 0.2,
"os": 0.57,
"os_navn": "Åmotsdalsåi",
"foss": 1.0,
"foss_drop": 12.11,
"juv": 0.0,
"B": 1.07,
"frac_fav": 1.0,
"d_gull_km": 4.29,
"berg": "Kvartsitt | Kvartsitt, stedvis konglomerat | Telemark litotektoniske enhet",
"p_raw": 0.54,
"A_km2": 280.02,
"gate": 1.0,
"P": 88.49,
"rank": 9,
"klasse": "A",
"d_vei_m": 62,
"vei_navn": "track",
"d_sti_m": 2447,
"d_parkering_m": 4316,
"adkomst": "Lett: bilvei 62 m unna (track).",
"navn": "Moland (Mandalselvi)",
"hvorfor": "Foss/stryk rett oppstrøms (12 m fall på 100 m) – fossekulp og fjell i dagen. Os: Åmotsdalsåi kommer inn her – grus og tyngre materiale legges i osen og bankehodet nedenfor. τ = 283 Pa ≈ 1.3× terskelen: sand og grus flyttes ved flom, gull blir liggende (retensjon). Berggrunn: Kvartsitt (100 % gunstig oppstrøms). NGU-registrert gullforekomst 4.3 km unna.",
"s2_anomali": 1.14,
"s2_feox_z": 0.15,
"satsjekk": "Automatisk bildeanalyse: tett vegetasjon – elva delvis skjult."
}
},
{
"type": "Feature",
"geometry": {
"type": "Point",
"coordinates": [
8.49227,
59.57618
]
},
"properties": {
"elv": "Flatdøla",
"km": 0.7,
"z": 289.3,
"S": 0.03,
"Q": 42.26,
"w": 20.0,
"w_q": 19.5,
"h": 0.7,
"tau": 221.91,
"tau_c": 130.79,
"omega": 668.23,
"M": 1.7,
"D": 0.17,
"R": 0.98,
"sving": 0.26,
"os": 0.0,
"os_navn": "",
"foss": 1.0,
"foss_drop": 9.66,
"juv": 0.19,
"B": 1.09,
"frac_fav": 0.91,
"d_gull_km": 4.02,
"berg": "Kvartsitt | Kvartsitt, stedvis konglomerat | Telemark litotektoniske enhet",
"p_raw": 0.53,
"A_km2": 352.15,
"gate": 1.0,
"P": 86.81,
"rank": 10,
"klasse": "B",
"d_vei_m": 30,
"vei_navn": "track",
"d_sti_m": 2735,
"d_parkering_m": 3750,
"adkomst": "Lett: bilvei 30 m unna (track).",
"navn": "Skogen øvre (Flatdøla)",
"hvorfor": "Foss/stryk rett oppstrøms (10 m fall på 100 m) – fossekulp og fjell i dagen. τ = 222 Pa ≈ 1.7× terskelen: sand og grus flyttes ved flom, gull blir liggende (retensjon). Berggrunn: Kvartsitt (91 % gunstig oppstrøms). NGU-registrert gullforekomst 4.0 km unna.",
"s2_anomali": 1.01,
"s2_feox_z": 1.01,
"satsjekk": "Automatisk bildeanalyse: dypt/mørkt vann."
}
},
{
"type": "Feature",
"geometry": {
"type": "Point",
"coordinates": [
7.95309,
59.45094
]
},
"properties": {
"elv": "Tokke",
"km": 0.2,
"z": 96.6,
"S": 0.0,
"Q": 279.05,
"w": 27.83,
"w_q": 50.11,
"h": 3.63,
"tau": 134.71,
"tau_c": 44.83,
"omega": 372.58,
"M": 3.01,
"D": 0.01,
"R": 0.51,
"sving": 0.3,
"os": 0.87,
"os_navn": "Dalåi",
"foss": 0.56,
"foss_drop": 0.0,
"juv": 0.47,
"B": 1.21,
"frac_fav": 0.9,
"d_gull_km": 35.81,
"berg": "Meta-arkose | Metasandsteiner, vesentlig meta-arkose og kvartsitt | Telemark litotektoniske enhet",
"p_raw": 0.53,
"A_km2": 2325.38,
"gate": 1.0,
"P": 86.7,
"rank": 11,
"klasse": "B",
"d_vei_m": 107,
"vei_navn": "track",
"d_sti_m": 422,
"d_parkering_m": 1619,
"adkomst": "Lett: bilvei 107 m unna (track).",
"navn": "Geishyl (Tokke)",
"hvorfor": "Bratt stryk like oppstrøms – kulper og fjellsprekker. Os: Dalåi kommer inn her – grus og tyngre materiale legges i osen og bankehodet nedenfor. τ = 135 Pa ≈ 3.0× terskelen: sand og grus flyttes ved flom, gull blir liggende (retensjon). Berggrunn: Meta-arkose (90 % gunstig oppstrøms).",
"s2_anomali": 4.0,
"s2_feox_z": 3.22,
"satsjekk": "Automatisk bildeanalyse: dypt/mørkt vann."
}
},
{
"type": "Feature",
"geometry": {
"type": "Point",
"coordinates": [
8.00255,
59.61824
]
},
"properties": {
"elv": "Tokke",
"km": 0.5,
"z": 606.12,
"S": 0.02,
"Q": 107.19,
"w": 54.0,
"w_q": 31.06,
"h": 0.82,
"tau": 129.66,
"tau_c": 92.51,
"omega": 314.12,
"M": 1.4,
"D": 0.14,
"R": 0.99,
"sving": 0.41,
"os": 0.0,
"os_navn": "",
"foss": 0.72,
"foss_drop": 3.22,
"juv": 0.01,
"B": 1.19,
"frac_fav": 1.0,
"d_gull_km": 31.41,
"berg": "Meta-arkose | Metasandsteiner, vesentlig meta-arkose og kvartsitt | Telemark litotektoniske enhet",
"p_raw": 0.53,
"A_km2": 893.24,
"gate": 1.0,
"P": 86.61,
"rank": 12,
"klasse": "B",
"d_vei_m": 29,
"vei_navn": "service",
"d_sti_m": 1709,
"d_parkering_m": 5558,
"adkomst": "Lett: bilvei 29 m unna (service).",
"navn": "Skogstad (Tokke)",
"hvorfor": "Foss/stryk rett oppstrøms (3 m fall på 100 m) – fossekulp og fjell i dagen. τ = 130 Pa ≈ 1.4× terskelen: sand og grus flyttes ved flom, gull blir liggende (retensjon). Berggrunn: Meta-arkose (100 % gunstig oppstrøms).",
"s2_anomali": 0.96,
"s2_feox_z": 0.96,
"satsjekk": "Automatisk bildeanalyse: dypt/mørkt vann."
}
},
{
"type": "Feature",
"geometry": {
"type": "Point",
"coordinates": [
8.01695,
59.36888
]
},
"properties": {
"elv": "Åmdalsåi",
"km": 1.7,
"z": 480.22,
"S": 0.09,
"Q": 26.47,
"w": 26.0,
"w_q": 15.44,
"h": 0.33,
"tau": 278.27,
"tau_c": 212.78,
"omega": 852.37,
"M": 1.31,
"D": 0.12,
"R": 0.97,
"sving": 0.8,
"os": 0.78,
"os_navn": "sideelv",
"foss": 0.8,
"foss_drop": 19.89,
"juv": 0.07,
"B": 0.84,
"frac_fav": 0.66,
"d_gull_km": 33.92,
"berg": "Kvartsitt | Kvartsrik gneis, ljos grå, nokre stader migmatittisk | Telemark litotektoniske enhet",
"p_raw": 0.53,
"A_km2": 220.61,
"gate": 1.0,
"P": 86.03,
"rank": 13,
"klasse": "B",
"d_vei_m": 112,
"vei_navn": "unclassified",
"d_sti_m": 16,
"d_parkering_m": 892,
"adkomst": "Lett: bilvei 112 m unna (unclassified). Parkering 892 m unna.",
"navn": "Åmdal Burtistog (Åmdalsåi)",
"hvorfor": "Foss/stryk rett oppstrøms (20 m fall på 100 m) – fossekulp og fjell i dagen. Os: sideelv kommer inn her – grus og tyngre materiale legges i osen og bankehodet nedenfor. Skarp sving – grav på innersvingen og bak store steiner. τ = 278 Pa ≈ 1.3× terskelen: sand og grus flyttes ved flom, gull blir liggende (retensjon). Berggrunn: Kvartsitt (66 % gunstig oppstrøms).",
"s2_anomali": 0.91,
"s2_feox_z": 0.91,
"satsjekk": "Automatisk bildeanalyse: dypt/mørkt vann."
}
},
{
"type": "Feature",
"geometry": {
"type": "Point",
"coordinates": [
8.63615,
59.50016
]
},
"properties": {
"elv": "Vallaråi",
"km": 0.2,
"z": 126.59,
"S": 0.02,
"Q": 61.78,
"w": 46.15,
"w_q": 23.58,
"h": 0.57,
"tau": 137.49,
"tau_c": 114.39,
"omega": 323.92,
"M": 1.2,
"D": 0.05,
"R": 0.93,
"sving": 0.22,
"os": 0.15,
"os_navn": "sideelv",
"foss": 1.0,
"foss_drop": 5.98,
"juv": 0.12,
"B": 1.13,
"frac_fav": 1.0,
"d_gull_km": 11.25,
"berg": "Konglomerat | Konglomerat og sandstein | Telemark litotektoniske enhet",
"p_raw": 0.52,
"A_km2": 514.86,
"gate": 1.0,
"P": 84.8,
"rank": 14,
"klasse": "B",
"d_vei_m": 30,
"vei_navn": "service",
"d_sti_m": 469,
"d_parkering_m": 1201,
"adkomst": "Lett: bilvei 30 m unna (service). Parkering 1201 m unna.",
"navn": "Lakshøl (Vallaråi)",
"hvorfor": "Foss/stryk rett oppstrøms (6 m fall på 100 m) – fossekulp og fjell i dagen. τ = 137 Pa ≈ 1.2× terskelen: sand og grus flyttes ved flom, gull blir liggende (retensjon). Berggrunn: Konglomerat (100 % gunstig oppstrøms).",
"s2_anomali": 3.2,
"s2_feox_z": 2.53,
"satsjekk": "Automatisk bildeanalyse: grus/sandbanke synlig, dypt/mørkt vann."
}
},
{
"type": "Feature",
"geometry": {
"type": "Point",
"coordinates": [
7.95811,
59.47729
]
},
"properties": {
"elv": "Tokke",
"km": 14.0,
"z": 159.58,
"S": 0.02,
"Q": 236.96,
"w": 28.0,
"w_q": 46.18,
"h": 2.0,
"tau": 337.62,
"tau_c": 95.57,
"omega": 1429.18,
"M": 3.53,
"D": 0.14,
"R": 0.36,
"sving": 0.54,
"os": 0.94,
"os_navn": "sideelv",
"foss": 0.37,
"foss_drop": 4.77,
"juv": 0.39,
"B": 1.18,
"frac_fav": 0.88,
"d_gull_km": 36.22,
"berg": "Meta-arkose | Metasandsteiner, vesentlig meta-arkose og kvartsitt | Telemark litotektoniske enhet",
"p_raw": 0.51,
"A_km2": 1974.63,
"gate": 1.0,
"P": 83.78,
"rank": 15,
"klasse": "B",
"d_vei_m": 42,
"vei_navn": "track",
"d_sti_m": 1154,
"d_parkering_m": 3223,
"adkomst": "Lett: bilvei 42 m unna (track).",
"navn": "Svartepyttholet (Tokke)",
"hvorfor": "Foss/stryk rett oppstrøms (5 m fall på 100 m) – fossekulp og fjell i dagen. Os: sideelv kommer inn her – grus og tyngre materiale legges i osen og bankehodet nedenfor. Skarp sving – grav på innersvingen og bak store steiner. τ = 338 Pa ≈ 3.5× terskelen: sand og grus flyttes ved flom, gull blir liggende (retensjon). Berggrunn: Meta-arkose (88 % gunstig oppstrøms).",
"s2_anomali": 1.76,
"s2_feox_z": 0.26,
"satsjekk": "Automatisk bildeanalyse: dypt/mørkt vann, tett vegetasjon – elva delvis skjult."
}
},
{
"type": "Feature",
"geometry": {
"type": "Point",
"coordinates": [
7.94544,
59.46453
]
},
"properties": {
"elv": "Tokke",
"km": 15.7,
"z": 136.1,
"S": 0.01,
"Q": 237.44,
"w": 38.0,
"w_q": 46.23,
"h": 1.86,
"tau": 207.47,
"tau_c": 77.75,
"omega": 698.48,
"M": 2.67,
"D": 0.08,
"R": 0.63,
"sving": 0.35,
"os": 0.21,
"os_navn": "Rukkeåi",
"foss": 1.0,
"foss_drop": 3.23,
"juv": 0.19,
"B": 1.19,
"frac_fav": 0.89,
"d_gull_km": 36.5,
"berg": "Meta-arkose | Metasandsteiner, vesentlig meta-arkose og kvartsitt | Telemark litotektoniske enhet",
"p_raw": 0.51,
"A_km2": 1978.7,
"gate": 1.0,
"P": 82.58,
"rank": 16,
"klasse": "B",
"d_vei_m": 57,
"vei_navn": "Storvegen",
"d_sti_m": 1699,
"d_parkering_m": 2855,
"adkomst": "Lett: bilvei 57 m unna (Storvegen).",
"navn": "Lio (Tokke)",
"hvorfor": "Foss/stryk rett oppstrøms (3 m fall på 100 m) – fossekulp og fjell i dagen. τ = 207 Pa ≈ 2.7× terskelen: sand og grus flyttes ved flom, gull blir liggende (retensjon). Berggrunn: Meta-arkose (89 % gunstig oppstrøms).",
"s2_anomali": 1.23,
"s2_feox_z": 0.26,
"satsjekk": "Automatisk bildeanalyse: dypt/mørkt vann, tett vegetasjon – elva delvis skjult."
}
},
{
"type": "Feature",
"geometry": {
"type": "Point",
"coordinates": [
8.38909,
59.43894
]
},
"properties": {
"elv": "Dalaåi",
"km": 15.6,
"z": 204.52,
"S": 0.03,
"Q": 27.79,
"w": 26.0,
"w_q": 15.82,
"h": 0.47,
"tau": 135.78,
"tau_c": 124.44,
"omega": 306.08,
"M": 1.09,
"D": 0.0,
"R": 0.87,
"sving": 0.26,
"os": 0.72,
"os_navn": "Rottjønnbekken",
"foss": 1.0,
"foss_drop": 7.75,
"juv": 0.0,
"B": 0.98,
"frac_fav": 0.89,
"d_gull_km": 19.55,
"berg": "Meta-arkose | Metasandsteiner, vesentlig meta-arkose og kvartsitt med lag av konglomerat | Telemark litotektoniske enhet",
"p_raw": 0.51,
"A_km2": 231.61,
"gate": 1.0,
"P": 82.53,
"rank": 17,
"klasse": "B",
"d_vei_m": 18,
"vei_navn": "Dalanvegen",
"d_sti_m": 2972,
"d_parkering_m": 3657,
"adkomst": "Lett: bilvei 18 m unna (Dalanvegen).",
"navn": "Øvre Hosom (Dalaåi)",
"hvorfor": "Foss/stryk rett oppstrøms (8 m fall på 100 m) – fossekulp og fjell i dagen. Os: Rottjønnbekken kommer inn her – grus og tyngre materiale legges i osen og bankehodet nedenfor. τ = 136 Pa ≈ 1.1× terskelen: sand og grus flyttes ved flom, gull blir liggende (retensjon). Berggrunn: Meta-arkose (89 % gunstig oppstrøms).",
"s2_anomali": 0.2,
"s2_feox_z": -0.19,
"satsjekk": "Automatisk bildeanalyse: dypt/mørkt vann, tett vegetasjon – elva delvis skjult."
}
},
{
"type": "Feature",
"geometry": {
"type": "Point",
"coordinates": [
8.4583,
59.59495
]
},
"properties": {
"elv": "Åmotsdalsåi",
"km": 4.8,
"z": 360.47,
"S": 0.02,
"Q": 32.99,
"w": 20.0,
"w_q": 17.23,
"h": 0.65,
"tau": 158.13,
"tau_c": 114.31,
"omega": 398.5,
"M": 1.38,
"D": 0.17,
"R": 0.99,
"sving": 0.27,
"os": 0.0,
"os_navn": "",
"foss": 1.0,
"foss_drop": 5.11,
"juv": 0.08,
"B": 1.05,
"frac_fav": 0.88,
"d_gull_km": 5.52,
"berg": "Kvartsitt | Kvartsitt, stedvis konglomerat | Telemark litotektoniske enhet",
"p_raw": 0.5,
"A_km2": 274.92,
"gate": 1.0,
"P": 82.27,
"rank": 18,
"klasse": "B",
"d_vei_m": 25,
"vei_navn": "Åmotsdalsvegen",
"d_sti_m": 984,
"d_parkering_m": 3299,
"adkomst": "Lett: bilvei 25 m unna (Åmotsdalsvegen).",
"navn": "Gjuvet (Åmotsdalsåi)",
"hvorfor": "Foss/stryk rett oppstrøms (5 m fall på 100 m) – fossekulp og fjell i dagen. τ = 158 Pa ≈ 1.4× terskelen: sand og grus flyttes ved flom, gull blir liggende (retensjon). Berggrunn: Kvartsitt (88 % gunstig oppstrøms). NGU-registrert gullforekomst 5.5 km unna.",
"s2_anomali": 0.48,
"s2_feox_z": 0.48,
"satsjekk": "Automatisk bildeanalyse: dypt/mørkt vann."
}
},
{
"type": "Feature",
"geometry": {
"type": "Point",
"coordinates": [
8.36652,
59.44735
]
},
"properties": {
"elv": "Dalaåi",
"km": 13.8,
"z": 259.45,
"S": 0.07,
"Q": 27.33,
"w": 35.41,
"w_q": 15.68,
"h": 0.3,
"tau": 201.34,
"tau_c": 190.62,
"omega": 518.51,
"M": 1.06,
"D": 0.02,
"R": 0.84,
"sving": 0.92,
"os": 0.0,
"os_navn": "",
"foss": 1.0,
"foss_drop": 17.05,
"juv": 0.0,
"B": 0.98,
"frac_fav": 0.89,
"d_gull_km": 19.41,
"berg": "Meta-arkose | Metasandsteiner, vesentlig meta-arkose og kvartsitt med lag av konglomerat | Telemark litotektoniske enhet",
"p_raw": 0.49,
"A_km2": 227.74,
"gate": 1.0,
"P": 80.31,
"rank": 19,
"klasse": "B",
"d_vei_m": 57,
"vei_navn": "track",
"d_sti_m": 1982,
"d_parkering_m": 3658,
"adkomst": "Lett: bilvei 57 m unna (track).",
"navn": "Jusureidfossen (Dalaåi)",
"hvorfor": "Foss/stryk rett oppstrøms (17 m fall på 100 m) – fossekulp og fjell i dagen. Skarp sving – grav på innersvingen og bak store steiner. τ = 201 Pa ≈ 1.1× terskelen: sand og grus flyttes ved flom, gull blir liggende (retensjon). Berggrunn: Meta-arkose (89 % gunstig oppstrøms).",
"s2_anomali": 0.65,
"s2_feox_z": -0.51,
"satsjekk": "Automatisk bildeanalyse: dypt/mørkt vann."
}
},
{
"type": "Feature",
"geometry": {
"type": "Point",
"coordinates": [
7.89352,
59.47185
]
},
"properties": {
"elv": "Rukkeåi",
"km": 2.6,
"z": 320.7,
"S": 0.07,
"Q": 15.94,
"w": 34.62,
"w_q": 11.98,
"h": 0.22,
"tau": 152.61,
"tau_c": 195.4,
"omega": 324.98,
"M": 0.78,
"D": 0.02,
"R": 0.55,
"sving": 0.43,
"os": 0.93,
"os_navn": "sideelv",
"foss": 1.0,
"foss_drop": 14.46,
"juv": 0.0,
"B": 0.99,
"frac_fav": 1.0,
"d_gull_km": 34.99,
"berg": "Meta-arkose | Metasandsteiner, vesentlig meta-arkose og kvartsitt | Telemark litotektoniske enhet",
"p_raw": 0.49,
"A_km2": 132.82,
"gate": 1.0,
"P": 80.02,
"rank": 20,
"klasse": "B",
"d_vei_m": 103,
"vei_navn": "service",
"d_sti_m": 1030,
"d_parkering_m": 2857,
"adkomst": "Lett: bilvei 103 m unna (service).",
"navn": "Tovshus (Rukkeåi)",
"hvorfor": "Foss/stryk rett oppstrøms (14 m fall på 100 m) – fossekulp og fjell i dagen. Os: sideelv kommer inn her – grus og tyngre materiale legges i osen og bankehodet nedenfor. Berggrunn: Meta-arkose (100 % gunstig oppstrøms).",
"s2_anomali": 2.96,
"s2_feox_z": 1.08,
"satsjekk": "Automatisk bildeanalyse: dypt/mørkt vann, tett vegetasjon – elva delvis skjult."
}
}
]
}