{"type": "FeatureCollection", "features": [{"type": "Feature", "geometry": {"type": "Point", "coordinates": [8.55581, 59.59237]}, "properties": {"type": "gull", "okey": "5433", "name": "Bleka", "objtype": "MalmRegistrering", "websub_ntext": "Gull", "sted_verif": "", "faktaark": "https://aps.ngu.no/pls/oradb/minres_deposit_fakta.Main?p_objid=5433&p_spraak=N", "s2_oh_z": null, "s2_feox_z": null}}, {"type": "Feature", "geometry": {"type": "Point", "coordinates": [8.09971, 59.42652]}, "properties": {"type": "basemetall", "s2_oh_z": null, "s2_feox_z": null}}, {"type": "Feature", "geometry": {"type": "Point", "coordinates": [8.11558, 59.42618]}, "properties": {"type": "basemetall", "s2_oh_z": 7.91, "s2_feox_z": 9.56}}, {"type": "Feature", "geometry": {"type": "Point", "coordinates": [8.10347, 59.41756]}, "properties": {"type": "basemetall", "s2_oh_z": null, "s2_feox_z": null}}, {"type": "Feature", "geometry": {"type": "Point", "coordinates": [8.20533, 59.3567]}, "properties": {"type": "basemetall", "s2_oh_z": 0.38, "s2_feox_z": -0.36}}, {"type": "Feature", "geometry": {"type": "Point", "coordinates": [8.23722, 59.34657]}, "properties": {"type": "basemetall", "s2_oh_z": null, "s2_feox_z": null}}, {"type": "Feature", "geometry": {"type": "Point", "coordinates": [8.2293, 59.34697]}, "properties": {"type": "basemetall", "s2_oh_z": null, "s2_feox_z": null}}, {"type": "Feature", "geometry": {"type": "Point", "coordinates": [8.18085, 59.35072]}, "properties": {"type": "basemetall", "s2_oh_z": 0.3, "s2_feox_z": -0.02}}, {"type": "Feature", "geometry": {"type": "Point", "coordinates": [8.43094, 59.43332]}, "properties": {"type": "basemetall", "s2_oh_z": null, "s2_feox_z": null}}, {"type": "Feature", "geometry": {"type": "Point", "coordinates": [8.44906, 59.40331]}, "properties": {"type": "basemetall", "s2_oh_z": 0.8, "s2_feox_z": 1.33}}, {"type": "Feature", "geometry": {"type": "Point", "coordinates": [8.28957, 59.36572]}, "properties": {"type": "basemetall", "s2_oh_z": null, "s2_feox_z": null}}, {"type": "Feature", "geometry": {"type": "Point", "coordinates": [7.98881, 59.4513]}, "properties": {"type": "basemetall", "s2_oh_z": null, "s2_feox_z": null}}, {"type": "Feature", "geometry": {"type": "Point", "coordinates": [7.87883, 59.47016]}, "properties": {"type": "basemetall", "s2_oh_z": 2.37, "s2_feox_z": -0.6}}, {"type": "Feature", "geometry": {"type": "Point", "coordinates": [7.9965, 59.40017]}, "properties": {"type": "basemetall", "s2_oh_z": null, "s2_feox_z": null}}, {"type": "Feature", "geometry": {"type": "Point", "coordinates": [8.55329, 59.44637]}, "properties": {"type": "basemetall", "s2_oh_z": 1.02, "s2_feox_z": 0.09}}, {"type": "Feature", "geometry": {"type": "Point", "coordinates": [8.32294, 59.43105]}, "properties": {"type": "basemetall", "s2_oh_z": null, "s2_feox_z": null}}, {"type": "Feature", "geometry": {"type": "Point", "coordinates": [8.56298, 59.58334]}, "properties": {"type": "basemetall", "s2_oh_z": 0.55, "s2_feox_z": 1.45}}, {"type": "Feature", "geometry": {"type": "Point", "coordinates": [8.29026, 59.41691]}, "properties": {"type": "basemetall", "s2_oh_z": 0.55, "s2_feox_z": -0.57}}, {"type": "Feature", "geometry": {"type": "Point", "coordinates": [8.62928, 59.51171]}, "properties": {"type": "basemetall", "s2_oh_z": 0.03, "s2_feox_z": 0.27}}, {"type": "Feature", "geometry": {"type": "Point", "coordinates": [8.50821, 59.45384]}, "properties": {"type": "basemetall", "s2_oh_z": null, "s2_feox_z": null}}, {"type": "Feature", "geometry": {"type": "Point", "coordinates": [8.60231, 59.40117]}, "properties": {"type": "basemetall", "s2_oh_z": 0.5, "s2_feox_z": 0.26}}, {"type": "Feature", "geometry": {"type": "Point", "coordinates": [8.32429, 59.38925]}, "properties": {"type": "basemetall", "s2_oh_z": 3.41, "s2_feox_z": -3.66}}, {"type": "Feature", "geometry": {"type": "Point", "coordinates": [8.42093, 59.40049]}, "properties": {"type": "basemetall", "s2_oh_z": null, "s2_feox_z": null}}, {"type": "Feature", "geometry": {"type": "Point", "coordinates": [8.43827, 59.41674]}, "properties": {"type": "basemetall", "s2_oh_z": -0.14, "s2_feox_z": -0.41}}, {"type": "Feature", "geometry": {"type": "Point", "coordinates": [8.37897, 59.48933]}, "properties": {"type": "basemetall", "s2_oh_z": null, "s2_feox_z": null}}, {"type": "Feature", "geometry": {"type": "Point", "coordinates": [8.35267, 59.46343]}, "properties": {"type": "basemetall", "s2_oh_z": null, "s2_feox_z": null}}, {"type": "Feature", "geometry": {"type": "Point", "coordinates": [8.41886, 59.41845]}, "properties": {"type": "basemetall", "s2_oh_z": null, "s2_feox_z": null}}, {"type": "Feature", "geometry": {"type": "Point", "coordinates": [8.42066, 59.41621]}, "properties": {"type": "basemetall", "s2_oh_z": null, "s2_feox_z": null}}, {"type": "Feature", "geometry": {"type": "Point", "coordinates": [8.40376, 59.42511]}, "properties": {"type": "basemetall", "s2_oh_z": null, "s2_feox_z": null}}, {"type": "Feature", "geometry": {"type": "Point", "coordinates": [8.37578, 59.41331]}, "properties": {"type": "basemetall", "s2_oh_z": null, "s2_feox_z": null}}, {"type": "Feature", "geometry": {"type": "Point", "coordinates": [8.34671, 59.41362]}, "properties": {"type": "basemetall", "s2_oh_z": null, "s2_feox_z": null}}, {"type": "Feature", "geometry": {"type": "Point", "coordinates": [8.30899, 59.40579]}, "properties": {"type": "basemetall", "s2_oh_z": -0.76, "s2_feox_z": 0.01}}, {"type": "Feature", "geometry": {"type": "Point", "coordinates": [8.31849, 59.41527]}, "properties": {"type": "basemetall", "s2_oh_z": null, "s2_feox_z": null}}, {"type": "Feature", "geometry": {"type": "Point", "coordinates": [8.33619, 59.41087]}, "properties": {"type": "basemetall", "s2_oh_z": null, "s2_feox_z": null}}, {"type": "Feature", "geometry": {"type": "Point", "coordinates": [8.41458, 59.46243]}, "properties": {"type": "basemetall", "s2_oh_z": 0.29, "s2_feox_z": 1.11}}, {"type": "Feature", "geometry": {"type": "Point", "coordinates": [8.42492, 59.4764]}, "properties": {"type": "basemetall", "s2_oh_z": 0.4, "s2_feox_z": 1.34}}, {"type": "Feature", "geometry": {"type": "Point", "coordinates": [8.31067, 59.45294]}, "properties": {"type": "basemetall", "s2_oh_z": 2.41, "s2_feox_z": 3.28}}, {"type": "Feature", "geometry": {"type": "Point", "coordinates": [8.38584, 59.49059]}, "properties": {"type": "basemetall", "s2_oh_z": 1.24, "s2_feox_z": 0.86}}, {"type": "Feature", "geometry": {"type": "Point", "coordinates": [8.16607, 59.45165]}, "properties": {"type": "basemetall", "s2_oh_z": 0.84, "s2_feox_z": 1.78}}, {"type": "Feature", "geometry": {"type": "Point", "coordinates": [8.19835, 59.42895]}, "properties": {"type": "basemetall", "s2_oh_z": null, "s2_feox_z": null}}, {"type": "Feature", "geometry": {"type": "Point", "coordinates": [8.27625, 59.4128]}, "properties": {"type": "basemetall", "s2_oh_z": 0.28, "s2_feox_z": 0.62}}, {"type": "Feature", "geometry": {"type": "Point", "coordinates": [8.02927, 59.4552]}, "properties": {"type": "basemetall", "s2_oh_z": 1.36, "s2_feox_z": 2.44}}, {"type": "Feature", "geometry": {"type": "Point", "coordinates": [7.91554, 59.45341]}, "properties": {"type": "basemetall", "s2_oh_z": 0.39, "s2_feox_z": 1.36}}, {"type": "Feature", "geometry": {"type": "Point", "coordinates": [8.01225, 59.52467]}, "properties": {"type": "basemetall", "s2_oh_z": 0.69, "s2_feox_z": 1.13}}, {"type": "Feature", "geometry": {"type": "Point", "coordinates": [8.17284, 59.57158]}, "properties": {"type": "basemetall", "s2_oh_z": null, "s2_feox_z": null}}, {"type": "Feature", "geometry": {"type": "Point", "coordinates": [8.50619, 59.41072]}, "properties": {"type": "basemetall", "s2_oh_z": 0.28, "s2_feox_z": -0.27}}, {"type": "Feature", "geometry": {"type": "Point", "coordinates": [8.40005, 59.46908]}, "properties": {"type": "basemetall", "s2_oh_z": null, "s2_feox_z": null}}, {"type": "Feature", "geometry": {"type": "Point", "coordinates": [8.39496, 59.41533]}, "properties": {"type": "basemetall", "s2_oh_z": null, "s2_feox_z": null}}, {"type": "Feature", "geometry": {"type": "Point", "coordinates": [8.44881, 59.58112]}, "properties": {"type": "basemetall", "s2_oh_z": 0.44, "s2_feox_z": 0.25}}, {"type": "Feature", "geometry": {"type": "Point", "coordinates": [8.51561, 59.41788]}, "properties": {"type": "basemetall", "s2_oh_z": -0.21, "s2_feox_z": -0.67}}, {"type": "Feature", "geometry": {"type": "Point", "coordinates": [8.37219, 59.41174]}, "properties": {"type": "basemetall", "s2_oh_z": null, "s2_feox_z": null}}, {"type": "Feature", "geometry": {"type": "Point", "coordinates": [8.59972, 59.39713]}, "properties": {"type": "basemetall", "s2_oh_z": 2.04, "s2_feox_z": -2.76}}, {"type": "Feature", "geometry": {"type": "Point", "coordinates": [8.40547, 59.42827]}, "properties": {"type": "basemetall", "s2_oh_z": 0.45, "s2_feox_z": 0.77}}, {"type": "Feature", "geometry": {"type": "Point", "coordinates": [8.33099, 59.40635]}, "properties": {"type": "basemetall", "s2_oh_z": -0.03, "s2_feox_z": -0.27}}, {"type": "Feature", "geometry": {"type": "Point", "coordinates": [8.34684, 59.45268]}, "properties": {"type": "basemetall", "s2_oh_z": 1.16, "s2_feox_z": 0.72}}, {"type": "Feature", "geometry": {"type": "Point", "coordinates": [8.37754, 59.46181]}, "properties": {"type": "basemetall", "s2_oh_z": null, "s2_feox_z": null}}, {"type": "Feature", "geometry": {"type": "Point", "coordinates": [8.4027, 59.48528]}, "properties": {"type": "basemetall", "s2_oh_z": 2.76, "s2_feox_z": 3.64}}, {"type": "Feature", "geometry": {"type": "Point", "coordinates": [8.35938, 59.48911]}, "properties": {"type": "basemetall", "s2_oh_z": null, "s2_feox_z": null}}, {"type": "Feature", "geometry": {"type": "Point", "coordinates": [8.16356, 59.44625]}, "properties": {"type": "basemetall", "s2_oh_z": null, "s2_feox_z": null}}, {"type": "Feature", "geometry": {"type": "Point", "coordinates": [8.14008, 59.43307]}, "properties": {"type": "basemetall", "s2_oh_z": null, "s2_feox_z": null}}, {"type": "Feature", "geometry": {"type": "Point", "coordinates": [7.98455, 59.50515]}, "properties": {"type": "basemetall", "s2_oh_z": null, "s2_feox_z": null}}, {"type": "Feature", "geometry": {"type": "Point", "coordinates": [8.20355, 59.58255]}, "properties": {"type": "basemetall", "s2_oh_z": 0.87, "s2_feox_z": 0.03}}, {"type": "Feature", "geometry": {"type": "Point", "coordinates": [8.11388, 59.42392]}, "properties": {"type": "basemetall", "s2_oh_z": 5.27, "s2_feox_z": 1.92}}, {"type": "Feature", "geometry": {"type": "Point", "coordinates": [8.14044, 59.34956]}, "properties": {"type": "basemetall", "s2_oh_z": 1.86, "s2_feox_z": 2.71}}, {"type": "Feature", "geometry": {"type": "Point", "coordinates": [8.02538, 59.37569]}, "properties": {"type": "basemetall", "s2_oh_z": 0.03, "s2_feox_z": 0.22}}, {"type": "Feature", "geometry": {"type": "Point", "coordinates": [8.44707, 59.47077]}, "properties": {"type": "basemetall", "s2_oh_z": 0.97, "s2_feox_z": 1.0}}, {"type": "Feature", "geometry": {"type": "Point", "coordinates": [8.30023, 59.4842]}, "properties": {"type": "basemetall", "s2_oh_z": null, "s2_feox_z": null}}, {"type": "Feature", "geometry": {"type": "Point", "coordinates": [8.44988, 59.43264]}, "properties": {"type": "basemetall", "s2_oh_z": 0.59, "s2_feox_z": -0.15}}, {"type": "Feature", "geometry": {"type": "Point", "coordinates": [8.33603, 59.4643]}, "properties": {"type": "basemetall", "s2_oh_z": null, "s2_feox_z": null}}, {"type": "Feature", "geometry": {"type": "Point", "coordinates": [8.45696, 59.53289]}, "properties": {"type": "basemetall", "s2_oh_z": 13.0, "s2_feox_z": 18.94}}, {"type": "Feature", "geometry": {"type": "Point", "coordinates": [8.32023, 59.49072]}, "properties": {"type": "basemetall", "s2_oh_z": 2.27, "s2_feox_z": 4.17}}, {"type": "Feature", "geometry": {"type": "Point", "coordinates": [8.38834, 59.41199]}, "properties": {"type": "basemetall", "s2_oh_z": null, "s2_feox_z": null}}, {"type": "Feature", "geometry": {"type": "Point", "coordinates": [8.4503, 59.54007]}, "properties": {"type": "basemetall", "s2_oh_z": 2.88, "s2_feox_z": 3.22}}, {"type": "Feature", "geometry": {"type": "Point", "coordinates": [8.19849, 59.47125]}, "properties": {"type": "basemetall", "s2_oh_z": 4.13, "s2_feox_z": 6.53}}, {"type": "Feature", "geometry": {"type": "Point", "coordinates": [8.20578, 59.46899]}, "properties": {"type": "basemetall", "s2_oh_z": null, "s2_feox_z": null}}, {"type": "Feature", "geometry": {"type": "Point", "coordinates": [7.94449, 59.53654]}, "properties": {"type": "basemetall", "s2_oh_z": null, "s2_feox_z": null}}, {"type": "Feature", "geometry": {"type": "Point", "coordinates": [8.1286, 59.36505]}, "properties": {"type": "basemetall", "s2_oh_z": 0.36, "s2_feox_z": -0.12}}, {"type": "Feature", "geometry": {"type": "Point", "coordinates": [8.03143, 59.3888]}, "properties": {"type": "basemetall", "s2_oh_z": 2.1, "s2_feox_z": 9.32}}, {"type": "Feature", "geometry": {"type": "Point", "coordinates": [8.17782, 59.46858]}, "properties": {"type": "basemetall", "s2_oh_z": 6.73, "s2_feox_z": 8.81}}, {"type": "Feature", "geometry": {"type": "Point", "coordinates": [8.03261, 59.3712]}, "properties": {"type": "basemetall", "s2_oh_z": 0.2, "s2_feox_z": 0.03}}, {"type": "Feature", "geometry": {"type": "Point", "coordinates": [7.99898, 59.42162]}, "properties": {"type": "basemetall", "s2_oh_z": null, "s2_feox_z": null}}, {"type": "Feature", "geometry": {"type": "Point", "coordinates": [8.10433, 59.5355]}, "properties": {"type": "basemetall", "s2_oh_z": null, "s2_feox_z": null}}, {"type": "Feature", "geometry": {"type": "Point", "coordinates": [8.37315, 59.48376]}, "properties": {"type": "basemetall", "s2_oh_z": null, "s2_feox_z": null}}, {"type": "Feature", "geometry": {"type": "Point", "coordinates": [8.36994, 59.48645]}, "properties": {"type": "basemetall", "s2_oh_z": null, "s2_feox_z": null}}, {"type": "Feature", "geometry": {"type": "Point", "coordinates": [8.34759, 59.4534]}, "properties": {"type": "basemetall", "s2_oh_z": 1.16, "s2_feox_z": 0.99}}, {"type": "Feature", "geometry": {"type": "Point", "coordinates": [8.32481, 59.41325]}, "properties": {"type": "basemetall", "s2_oh_z": 0.55, "s2_feox_z": -0.39}}, {"type": "Feature", "geometry": {"type": "Point", "coordinates": [8.38298, 59.41461]}, "properties": {"type": "basemetall", "s2_oh_z": -0.37, "s2_feox_z": -0.32}}, {"type": "Feature", "geometry": {"type": "Point", "coordinates": [7.87978, 59.48752]}, "properties": {"type": "basemetall", "s2_oh_z": 2.4, "s2_feox_z": -1.99}}, {"type": "Feature", "geometry": {"type": "Point", "coordinates": [8.02981, 59.38046]}, "properties": {"type": "basemetall", "s2_oh_z": null, "s2_feox_z": null}}, {"type": "Feature", "geometry": {"type": "Point", "coordinates": [8.14559, 59.40038]}, "properties": {"type": "basemetall", "s2_oh_z": 0.39, "s2_feox_z": -0.01}}, {"type": "Feature", "geometry": {"type": "Point", "coordinates": [8.1342, 59.39333]}, "properties": {"type": "basemetall", "s2_oh_z": 6.11, "s2_feox_z": 7.22}}, {"type": "Feature", "geometry": {"type": "Point", "coordinates": [7.84469, 59.48867]}, "properties": {"type": "basemetall", "s2_oh_z": null, "s2_feox_z": null}}, {"type": "Feature", "geometry": {"type": "Point", "coordinates": [8.00186, 59.43512]}, "properties": {"type": "basemetall", "s2_oh_z": 0.74, "s2_feox_z": -0.43}}, {"type": "Feature", "geometry": {"type": "Point", "coordinates": [7.85417, 59.44815]}, "properties": {"type": "basemetall", "s2_oh_z": 1.41, "s2_feox_z": 2.58}}, {"type": "Feature", "geometry": {"type": "Point", "coordinates": [8.02592, 59.37756]}, "properties": {"type": "basemetall", "s2_oh_z": 1.63, "s2_feox_z": 0.22}}, {"type": "Feature", "geometry": {"type": "Point", "coordinates": [7.95611, 59.45005]}, "properties": {"type": "basemetall", "s2_oh_z": 1.66, "s2_feox_z": 3.22}}, {"type": "Feature", "geometry": {"type": "Point", "coordinates": [8.26879, 59.50057]}, "properties": {"type": "basemetall", "s2_oh_z": null, "s2_feox_z": null}}, {"type": "Feature", "geometry": {"type": "Point", "coordinates": [7.84858, 59.49002]}, "properties": {"type": "basemetall", "s2_oh_z": null, "s2_feox_z": null}}, {"type": "Feature", "geometry": {"type": "Point", "coordinates": [7.88014, 59.47821]}, "properties": {"type": "basemetall", "s2_oh_z": null, "s2_feox_z": null}}, {"type": "Feature", "geometry": {"type": "Point", "coordinates": [7.98728, 59.38664]}, "properties": {"type": "basemetall", "s2_oh_z": null, "s2_feox_z": null}}, {"type": "Feature", "geometry": {"type": "Point", "coordinates": [7.884, 59.4738]}, "properties": {"type": "basemetall", "s2_oh_z": 0.93, "s2_feox_z": 1.65}}, {"type": "Feature", "geometry": {"type": "Point", "coordinates": [8.25995, 59.48963]}, "properties": {"type": "basemetall", "s2_oh_z": 0.64, "s2_feox_z": 0.19}}, {"type": "Feature", "geometry": {"type": "Point", "coordinates": [8.00204, 59.44835]}, "properties": {"type": "basemetall", "s2_oh_z": -0.0, "s2_feox_z": 0.75}}, {"type": "Feature", "geometry": {"type": "Point", "coordinates": [8.35458, 59.45514]}, "properties": {"type": "basemetall", "s2_oh_z": null, "s2_feox_z": null}}, {"type": "Feature", "geometry": {"type": "Point", "coordinates": [8.36673, 59.41381]}, "properties": {"type": "basemetall", "s2_oh_z": 0.93, "s2_feox_z": -0.1}}, {"type": "Feature", "geometry": {"type": "Point", "coordinates": [8.45107, 59.53091]}, "properties": {"type": "basemetall", "s2_oh_z": 17.95, "s2_feox_z": 6.91}}, {"type": "Feature", "geometry": {"type": "Point", "coordinates": [8.44432, 59.45162]}, "properties": {"type": "basemetall", "s2_oh_z": 0.13, "s2_feox_z": -0.54}}, {"type": "Feature", "geometry": {"type": "Point", "coordinates": [8.14597, 59.40744]}, "properties": {"type": "basemetall", "s2_oh_z": null, "s2_feox_z": null}}, {"type": "Feature", "geometry": {"type": "Point", "coordinates": [8.43154, 59.40807]}, "properties": {"type": "basemetall", "s2_oh_z": -0.16, "s2_feox_z": 0.38}}, {"type": "Feature", "geometry": {"type": "Point", "coordinates": [8.10272, 59.42699]}, "properties": {"type": "basemetall", "s2_oh_z": null, "s2_feox_z": null}}, {"type": "Feature", "geometry": {"type": "Point", "coordinates": [8.15812, 59.40868]}, "properties": {"type": "basemetall", "s2_oh_z": null, "s2_feox_z": null}}, {"type": "Feature", "geometry": {"type": "Point", "coordinates": [8.1492, 59.40241]}, "properties": {"type": "basemetall", "s2_oh_z": 0.61, "s2_feox_z": 2.18}}, {"type": "Feature", "geometry": {"type": "Point", "coordinates": [8.15103, 59.40523]}, "properties": {"type": "basemetall", "s2_oh_z": 1.17, "s2_feox_z": 1.46}}]}