<?xml version="1.0" encoding="UTF-8"?>
<kml xmlns="http://www.opengis.net/kml/2.2"><Document>
<name>GULLØYE – Seljord</name>
<Style id="kA"><IconStyle><color>ff2b39c0</color><scale>1.1</scale></IconStyle></Style>
<Style id="kB"><IconStyle><color>ff227ee6</color><scale>1.1</scale></IconStyle></Style>
<Style id="kC"><IconStyle><color>ff0fc4f1</color><scale>1.1</scale></IconStyle></Style>
<Placemark><name>1A Tønsberg (Tokke)</name><styleUrl>#kA</styleUrl><description>P=97. Os: Heibøåi kommer inn her – grus og tyngre materiale legges i osen og bankehodet nedenfor. Skarp sving – grav på innersvingen og bak store steiner. τ = 88 Pa ≈ 1.8× terskelen: sand og grus flyttes ved flom, gull blir liggende (retensjon). Berggrunn: Meta-arkose (91 % gunstig oppstrøms). Lett: bilvei 51 m unna (Storvegen). Parkering 188 m unna.</description><Point><coordinates>7.97783,59.44448,0</coordinates></Point></Placemark>
<Placemark><name>2A Åmot (Åmotsdalsåi)</name><styleUrl>#kA</styleUrl><description>P=94. Foss/stryk rett oppstrøms (4 m fall på 100 m) – fossekulp og fjell i dagen. Os: Valeåi kommer inn her – grus og tyngre materiale legges i osen og bankehodet nedenfor. Skarp sving – grav på innersvingen og bak store steiner. τ = 117 Pa ≈ 1.0× terskelen: sand og grus flyttes ved flom, gull blir liggende (retensjon). Berggrunn: Kvartsitt (87 % gunstig oppstrøms). NGU-registrert gullforekomst 7.7 km unna. Lett: bilvei 35 m unna (Åmotsdalsvegen). Parkering 1237 m unna.</description><Point><coordinates>8.42355,59.60840,0</coordinates></Point></Placemark>
<Placemark><name>3A Rjukanfoss (Flatdøla)</name><styleUrl>#kA</styleUrl><description>P=94. Foss/stryk rett oppstrøms (9 m fall på 100 m) – fossekulp og fjell i dagen. Os: Spelbekk kommer inn her – grus og tyngre materiale legges i osen og bankehodet nedenfor. τ = 173 Pa ≈ 1.2× terskelen: sand og grus flyttes ved flom, gull blir liggende (retensjon). Berggrunn: Kvartsitt (91 % gunstig oppstrøms). NGU-registrert gullforekomst 3.6 km unna. Lett: bilvei 53 m unna (service).</description><Point><coordinates>8.52348,59.56462,0</coordinates></Point></Placemark>
<Placemark><name>4A Nestestog (Tokke)</name><styleUrl>#kA</styleUrl><description>P=92. Os: sideelv kommer inn her – grus og tyngre materiale legges i osen og bankehodet nedenfor. τ = 23 Pa ≈ 1.0× terskelen: sand og grus flyttes ved flom, gull blir liggende (retensjon). Berggrunn: Meta-arkose (91 % gunstig oppstrøms). Lett: bilvei 62 m unna (service). Parkering 617 m unna.</description><Point><coordinates>8.00649,59.43923,0</coordinates></Point></Placemark>
<Placemark><name>5A Midtveit (Tokke)</name><styleUrl>#kA</styleUrl><description>P=91. Foss/stryk rett oppstrøms (3 m fall på 100 m) – fossekulp og fjell i dagen. τ = 109 Pa ≈ 1.3× terskelen: sand og grus flyttes ved flom, gull blir liggende (retensjon). Berggrunn: Meta-arkose (100 % gunstig oppstrøms). Lett: bilvei 28 m unna (service).</description><Point><coordinates>8.00849,59.59809,0</coordinates></Point></Placemark>
<Placemark><name>6A Gjuvland (Flatdøla)</name><styleUrl>#kA</styleUrl><description>P=91. Foss/stryk rett oppstrøms (7 m fall på 100 m) – fossekulp og fjell i dagen. Os: Tverråi kommer inn her – grus og tyngre materiale legges i osen og bankehodet nedenfor. τ = 149 Pa ≈ 1.3× terskelen: sand og grus flyttes ved flom, gull blir liggende (retensjon). Berggrunn: Kvartsitt (92 % gunstig oppstrøms). NGU-registrert gullforekomst 3.0 km unna. Lett: bilvei 128 m unna (service). Parkering 1057 m unna.</description><Point><coordinates>8.55127,59.56519,0</coordinates></Point></Placemark>
<Placemark><name>7A Solstad (Åmotsdalsåi)</name><styleUrl>#kA</styleUrl><description>P=90. Foss/stryk rett oppstrøms (5 m fall på 100 m) – fossekulp og fjell i dagen. Os: Heiåi kommer inn her – grus og tyngre materiale legges i osen og bankehodet nedenfor. τ = 107 Pa ≈ 1.0× terskelen: sand og grus flyttes ved flom, gull blir liggende (retensjon). Berggrunn: Kvartsitt (87 % gunstig oppstrøms). NGU-registrert gullforekomst 7.6 km unna. Lett: bilvei 85 m unna (Heiåvegen). Parkering 343 m unna.</description><Point><coordinates>8.43025,59.61747,0</coordinates></Point></Placemark>
<Placemark><name>8A Groven (Tokke)</name><styleUrl>#kA</styleUrl><description>P=90. Foss/stryk rett oppstrøms (4 m fall på 100 m) – fossekulp og fjell i dagen. Os: sideelv kommer inn her – grus og tyngre materiale legges i osen og bankehodet nedenfor. Skarp sving – grav på innersvingen og bak store steiner. τ = 200 Pa ≈ 2.2× terskelen: sand og grus flyttes ved flom, gull blir liggende (retensjon). Berggrunn: Meta-arkose (65 % gunstig oppstrøms). Kort gange: bilvei 280 m unna.</description><Point><coordinates>7.99199,59.55062,0</coordinates></Point></Placemark>
<Placemark><name>9A Moland (Mandalselvi)</name><styleUrl>#kA</styleUrl><description>P=88. Foss/stryk rett oppstrøms (12 m fall på 100 m) – fossekulp og fjell i dagen. Os: Åmotsdalsåi kommer inn her – grus og tyngre materiale legges i osen og bankehodet nedenfor. τ = 283 Pa ≈ 1.3× terskelen: sand og grus flyttes ved flom, gull blir liggende (retensjon). Berggrunn: Kvartsitt (100 % gunstig oppstrøms). NGU-registrert gullforekomst 4.3 km unna. Lett: bilvei 62 m unna (track).</description><Point><coordinates>8.48338,59.58100,0</coordinates></Point></Placemark>
<Placemark><name>10B Skogen øvre (Flatdøla)</name><styleUrl>#kB</styleUrl><description>P=87. Foss/stryk rett oppstrøms (10 m fall på 100 m) – fossekulp og fjell i dagen. τ = 222 Pa ≈ 1.7× terskelen: sand og grus flyttes ved flom, gull blir liggende (retensjon). Berggrunn: Kvartsitt (91 % gunstig oppstrøms). NGU-registrert gullforekomst 4.0 km unna. Lett: bilvei 30 m unna (track).</description><Point><coordinates>8.49227,59.57618,0</coordinates></Point></Placemark>
<Placemark><name>11B Geishyl (Tokke)</name><styleUrl>#kB</styleUrl><description>P=87. Bratt stryk like oppstrøms – kulper og fjellsprekker. Os: Dalåi kommer inn her – grus og tyngre materiale legges i osen og bankehodet nedenfor. τ = 135 Pa ≈ 3.0× terskelen: sand og grus flyttes ved flom, gull blir liggende (retensjon). Berggrunn: Meta-arkose (90 % gunstig oppstrøms). Lett: bilvei 107 m unna (track).</description><Point><coordinates>7.95309,59.45094,0</coordinates></Point></Placemark>
<Placemark><name>12B Skogstad (Tokke)</name><styleUrl>#kB</styleUrl><description>P=87. Foss/stryk rett oppstrøms (3 m fall på 100 m) – fossekulp og fjell i dagen. τ = 130 Pa ≈ 1.4× terskelen: sand og grus flyttes ved flom, gull blir liggende (retensjon). Berggrunn: Meta-arkose (100 % gunstig oppstrøms). Lett: bilvei 29 m unna (service).</description><Point><coordinates>8.00255,59.61824,0</coordinates></Point></Placemark>
<Placemark><name>13B Åmdal Burtistog (Åmdalsåi)</name><styleUrl>#kB</styleUrl><description>P=86. Foss/stryk rett oppstrøms (20 m fall på 100 m) – fossekulp og fjell i dagen. Os: sideelv kommer inn her – grus og tyngre materiale legges i osen og bankehodet nedenfor. Skarp sving – grav på innersvingen og bak store steiner. τ = 278 Pa ≈ 1.3× terskelen: sand og grus flyttes ved flom, gull blir liggende (retensjon). Berggrunn: Kvartsitt (66 % gunstig oppstrøms). Lett: bilvei 112 m unna (unclassified). Parkering 892 m unna.</description><Point><coordinates>8.01695,59.36888,0</coordinates></Point></Placemark>
<Placemark><name>14B Lakshøl (Vallaråi)</name><styleUrl>#kB</styleUrl><description>P=85. Foss/stryk rett oppstrøms (6 m fall på 100 m) – fossekulp og fjell i dagen. τ = 137 Pa ≈ 1.2× terskelen: sand og grus flyttes ved flom, gull blir liggende (retensjon). Berggrunn: Konglomerat (100 % gunstig oppstrøms). Lett: bilvei 30 m unna (service). Parkering 1201 m unna.</description><Point><coordinates>8.63615,59.50016,0</coordinates></Point></Placemark>
<Placemark><name>15B Svartepyttholet (Tokke)</name><styleUrl>#kB</styleUrl><description>P=84. Foss/stryk rett oppstrøms (5 m fall på 100 m) – fossekulp og fjell i dagen. Os: sideelv kommer inn her – grus og tyngre materiale legges i osen og bankehodet nedenfor. Skarp sving – grav på innersvingen og bak store steiner. τ = 338 Pa ≈ 3.5× terskelen: sand og grus flyttes ved flom, gull blir liggende (retensjon). Berggrunn: Meta-arkose (88 % gunstig oppstrøms). Lett: bilvei 42 m unna (track).</description><Point><coordinates>7.95811,59.47729,0</coordinates></Point></Placemark>
<Placemark><name>16B Lio (Tokke)</name><styleUrl>#kB</styleUrl><description>P=83. Foss/stryk rett oppstrøms (3 m fall på 100 m) – fossekulp og fjell i dagen. τ = 207 Pa ≈ 2.7× terskelen: sand og grus flyttes ved flom, gull blir liggende (retensjon). Berggrunn: Meta-arkose (89 % gunstig oppstrøms). Lett: bilvei 57 m unna (Storvegen).</description><Point><coordinates>7.94544,59.46453,0</coordinates></Point></Placemark>
<Placemark><name>17B Øvre Hosom (Dalaåi)</name><styleUrl>#kB</styleUrl><description>P=83. Foss/stryk rett oppstrøms (8 m fall på 100 m) – fossekulp og fjell i dagen. Os: Rottjønnbekken kommer inn her – grus og tyngre materiale legges i osen og bankehodet nedenfor. τ = 136 Pa ≈ 1.1× terskelen: sand og grus flyttes ved flom, gull blir liggende (retensjon). Berggrunn: Meta-arkose (89 % gunstig oppstrøms). Lett: bilvei 18 m unna (Dalanvegen).</description><Point><coordinates>8.38909,59.43894,0</coordinates></Point></Placemark>
<Placemark><name>18B Gjuvet (Åmotsdalsåi)</name><styleUrl>#kB</styleUrl><description>P=82. Foss/stryk rett oppstrøms (5 m fall på 100 m) – fossekulp og fjell i dagen. τ = 158 Pa ≈ 1.4× terskelen: sand og grus flyttes ved flom, gull blir liggende (retensjon). Berggrunn: Kvartsitt (88 % gunstig oppstrøms). NGU-registrert gullforekomst 5.5 km unna. Lett: bilvei 25 m unna (Åmotsdalsvegen).</description><Point><coordinates>8.45830,59.59495,0</coordinates></Point></Placemark>
<Placemark><name>19B Jusureidfossen (Dalaåi)</name><styleUrl>#kB</styleUrl><description>P=80. Foss/stryk rett oppstrøms (17 m fall på 100 m) – fossekulp og fjell i dagen. Skarp sving – grav på innersvingen og bak store steiner. τ = 201 Pa ≈ 1.1× terskelen: sand og grus flyttes ved flom, gull blir liggende (retensjon). Berggrunn: Meta-arkose (89 % gunstig oppstrøms). Lett: bilvei 57 m unna (track).</description><Point><coordinates>8.36652,59.44735,0</coordinates></Point></Placemark>
<Placemark><name>20B Tovshus (Rukkeåi)</name><styleUrl>#kB</styleUrl><description>P=80. Foss/stryk rett oppstrøms (14 m fall på 100 m) – fossekulp og fjell i dagen. Os: sideelv kommer inn her – grus og tyngre materiale legges i osen og bankehodet nedenfor. Berggrunn: Meta-arkose (100 % gunstig oppstrøms). Lett: bilvei 103 m unna (service).</description><Point><coordinates>7.89352,59.47185,0</coordinates></Point></Placemark>
</Document></kml>