<?xml version="1.0" encoding="UTF-8"?>
<gpx version="1.1" creator="gulloye" xmlns="http://www.topografix.com/GPX/1/1">
  <wpt lat="59.44448" lon="7.97783"><name>1 A – Tønsberg (Tokke)</name><desc>Os: Heibøåi kommer inn her – grus og tyngre materiale legges i osen og bankehodet nedenfor. Skarp sving – grav på innersvingen og bak store steiner. τ = 88 Pa ≈ 1.8× terskelen: sand og grus flyttes ved flom, gull blir liggende (retensjon). Berggrunn: Meta-arkose (91 % gunstig oppstrøms).</desc></wpt>
  <wpt lat="59.60840" lon="8.42355"><name>2 A – Åmot (Åmotsdalsåi)</name><desc>Foss/stryk rett oppstrøms (4 m fall på 100 m) – fossekulp og fjell i dagen. Os: Valeåi kommer inn her – grus og tyngre materiale legges i osen og bankehodet nedenfor. Skarp sving – grav på innersvingen og bak store steiner. τ = 117 Pa ≈ 1.0× terskelen: sand og grus flyttes ved flom, gull blir liggende (retensjon). Berggrunn: Kvartsitt (87 % gunstig oppstrøms). NGU-registrert gullforekomst 7.7 km unna.</desc></wpt>
  <wpt lat="59.56462" lon="8.52348"><name>3 A – Rjukanfoss (Flatdøla)</name><desc>Foss/stryk rett oppstrøms (9 m fall på 100 m) – fossekulp og fjell i dagen. Os: Spelbekk kommer inn her – grus og tyngre materiale legges i osen og bankehodet nedenfor. τ = 173 Pa ≈ 1.2× terskelen: sand og grus flyttes ved flom, gull blir liggende (retensjon). Berggrunn: Kvartsitt (91 % gunstig oppstrøms). NGU-registrert gullforekomst 3.6 km unna.</desc></wpt>
  <wpt lat="59.43923" lon="8.00649"><name>4 A – Nestestog (Tokke)</name><desc>Os: sideelv kommer inn her – grus og tyngre materiale legges i osen og bankehodet nedenfor. τ = 23 Pa ≈ 1.0× terskelen: sand og grus flyttes ved flom, gull blir liggende (retensjon). Berggrunn: Meta-arkose (91 % gunstig oppstrøms).</desc></wpt>
  <wpt lat="59.59809" lon="8.00849"><name>5 A – Midtveit (Tokke)</name><desc>Foss/stryk rett oppstrøms (3 m fall på 100 m) – fossekulp og fjell i dagen. τ = 109 Pa ≈ 1.3× terskelen: sand og grus flyttes ved flom, gull blir liggende (retensjon). Berggrunn: Meta-arkose (100 % gunstig oppstrøms).</desc></wpt>
  <wpt lat="59.56519" lon="8.55127"><name>6 A – Gjuvland (Flatdøla)</name><desc>Foss/stryk rett oppstrøms (7 m fall på 100 m) – fossekulp og fjell i dagen. Os: Tverråi kommer inn her – grus og tyngre materiale legges i osen og bankehodet nedenfor. τ = 149 Pa ≈ 1.3× terskelen: sand og grus flyttes ved flom, gull blir liggende (retensjon). Berggrunn: Kvartsitt (92 % gunstig oppstrøms). NGU-registrert gullforekomst 3.0 km unna.</desc></wpt>
  <wpt lat="59.61747" lon="8.43025"><name>7 A – Solstad (Åmotsdalsåi)</name><desc>Foss/stryk rett oppstrøms (5 m fall på 100 m) – fossekulp og fjell i dagen. Os: Heiåi kommer inn her – grus og tyngre materiale legges i osen og bankehodet nedenfor. τ = 107 Pa ≈ 1.0× terskelen: sand og grus flyttes ved flom, gull blir liggende (retensjon). Berggrunn: Kvartsitt (87 % gunstig oppstrøms). NGU-registrert gullforekomst 7.6 km unna.</desc></wpt>
  <wpt lat="59.55062" lon="7.99199"><name>8 A – Groven (Tokke)</name><desc>Foss/stryk rett oppstrøms (4 m fall på 100 m) – fossekulp og fjell i dagen. Os: sideelv kommer inn her – grus og tyngre materiale legges i osen og bankehodet nedenfor. Skarp sving – grav på innersvingen og bak store steiner. τ = 200 Pa ≈ 2.2× terskelen: sand og grus flyttes ved flom, gull blir liggende (retensjon). Berggrunn: Meta-arkose (65 % gunstig oppstrøms).</desc></wpt>
  <wpt lat="59.58100" lon="8.48338"><name>9 A – Moland (Mandalselvi)</name><desc>Foss/stryk rett oppstrøms (12 m fall på 100 m) – fossekulp og fjell i dagen. Os: Åmotsdalsåi kommer inn her – grus og tyngre materiale legges i osen og bankehodet nedenfor. τ = 283 Pa ≈ 1.3× terskelen: sand og grus flyttes ved flom, gull blir liggende (retensjon). Berggrunn: Kvartsitt (100 % gunstig oppstrøms). NGU-registrert gullforekomst 4.3 km unna.</desc></wpt>
  <wpt lat="59.57618" lon="8.49227"><name>10 B – Skogen øvre (Flatdøla)</name><desc>Foss/stryk rett oppstrøms (10 m fall på 100 m) – fossekulp og fjell i dagen. τ = 222 Pa ≈ 1.7× terskelen: sand og grus flyttes ved flom, gull blir liggende (retensjon). Berggrunn: Kvartsitt (91 % gunstig oppstrøms). NGU-registrert gullforekomst 4.0 km unna.</desc></wpt>
  <wpt lat="59.45094" lon="7.95309"><name>11 B – Geishyl (Tokke)</name><desc>Bratt stryk like oppstrøms – kulper og fjellsprekker. Os: Dalåi kommer inn her – grus og tyngre materiale legges i osen og bankehodet nedenfor. τ = 135 Pa ≈ 3.0× terskelen: sand og grus flyttes ved flom, gull blir liggende (retensjon). Berggrunn: Meta-arkose (90 % gunstig oppstrøms).</desc></wpt>
  <wpt lat="59.61824" lon="8.00255"><name>12 B – Skogstad (Tokke)</name><desc>Foss/stryk rett oppstrøms (3 m fall på 100 m) – fossekulp og fjell i dagen. τ = 130 Pa ≈ 1.4× terskelen: sand og grus flyttes ved flom, gull blir liggende (retensjon). Berggrunn: Meta-arkose (100 % gunstig oppstrøms).</desc></wpt>
  <wpt lat="59.36888" lon="8.01695"><name>13 B – Åmdal Burtistog (Åmdalsåi)</name><desc>Foss/stryk rett oppstrøms (20 m fall på 100 m) – fossekulp og fjell i dagen. Os: sideelv kommer inn her – grus og tyngre materiale legges i osen og bankehodet nedenfor. Skarp sving – grav på innersvingen og bak store steiner. τ = 278 Pa ≈ 1.3× terskelen: sand og grus flyttes ved flom, gull blir liggende (retensjon). Berggrunn: Kvartsitt (66 % gunstig oppstrøms).</desc></wpt>
  <wpt lat="59.50016" lon="8.63615"><name>14 B – Lakshøl (Vallaråi)</name><desc>Foss/stryk rett oppstrøms (6 m fall på 100 m) – fossekulp og fjell i dagen. τ = 137 Pa ≈ 1.2× terskelen: sand og grus flyttes ved flom, gull blir liggende (retensjon). Berggrunn: Konglomerat (100 % gunstig oppstrøms).</desc></wpt>
  <wpt lat="59.47729" lon="7.95811"><name>15 B – Svartepyttholet (Tokke)</name><desc>Foss/stryk rett oppstrøms (5 m fall på 100 m) – fossekulp og fjell i dagen. Os: sideelv kommer inn her – grus og tyngre materiale legges i osen og bankehodet nedenfor. Skarp sving – grav på innersvingen og bak store steiner. τ = 338 Pa ≈ 3.5× terskelen: sand og grus flyttes ved flom, gull blir liggende (retensjon). Berggrunn: Meta-arkose (88 % gunstig oppstrøms).</desc></wpt>
  <wpt lat="59.46453" lon="7.94544"><name>16 B – Lio (Tokke)</name><desc>Foss/stryk rett oppstrøms (3 m fall på 100 m) – fossekulp og fjell i dagen. τ = 207 Pa ≈ 2.7× terskelen: sand og grus flyttes ved flom, gull blir liggende (retensjon). Berggrunn: Meta-arkose (89 % gunstig oppstrøms).</desc></wpt>
  <wpt lat="59.43894" lon="8.38909"><name>17 B – Øvre Hosom (Dalaåi)</name><desc>Foss/stryk rett oppstrøms (8 m fall på 100 m) – fossekulp og fjell i dagen. Os: Rottjønnbekken kommer inn her – grus og tyngre materiale legges i osen og bankehodet nedenfor. τ = 136 Pa ≈ 1.1× terskelen: sand og grus flyttes ved flom, gull blir liggende (retensjon). Berggrunn: Meta-arkose (89 % gunstig oppstrøms).</desc></wpt>
  <wpt lat="59.59495" lon="8.45830"><name>18 B – Gjuvet (Åmotsdalsåi)</name><desc>Foss/stryk rett oppstrøms (5 m fall på 100 m) – fossekulp og fjell i dagen. τ = 158 Pa ≈ 1.4× terskelen: sand og grus flyttes ved flom, gull blir liggende (retensjon). Berggrunn: Kvartsitt (88 % gunstig oppstrøms). NGU-registrert gullforekomst 5.5 km unna.</desc></wpt>
  <wpt lat="59.44735" lon="8.36652"><name>19 B – Jusureidfossen (Dalaåi)</name><desc>Foss/stryk rett oppstrøms (17 m fall på 100 m) – fossekulp og fjell i dagen. Skarp sving – grav på innersvingen og bak store steiner. τ = 201 Pa ≈ 1.1× terskelen: sand og grus flyttes ved flom, gull blir liggende (retensjon). Berggrunn: Meta-arkose (89 % gunstig oppstrøms).</desc></wpt>
  <wpt lat="59.47185" lon="7.89352"><name>20 B – Tovshus (Rukkeåi)</name><desc>Foss/stryk rett oppstrøms (14 m fall på 100 m) – fossekulp og fjell i dagen. Os: sideelv kommer inn her – grus og tyngre materiale legges i osen og bankehodet nedenfor. Berggrunn: Meta-arkose (100 % gunstig oppstrøms).</desc></wpt>
</gpx>