{
"type": "FeatureCollection",
"features": [
{
"type": "Feature",
"geometry": {
"type": "Point",
"coordinates": [
16.7313,
68.31204
]
},
"properties": {
"elv": "Børsvatnelva",
"km": 0.5,
"z": 79.63,
"S": 0.0,
"Q": 14.79,
"w": 34.61,
"w_q": 11.54,
"h": 0.47,
"tau": 22.14,
"tau_c": 50.59,
"omega": 20.23,
"M": 0.44,
"D": 0.44,
"R": 0.12,
"sving": 0.9,
"os": 0.72,
"os_navn": "sideelv",
"foss": 0.27,
"foss_drop": 0.0,
"juv": 0.0,
"B": 0.94,
"frac_fav": 1.0,
"d_gull_km": 49.99,
"berg": "Glimmerskifer | Granatglimmergneis med lag av kvarts-feltspatgneis | Øvre kaledonske dekkeserie",
"p_raw": 0.38,
"A_km2": 82.18,
"gate": 1.0,
"P": 100.0,
"rank": 1,
"klasse": "A",
"d_vei_m": 232,
"vei_navn": "Melkedalsveien",
"d_sti_m": 1181,
"d_parkering_m": 1717,
"adkomst": "Kort gange: bilvei 232 m unna.",
"navn": "Bruksåsmoen (Børsvatnelva)",
"hvorfor": "Os: sideelv kommer inn her – grus og tyngre materiale legges i osen og bankehodet nedenfor. Skarp sving – grav på innersvingen og bak store steiner. Strømeffekten faller 44 % over strekningen – tungt materiale slipper her. Berggrunn: Glimmerskifer (100 % gunstig oppstrøms).",
"s2_anomali": null,
"s2_feox_z": null,
"satsjekk": "Automatisk bildeanalyse: tett vegetasjon – elva delvis skjult."
}
},
{
"type": "Feature",
"geometry": {
"type": "Point",
"coordinates": [
16.69356,
68.2661
]
},
"properties": {
"elv": "Sørelva",
"km": 1.8,
"z": 33.57,
"S": 0.02,
"Q": 16.52,
"w": 36.82,
"w_q": 12.19,
"h": 0.34,
"tau": 50.75,
"tau_c": 89.83,
"omega": 66.94,
"M": 0.56,
"D": -0.0,
"R": 0.27,
"sving": 0.21,
"os": 0.73,
"os_navn": "Ruonkaelva",
"foss": 1.0,
"foss_drop": 4.32,
"juv": 0.0,
"B": 0.95,
"frac_fav": 1.0,
"d_gull_km": 48.64,
"berg": "Granatglimmerskifer | Granatglimmergneis eller -skifer, delvis kyanittførende | Øvre kaledonske dekkeserie",
"p_raw": 0.34,
"A_km2": 91.79,
"gate": 1.0,
"P": 90.33,
"rank": 2,
"klasse": "A",
"d_vei_m": 660,
"vei_navn": "service",
"d_sti_m": 3382,
"d_parkering_m": 3152,
"adkomst": "Gange 0.7 km fra nærmeste bilvei.",
"navn": "Kjønnstad (Sørelva)",
"hvorfor": "Foss/stryk rett oppstrøms (4 m fall på 100 m) – fossekulp og fjell i dagen. Os: Ruonkaelva kommer inn her – grus og tyngre materiale legges i osen og bankehodet nedenfor. Berggrunn: Granatglimmerskifer (100 % gunstig oppstrøms).",
"s2_anomali": 2.08,
"s2_feox_z": -1.13,
"satsjekk": "Automatisk bildeanalyse: dypt/mørkt vann, tett vegetasjon – elva delvis skjult."
}
},
{
"type": "Feature",
"geometry": {
"type": "Point",
"coordinates": [
16.70309,
68.2278
]
},
"properties": {
"elv": "Melkevasselva",
"km": 0.2,
"z": 91.79,
"S": 0.02,
"Q": 12.81,
"w": 29.77,
"w_q": 10.74,
"h": 0.29,
"tau": 67.31,
"tau_c": 111.86,
"omega": 99.56,
"M": 0.6,
"D": 0.03,
"R": 0.31,
"sving": 0.21,
"os": 0.49,
"os_navn": "sideelv",
"foss": 1.0,
"foss_drop": 3.03,
"juv": 0.0,
"B": 0.92,
"frac_fav": 1.0,
"d_gull_km": 46.4,
"berg": "Glimmerskifer | Granatglimmergneis med lag av kvarts-feltspatgneis | Øvre kaledonske dekkeserie",
"p_raw": 0.31,
"A_km2": 71.16,
"gate": 1.0,
"P": 83.28,
"rank": 3,
"klasse": "A",
"d_vei_m": 1121,
"vei_navn": "service",
"d_sti_m": 5230,
"d_parkering_m": 7441,
"adkomst": "Gange 1.1 km fra nærmeste bilvei.",
"navn": "Melkevasselva, km 0.2",
"hvorfor": "Foss/stryk rett oppstrøms (3 m fall på 100 m) – fossekulp og fjell i dagen. Berggrunn: Glimmerskifer (100 % gunstig oppstrøms).",
"s2_anomali": 3.76,
"s2_feox_z": -1.99,
"satsjekk": "Automatisk bildeanalyse: dypt/mørkt vann, tett vegetasjon – elva delvis skjult."
}
},
{
"type": "Feature",
"geometry": {
"type": "Point",
"coordinates": [
16.56493,
68.36698
]
},
"properties": {
"elv": "bekk",
"km": 3.0,
"z": 40.58,
"S": 0.04,
"Q": 7.07,
"w": 16.76,
"w_q": 7.98,
"h": 0.26,
"tau": 88.24,
"tau_c": 136.48,
"omega": 145.26,
"M": 0.65,
"D": -0.0,
"R": 0.37,
"sving": 0.25,
"os": 0.41,
"os_navn": "Snøgropelva",
"foss": 1.0,
"foss_drop": 4.51,
"juv": 0.0,
"B": 0.86,
"frac_fav": 1.0,
"d_gull_km": 59.12,
"berg": "Glimmerskifer | Granatglimmergneis med lag av kvarts-feltspatgneis | Øvre kaledonske dekkeserie",
"p_raw": 0.3,
"A_km2": 39.27,
"gate": 1.0,
"P": 78.46,
"rank": 4,
"klasse": "A",
"d_vei_m": 19,
"vei_navn": "Kjeldemarkveien",
"d_sti_m": 636,
"d_parkering_m": 3997,
"adkomst": "Lett: bilvei 19 m unna (Kjeldemarkveien).",
"navn": "Lauvdalen (bekk)",
"hvorfor": "Foss/stryk rett oppstrøms (5 m fall på 100 m) – fossekulp og fjell i dagen. Berggrunn: Glimmerskifer (100 % gunstig oppstrøms).",
"s2_anomali": null,
"s2_feox_z": null,
"satsjekk": "Automatisk bildeanalyse: dypt/mørkt vann, tett vegetasjon – elva delvis skjult."
}
},
{
"type": "Feature",
"geometry": {
"type": "Point",
"coordinates": [
16.70895,
68.23457
]
},
"properties": {
"elv": "Melkevasselva",
"km": 1.1,
"z": 60.53,
"S": 0.03,
"Q": 13.07,
"w": 31.52,
"w_q": 10.84,
"h": 0.25,
"tau": 86.25,
"tau_c": 135.83,
"omega": 141.4,
"M": 0.63,
"D": 0.05,
"R": 0.36,
"sving": 0.71,
"os": 0.0,
"os_navn": "",
"foss": 0.72,
"foss_drop": 10.41,
"juv": 0.0,
"B": 0.93,
"frac_fav": 1.0,
"d_gull_km": 46.49,
"berg": "Glimmerskifer | Granatglimmergneis med lag av kvarts-feltspatgneis | Øvre kaledonske dekkeserie",
"p_raw": 0.29,
"A_km2": 72.59,
"gate": 1.0,
"P": 77.21,
"rank": 5,
"klasse": "A",
"d_vei_m": 343,
"vei_navn": "service",
"d_sti_m": 5314,
"d_parkering_m": 6716,
"adkomst": "Kort gange: bilvei 343 m unna.",
"navn": "Lyngmo (Melkevasselva)",
"hvorfor": "Foss/stryk rett oppstrøms (10 m fall på 100 m) – fossekulp og fjell i dagen. Skarp sving – grav på innersvingen og bak store steiner. Berggrunn: Glimmerskifer (100 % gunstig oppstrøms).",
"s2_anomali": 3.32,
"s2_feox_z": -1.91,
"satsjekk": "Automatisk bildeanalyse: dypt/mørkt vann, tett vegetasjon – elva delvis skjult."
}
},
{
"type": "Feature",
"geometry": {
"type": "Point",
"coordinates": [
16.58145,
68.38184
]
},
"properties": {
"elv": "Kjeldelva - Gáldojohka",
"km": 5.1,
"z": 29.19,
"S": 0.01,
"Q": 8.12,
"w": 25.65,
"w_q": 8.55,
"h": 0.31,
"tau": 32.64,
"tau_c": 75.97,
"omega": 33.81,
"M": 0.43,
"D": 0.06,
"R": 0.11,
"sving": 0.72,
"os": 0.74,
"os_navn": "sideelv",
"foss": 0.51,
"foss_drop": 3.94,
"juv": 0.0,
"B": 0.8,
"frac_fav": 0.85,
"d_gull_km": 59.55,
"berg": "Marmor | Kalkspatmarmor, mørk grå, kalkglimmerskifer, amfibolitt og grafittskifer | Øverste kaledonske dekkeserie",
"p_raw": 0.27,
"A_km2": 45.13,
"gate": 1.0,
"P": 71.56,
"rank": 6,
"klasse": "A",
"d_vei_m": 151,
"vei_navn": "Kjeldemarkveien",
"d_sti_m": 2290,
"d_parkering_m": 3291,
"adkomst": "Kort gange: bilvei 151 m unna.",
"navn": "Grønli (Kjeldelva - Gáldojohka)",
"hvorfor": "Foss/stryk rett oppstrøms (4 m fall på 100 m) – fossekulp og fjell i dagen. Os: sideelv kommer inn her – grus og tyngre materiale legges i osen og bankehodet nedenfor. Skarp sving – grav på innersvingen og bak store steiner. Berggrunn: Marmor (85 % gunstig oppstrøms).",
"s2_anomali": null,
"s2_feox_z": null,
"satsjekk": "Automatisk bildeanalyse: dypt/mørkt vann, tett vegetasjon – elva delvis skjult."
}
},
{
"type": "Feature",
"geometry": {
"type": "Point",
"coordinates": [
16.92939,
68.34373
]
},
"properties": {
"elv": "Arneselva",
"km": 1.8,
"z": 57.36,
"S": 0.2,
"Q": 1.67,
"w": 11.63,
"w_q": 3.88,
"h": 0.08,
"tau": 152.89,
"tau_c": 322.02,
"omega": 275.76,
"M": 0.47,
"D": 0.14,
"R": 0.16,
"sving": 0.05,
"os": 0.95,
"os_navn": "sideelv",
"foss": 1.0,
"foss_drop": 28.3,
"juv": 0.0,
"B": 0.71,
"frac_fav": 1.0,
"d_gull_km": 45.9,
"berg": "Granatglimmerskifer | Granatglimmergneis eller -skifer, delvis kyanittførende | Øvre kaledonske dekkeserie",
"p_raw": 0.26,
"A_km2": 9.29,
"gate": 1.0,
"P": 69.54,
"rank": 7,
"klasse": "B",
"d_vei_m": 41,
"vei_navn": "service",
"d_sti_m": 2874,
"d_parkering_m": 2952,
"adkomst": "Lett: bilvei 41 m unna (service).",
"navn": "Skjellneset (Arneselva)",
"hvorfor": "Foss/stryk rett oppstrøms (28 m fall på 100 m) – fossekulp og fjell i dagen. Os: sideelv kommer inn her – grus og tyngre materiale legges i osen og bankehodet nedenfor. Berggrunn: Granatglimmerskifer (100 % gunstig oppstrøms).",
"s2_anomali": null,
"s2_feox_z": null,
"satsjekk": "Automatisk bildeanalyse: dypt/mørkt vann, tett vegetasjon – elva delvis skjult."
}
},
{
"type": "Feature",
"geometry": {
"type": "Point",
"coordinates": [
16.71002,
68.25817
]
},
"properties": {
"elv": "Sørelva",
"km": 0.5,
"z": 50.26,
"S": 0.02,
"Q": 16.22,
"w": 33.01,
"w_q": 12.08,
"h": 0.35,
"tau": 57.27,
"tau_c": 94.12,
"omega": 80.49,
"M": 0.61,
"D": 0.0,
"R": 0.32,
"sving": 0.18,
"os": 0.09,
"os_navn": "Tunelva",
"foss": 1.0,
"foss_drop": 6.1,
"juv": 0.0,
"B": 0.95,
"frac_fav": 1.0,
"d_gull_km": 47.62,
"berg": "Granatglimmerskifer | Granatglimmergneis eller -skifer, delvis kyanittførende | Øvre kaledonske dekkeserie",
"p_raw": 0.26,
"A_km2": 90.11,
"gate": 1.0,
"P": 68.37,
"rank": 8,
"klasse": "B",
"d_vei_m": 56,
"vei_navn": "service",
"d_sti_m": 4386,
"d_parkering_m": 4133,
"adkomst": "Lett: bilvei 56 m unna (service).",
"navn": "Fosslund (Sørelva)",
"hvorfor": "Foss/stryk rett oppstrøms (6 m fall på 100 m) – fossekulp og fjell i dagen. Berggrunn: Granatglimmerskifer (100 % gunstig oppstrøms).",
"s2_anomali": 3.12,
"s2_feox_z": 1.16,
"satsjekk": "Automatisk bildeanalyse: dypt/mørkt vann, tett vegetasjon – elva delvis skjult."
}
},
{
"type": "Feature",
"geometry": {
"type": "Point",
"coordinates": [
16.86227,
68.27887
]
},
"properties": {
"elv": "Stokkedalelva",
"km": 1.8,
"z": 219.62,
"S": 0.31,
"Q": 1.32,
"w": 10.09,
"w_q": 3.44,
"h": 0.07,
"tau": 196.88,
"tau_c": 364.2,
"omega": 390.37,
"M": 0.54,
"D": 0.0,
"R": 0.24,
"sving": 0.32,
"os": 0.77,
"os_navn": "sideelv",
"foss": 1.0,
"foss_drop": 42.92,
"juv": 0.0,
"B": 0.65,
"frac_fav": 0.91,
"d_gull_km": 43.44,
"berg": "Glimmerskifer | Granatglimmergneis med lag av kvarts-feltspatgneis | Øvre kaledonske dekkeserie",
"p_raw": 0.24,
"A_km2": 7.31,
"gate": 1.0,
"P": 64.33,
"rank": 9,
"klasse": "B",
"d_vei_m": 4059,
"vei_navn": "unclassified",
"d_sti_m": 3052,
"d_parkering_m": 6645,
"adkomst": "Avsides: 4.1 km fra bilvei – planlegg dagstur.",
"navn": "Stokkedalen (Stokkedalelva)",
"hvorfor": "Foss/stryk rett oppstrøms (43 m fall på 100 m) – fossekulp og fjell i dagen. Os: sideelv kommer inn her – grus og tyngre materiale legges i osen og bankehodet nedenfor. Berggrunn: Glimmerskifer (91 % gunstig oppstrøms).",
"s2_anomali": 2.69,
"s2_feox_z": -0.54,
"satsjekk": "Automatisk bildeanalyse: tett vegetasjon – elva delvis skjult."
}
},
{
"type": "Feature",
"geometry": {
"type": "Point",
"coordinates": [
16.87828,
68.24754
]
},
"properties": {
"elv": "bekk",
"km": 2.1,
"z": 112.21,
"S": 0.28,
"Q": 1.33,
"w": 10.52,
"w_q": 3.46,
"h": 0.07,
"tau": 181.14,
"tau_c": 364.2,
"omega": 345.02,
"M": 0.5,
"D": 0.03,
"R": 0.18,
"sving": 0.54,
"os": 0.44,
"os_navn": "Kvannmoelva",
"foss": 1.0,
"foss_drop": 33.2,
"juv": 0.0,
"B": 0.69,
"frac_fav": 1.0,
"d_gull_km": 40.98,
"berg": "Kalkglimmerskifer | Kalkglimmerskifer/kalksilikatbergart, delvis grafitt-/sulfidførende | Øvre kaledonske dekkeserie",
"p_raw": 0.24,
"A_km2": 7.37,
"gate": 1.0,
"P": 63.87,
"rank": 10,
"klasse": "B",
"d_vei_m": 4301,
"vei_navn": "Melkedalsveien",
"d_sti_m": 6142,
"d_parkering_m": 9454,
"adkomst": "Avsides: 4.3 km fra bilvei – planlegg dagstur.",
"navn": "Kvannmoen (bekk)",
"hvorfor": "Foss/stryk rett oppstrøms (33 m fall på 100 m) – fossekulp og fjell i dagen. Skarp sving – grav på innersvingen og bak store steiner. Berggrunn: Kalkglimmerskifer (100 % gunstig oppstrøms).",
"s2_anomali": null,
"s2_feox_z": null,
"satsjekk": "Automatisk bildeanalyse: dypt/mørkt vann, tett vegetasjon – elva delvis skjult."
}
},
{
"type": "Feature",
"geometry": {
"type": "Point",
"coordinates": [
16.92724,
68.24257
]
},
"properties": {
"elv": "Botnelva",
"km": 2.0,
"z": 107.05,
"S": 0.18,
"Q": 1.73,
"w": 11.46,
"w_q": 3.94,
"h": 0.08,
"tau": 148.28,
"tau_c": 308.61,
"omega": 265.61,
"M": 0.48,
"D": 0.0,
"R": 0.17,
"sving": 0.85,
"os": 0.08,
"os_navn": "Tjuvelva",
"foss": 1.0,
"foss_drop": 26.5,
"juv": 0.0,
"B": 0.72,
"frac_fav": 1.0,
"d_gull_km": 38.97,
"berg": "Granatglimmerskifer | Granatglimmergneis eller -skifer, delvis kyanittførende | Øvre kaledonske dekkeserie",
"p_raw": 0.24,
"A_km2": 9.6,
"gate": 1.0,
"P": 62.73,
"rank": 11,
"klasse": "B",
"d_vei_m": 6088,
"vei_navn": "Melkedalsveien",
"d_sti_m": 7789,
"d_parkering_m": 11055,
"adkomst": "Avsides: 6.1 km fra bilvei – planlegg dagstur.",
"navn": "Botnmoen (Botnelva)",
"hvorfor": "Foss/stryk rett oppstrøms (27 m fall på 100 m) – fossekulp og fjell i dagen. Skarp sving – grav på innersvingen og bak store steiner. Berggrunn: Granatglimmerskifer (100 % gunstig oppstrøms).",
"s2_anomali": null,
"s2_feox_z": null,
"satsjekk": "Automatisk bildeanalyse: dypt/mørkt vann, tett vegetasjon – elva delvis skjult."
}
},
{
"type": "Feature",
"geometry": {
"type": "Point",
"coordinates": [
16.6719,
68.40479
]
},
"properties": {
"elv": "Skarnesdalelva",
"km": 6.6,
"z": 5.11,
"S": 0.07,
"Q": 3.21,
"w": 15.88,
"w_q": 5.38,
"h": 0.13,
"tau": 93.4,
"tau_c": 195.55,
"omega": 142.95,
"M": 0.48,
"D": 0.0,
"R": 0.16,
"sving": 0.44,
"os": 0.72,
"os_navn": "sideelv",
"foss": 1.0,
"foss_drop": 14.58,
"juv": 0.0,
"B": 0.61,
"frac_fav": 0.62,
"d_gull_km": 58.3,
"berg": "Granatglimmerskifer | Granatglimmerskifer, biotitt-hornblendeskifer og  -gneis, båndet og med øye- og slirestruktur | Øverste kaledonske dekkeserie",
"p_raw": 0.22,
"A_km2": 17.83,
"gate": 1.0,
"P": 58.54,
"rank": 12,
"klasse": "B",
"d_vei_m": 38,
"vei_navn": "service",
"d_sti_m": 375,
"d_parkering_m": 290,
"adkomst": "Lett: bilvei 38 m unna (service). Parkering 290 m unna.",
"navn": "Kjeldebotn - Gáldovuotna (Skarnesdalelva)",
"hvorfor": "Foss/stryk rett oppstrøms (15 m fall på 100 m) – fossekulp og fjell i dagen. Os: sideelv kommer inn her – grus og tyngre materiale legges i osen og bankehodet nedenfor. Berggrunn: Granatglimmerskifer (62 % gunstig oppstrøms).",
"s2_anomali": 0.9,
"s2_feox_z": 0.74,
"satsjekk": "Automatisk bildeanalyse: tett vegetasjon – elva delvis skjult."
}
},
{
"type": "Feature",
"geometry": {
"type": "Point",
"coordinates": [
16.71082,
68.39502
]
},
"properties": {
"elv": "Skarnesdalelva",
"km": 3.4,
"z": 91.67,
"S": 0.06,
"Q": 2.6,
"w": 14.0,
"w_q": 4.84,
"h": 0.14,
"tau": 74.29,
"tau_c": 172.13,
"omega": 101.67,
"M": 0.43,
"D": 0.21,
"R": 0.12,
"sving": 0.19,
"os": 0.9,
"os_navn": "Kvannelva",
"foss": 1.0,
"foss_drop": 12.83,
"juv": 0.0,
"B": 0.56,
"frac_fav": 0.54,
"d_gull_km": 56.38,
"berg": "Granatglimmerskifer | Granatglimmerskifer, biotitt-hornblendeskifer og  -gneis, båndet og med øye- og slirestruktur | Øverste kaledonske dekkeserie",
"p_raw": 0.21,
"A_km2": 14.44,
"gate": 1.0,
"P": 56.89,
"rank": 13,
"klasse": "B",
"d_vei_m": 227,
"vei_navn": "Skårnesdalsveien",
"d_sti_m": 1476,
"d_parkering_m": 1989,
"adkomst": "Kort gange: bilvei 227 m unna.",
"navn": "Furuhaugfossen (Skarnesdalelva)",
"hvorfor": "Foss/stryk rett oppstrøms (13 m fall på 100 m) – fossekulp og fjell i dagen. Os: Kvannelva kommer inn her – grus og tyngre materiale legges i osen og bankehodet nedenfor. Berggrunn: Granatglimmerskifer (54 % gunstig oppstrøms).",
"s2_anomali": null,
"s2_feox_z": null,
"satsjekk": "Automatisk bildeanalyse: dypt/mørkt vann, tett vegetasjon – elva delvis skjult."
}
},
{
"type": "Feature",
"geometry": {
"type": "Point",
"coordinates": [
16.9345,
68.33202
]
},
"properties": {
"elv": "Arneselva",
"km": 0.4,
"z": 372.65,
"S": 0.16,
"Q": 1.24,
"w": 10.0,
"w_q": 3.33,
"h": 0.08,
"tau": 120.12,
"tau_c": 289.23,
"omega": 190.97,
"M": 0.42,
"D": 0.0,
"R": 0.1,
"sving": 0.08,
"os": 0.8,
"os_navn": "sideelv",
"foss": 1.0,
"foss_drop": 23.06,
"juv": 0.0,
"B": 0.68,
"frac_fav": 1.0,
"d_gull_km": 44.84,
"berg": "Granatglimmerskifer | Granatglimmergneis eller -skifer, delvis kyanittførende | Øvre kaledonske dekkeserie",
"p_raw": 0.21,
"A_km2": 6.86,
"gate": 1.0,
"P": 55.66,
"rank": 14,
"klasse": "B",
"d_vei_m": 280,
"vei_navn": "service",
"d_sti_m": 3134,
"d_parkering_m": 3186,
"adkomst": "Kort gange: bilvei 280 m unna.",
"navn": "Arneslia-Bruavann (Arneselva)",
"hvorfor": "Foss/stryk rett oppstrøms (23 m fall på 100 m) – fossekulp og fjell i dagen. Os: sideelv kommer inn her – grus og tyngre materiale legges i osen og bankehodet nedenfor. Berggrunn: Granatglimmerskifer (100 % gunstig oppstrøms).",
"s2_anomali": 2.41,
"s2_feox_z": 1.21,
"satsjekk": "Automatisk bildeanalyse: dypt/mørkt vann, tett vegetasjon – elva delvis skjult."
}
},
{
"type": "Feature",
"geometry": {
"type": "Point",
"coordinates": [
16.86372,
68.23643
]
},
"properties": {
"elv": "Kvannmoelva",
"km": 1.0,
"z": 407.68,
"S": 0.06,
"Q": 0.95,
"w": 8.75,
"w_q": 2.92,
"h": 0.1,
"tau": 56.97,
"tau_c": 179.2,
"omega": 64.33,
"M": 0.32,
"D": 0.0,
"R": 0.04,
"sving": 0.53,
"os": 0.5,
"os_navn": "sideelv",
"foss": 1.0,
"foss_drop": 4.28,
"juv": 0.0,
"B": 0.65,
"frac_fav": 1.0,
"d_gull_km": 40.88,
"berg": "Kalkglimmerskifer | Kalkglimmerskifer/kalksilikatbergart, delvis grafitt-/sulfidførende | Øvre kaledonske dekkeserie",
"p_raw": 0.2,
"A_km2": 5.27,
"gate": 1.0,
"P": 54.44,
"rank": 15,
"klasse": "B",
"d_vei_m": 3384,
"vei_navn": "Melkedalsveien",
"d_sti_m": 6994,
"d_parkering_m": 9733,
"adkomst": "Avsides: 3.4 km fra bilvei – planlegg dagstur.",
"navn": "Kvannmoelva, km 1.0",
"hvorfor": "Foss/stryk rett oppstrøms (4 m fall på 100 m) – fossekulp og fjell i dagen. Os: sideelv kommer inn her – grus og tyngre materiale legges i osen og bankehodet nedenfor. Skarp sving – grav på innersvingen og bak store steiner. Berggrunn: Kalkglimmerskifer (100 % gunstig oppstrøms).",
"s2_anomali": 1.42,
"s2_feox_z": 1.36,
"satsjekk": "Automatisk bildeanalyse: tett vegetasjon – elva delvis skjult."
}
},
{
"type": "Feature",
"geometry": {
"type": "Point",
"coordinates": [
16.93642,
68.23555
]
},
"properties": {
"elv": "Botnelva",
"km": 1.0,
"z": 192.39,
"S": 0.1,
"Q": 1.44,
"w": 11.05,
"w_q": 3.61,
"h": 0.09,
"tau": 91.95,
"tau_c": 233.08,
"omega": 131.36,
"M": 0.39,
"D": 0.34,
"R": 0.08,
"sving": 0.33,
"os": 0.0,
"os_navn": "",
"foss": 1.0,
"foss_drop": 28.37,
"juv": 0.0,
"B": 0.7,
"frac_fav": 1.0,
"d_gull_km": 38.23,
"berg": "Granatglimmerskifer | Granatglimmergneis eller -skifer, delvis kyanittførende | Øvre kaledonske dekkeserie",
"p_raw": 0.2,
"A_km2": 8.02,
"gate": 1.0,
"P": 53.56,
"rank": 16,
"klasse": "B",
"d_vei_m": 6372,
"vei_navn": "Melkedalsveien",
"d_sti_m": 8630,
"d_parkering_m": 11908,
"adkomst": "Avsides: 6.4 km fra bilvei – planlegg dagstur.",
"navn": "Botnelva, km 1.0",
"hvorfor": "Foss/stryk rett oppstrøms (28 m fall på 100 m) – fossekulp og fjell i dagen. Strømeffekten faller 34 % over strekningen – tungt materiale slipper her. Berggrunn: Granatglimmerskifer (100 % gunstig oppstrøms).",
"s2_anomali": null,
"s2_feox_z": null,
"satsjekk": "Automatisk bildeanalyse: dypt/mørkt vann, tett vegetasjon – elva delvis skjult."
}
},
{
"type": "Feature",
"geometry": {
"type": "Point",
"coordinates": [
16.60122,
68.39644
]
},
"properties": {
"elv": "Kjeldelva - Gáldojohka",
"km": 7.2,
"z": 16.01,
"S": 0.01,
"Q": 8.65,
"w": 26.51,
"w_q": 8.82,
"h": 0.31,
"tau": 34.52,
"tau_c": 78.09,
"omega": 36.8,
"M": 0.44,
"D": 0.1,
"R": 0.13,
"sving": 0.26,
"os": 0.05,
"os_navn": "sideelv",
"foss": 1.0,
"foss_drop": 3.49,
"juv": 0.0,
"B": 0.81,
"frac_fav": 0.85,
"d_gull_km": 59.91,
"berg": "Marmor | Kalkspatmarmor, mørk grå, kalkglimmerskifer, amfibolitt og grafittskifer | Øverste kaledonske dekkeserie",
"p_raw": 0.2,
"A_km2": 48.07,
"gate": 1.0,
"P": 53.31,
"rank": 17,
"klasse": "B",
"d_vei_m": 320,
"vei_navn": "service",
"d_sti_m": 1818,
"d_parkering_m": 2548,
"adkomst": "Kort gange: bilvei 320 m unna.",
"navn": "Furuholt (Kjeldelva - Gáldojohka)",
"hvorfor": "Foss/stryk rett oppstrøms (3 m fall på 100 m) – fossekulp og fjell i dagen. Berggrunn: Marmor (85 % gunstig oppstrøms).",
"s2_anomali": null,
"s2_feox_z": null,
"satsjekk": "Automatisk bildeanalyse: dypt/mørkt vann, tett vegetasjon – elva delvis skjult."
}
},
{
"type": "Feature",
"geometry": {
"type": "Point",
"coordinates": [
16.87767,
68.28385
]
},
"properties": {
"elv": "bekk",
"km": 0.7,
"z": 421.69,
"S": 0.03,
"Q": 1.3,
"w": 10.02,
"w_q": 3.42,
"h": 0.13,
"tau": 39.17,
"tau_c": 126.93,
"omega": 38.55,
"M": 0.31,
"D": 0.07,
"R": 0.03,
"sving": 0.13,
"os": 0.88,
"os_navn": "sideelv",
"foss": 1.0,
"foss_drop": 6.91,
"juv": 0.0,
"B": 0.61,
"frac_fav": 0.81,
"d_gull_km": 43.24,
"berg": "Granatglimmerskifer | Granatglimmergneis eller -skifer, delvis kyanittførende | Øvre kaledonske dekkeserie",
"p_raw": 0.2,
"A_km2": 7.2,
"gate": 1.0,
"P": 52.28,
"rank": 18,
"klasse": "B",
"d_vei_m": 4270,
"vei_navn": "unclassified",
"d_sti_m": 2761,
"d_parkering_m": 6135,
"adkomst": "Avsides: 4.3 km fra bilvei – planlegg dagstur.",
"navn": "bekk, km 0.7",
"hvorfor": "Foss/stryk rett oppstrøms (7 m fall på 100 m) – fossekulp og fjell i dagen. Os: sideelv kommer inn her – grus og tyngre materiale legges i osen og bankehodet nedenfor. Berggrunn: Granatglimmerskifer (81 % gunstig oppstrøms).",
"s2_anomali": 2.15,
"s2_feox_z": 2.15,
"satsjekk": "Automatisk bildeanalyse: grus/sandbanke synlig."
}
},
{
"type": "Feature",
"geometry": {
"type": "Point",
"coordinates": [
16.86849,
68.27206
]
},
"properties": {
"elv": "bekk",
"km": 1.1,
"z": 129.88,
"S": 0.53,
"Q": 1.04,
"w": 7.91,
"w_q": 3.06,
"h": 0.06,
"tau": 290.02,
"tau_c": 364.2,
"omega": 679.31,
"M": 0.8,
"D": 0.0,
"R": 0.57,
"sving": 0.18,
"os": 0.0,
"os_navn": "",
"foss": 1.0,
"foss_drop": 77.45,
"juv": 0.0,
"B": 0.58,
"frac_fav": 0.78,
"d_gull_km": 42.8,
"berg": "Granatglimmerskifer | Granatglimmergneis eller -skifer, delvis kyanittførende | Øvre kaledonske dekkeserie",
"p_raw": 0.19,
"A_km2": 5.78,
"gate": 1.0,
"P": 49.4,
"rank": 19,
"klasse": "B",
"d_vei_m": 4763,
"vei_navn": "unclassified",
"d_sti_m": 3734,
"d_parkering_m": 7413,
"adkomst": "Avsides: 4.8 km fra bilvei – planlegg dagstur.",
"navn": "Stokkedalen (bekk)",
"hvorfor": "Foss/stryk rett oppstrøms (77 m fall på 100 m) – fossekulp og fjell i dagen. Berggrunn: Granatglimmerskifer (78 % gunstig oppstrøms).",
"s2_anomali": null,
"s2_feox_z": null,
"satsjekk": "Automatisk bildeanalyse: dypt/mørkt vann, tett vegetasjon – elva delvis skjult."
}
},
{
"type": "Feature",
"geometry": {
"type": "Point",
"coordinates": [
16.55692,
68.35586
]
},
"properties": {
"elv": "bekk",
"km": 1.7,
"z": 54.19,
"S": 0.06,
"Q": 3.0,
"w": 11.77,
"w_q": 5.2,
"h": 0.16,
"tau": 98.32,
"tau_c": 183.0,
"omega": 158.12,
"M": 0.54,
"D": 0.0,
"R": 0.23,
"sving": 0.59,
"os": 0.24,
"os_navn": "Stordalselva - Gobdariehpijohka",
"foss": 0.51,
"foss_drop": 12.9,
"juv": 0.0,
"B": 0.69,
"frac_fav": 0.81,
"d_gull_km": 58.68,
"berg": "Glimmerskifer | Granatglimmergneis med lag av kvarts-feltspatgneis | Øvre kaledonske dekkeserie",
"p_raw": 0.18,
"A_km2": 16.69,
"gate": 1.0,
"P": 47.36,
"rank": 20,
"klasse": "B",
"d_vei_m": 150,
"vei_navn": "unclassified",
"d_sti_m": 421,
"d_parkering_m": 4741,
"adkomst": "Kort gange: bilvei 150 m unna.",
"navn": "Klippenborg (bekk)",
"hvorfor": "Foss/stryk rett oppstrøms (13 m fall på 100 m) – fossekulp og fjell i dagen. Skarp sving – grav på innersvingen og bak store steiner. Berggrunn: Glimmerskifer (81 % gunstig oppstrøms).",
"s2_anomali": null,
"s2_feox_z": null,
"satsjekk": "Automatisk bildeanalyse: ingen tydelige trekk."
}
}
]
}