{"type": "FeatureCollection", "features": [{"type": "Feature", "geometry": {"type": "Point", "coordinates": [16.6828, 68.35513]}, "properties": {"type": "basemetall", "s2_oh_z": null, "s2_feox_z": null}}, {"type": "Feature", "geometry": {"type": "Point", "coordinates": [16.72558, 68.35286]}, "properties": {"type": "basemetall", "s2_oh_z": 1.51, "s2_feox_z": 1.56}}, {"type": "Feature", "geometry": {"type": "Point", "coordinates": [16.9987, 68.26184]}, "properties": {"type": "basemetall", "s2_oh_z": 1.81, "s2_feox_z": 3.22}}, {"type": "Feature", "geometry": {"type": "Point", "coordinates": [16.82748, 68.24407]}, "properties": {"type": "basemetall", "s2_oh_z": 2.3, "s2_feox_z": 0.51}}, {"type": "Feature", "geometry": {"type": "Point", "coordinates": [16.76401, 68.31474]}, "properties": {"type": "basemetall", "s2_oh_z": 8.19, "s2_feox_z": -1.61}}, {"type": "Feature", "geometry": {"type": "Point", "coordinates": [16.78238, 68.33249]}, "properties": {"type": "basemetall", "s2_oh_z": null, "s2_feox_z": null}}, {"type": "Feature", "geometry": {"type": "Point", "coordinates": [16.90188, 68.36796]}, "properties": {"type": "basemetall", "s2_oh_z": 3.37, "s2_feox_z": 2.61}}, {"type": "Feature", "geometry": {"type": "Point", "coordinates": [16.72291, 68.34222]}, "properties": {"type": "basemetall", "s2_oh_z": null, "s2_feox_z": null}}, {"type": "Feature", "geometry": {"type": "Point", "coordinates": [16.72402, 68.37931]}, "properties": {"type": "basemetall", "s2_oh_z": null, "s2_feox_z": null}}, {"type": "Feature", "geometry": {"type": "Point", "coordinates": [16.75982, 68.40181]}, "properties": {"type": "basemetall", "s2_oh_z": null, "s2_feox_z": null}}, {"type": "Feature", "geometry": {"type": "Point", "coordinates": [16.63725, 68.40175]}, "properties": {"type": "basemetall", "s2_oh_z": null, "s2_feox_z": null}}, {"type": "Feature", "geometry": {"type": "Point", "coordinates": [16.60112, 68.39596]}, "properties": {"type": "basemetall", "s2_oh_z": 1.05, "s2_feox_z": 1.09}}, {"type": "Feature", "geometry": {"type": "Point", "coordinates": [16.58684, 68.37618]}, "properties": {"type": "basemetall", "s2_oh_z": null, "s2_feox_z": null}}, {"type": "Feature", "geometry": {"type": "Point", "coordinates": [16.58651, 68.37843]}, "properties": {"type": "basemetall", "s2_oh_z": 3.42, "s2_feox_z": 5.31}}, {"type": "Feature", "geometry": {"type": "Point", "coordinates": [16.57262, 68.35344]}, "properties": {"type": "basemetall", "s2_oh_z": 2.76, "s2_feox_z": 35.62}}, {"type": "Feature", "geometry": {"type": "Point", "coordinates": [16.57087, 68.36333]}, "properties": {"type": "basemetall", "s2_oh_z": 0.66, "s2_feox_z": 1.03}}, {"type": "Feature", "geometry": {"type": "Point", "coordinates": [16.5705, 68.35795]}, "properties": {"type": "basemetall", "s2_oh_z": null, "s2_feox_z": null}}, {"type": "Feature", "geometry": {"type": "Point", "coordinates": [16.66894, 68.32764]}, "properties": {"type": "basemetall", "s2_oh_z": null, "s2_feox_z": null}}, {"type": "Feature", "geometry": {"type": "Point", "coordinates": [16.6027, 68.29753]}, "properties": {"type": "basemetall", "s2_oh_z": null, "s2_feox_z": null}}, {"type": "Feature", "geometry": {"type": "Point", "coordinates": [16.59804, 68.30027]}, "properties": {"type": "basemetall", "s2_oh_z": null, "s2_feox_z": null}}, {"type": "Feature", "geometry": {"type": "Point", "coordinates": [16.60984, 68.29567]}, "properties": {"type": "basemetall", "s2_oh_z": null, "s2_feox_z": null}}, {"type": "Feature", "geometry": {"type": "Point", "coordinates": [16.75348, 68.24083]}, "properties": {"type": "basemetall", "s2_oh_z": null, "s2_feox_z": null}}, {"type": "Feature", "geometry": {"type": "Point", "coordinates": [16.77954, 68.35728]}, "properties": {"type": "basemetall", "s2_oh_z": null, "s2_feox_z": null}}, {"type": "Feature", "geometry": {"type": "Point", "coordinates": [16.98871, 68.25838]}, "properties": {"type": "basemetall", "s2_oh_z": 1.81, "s2_feox_z": 25.1}}, {"type": "Feature", "geometry": {"type": "Point", "coordinates": [16.86533, 68.36999]}, "properties": {"type": "basemetall", "s2_oh_z": null, "s2_feox_z": null}}, {"type": "Feature", "geometry": {"type": "Point", "coordinates": [16.78071, 68.32668]}, "properties": {"type": "basemetall", "s2_oh_z": null, "s2_feox_z": null}}, {"type": "Feature", "geometry": {"type": "Point", "coordinates": [16.98501, 68.25752]}, "properties": {"type": "basemetall", "s2_oh_z": 3.23, "s2_feox_z": 27.44}}, {"type": "Feature", "geometry": {"type": "Point", "coordinates": [16.92115, 68.27801]}, "properties": {"type": "basemetall", "s2_oh_z": 1.89, "s2_feox_z": 4.54}}, {"type": "Feature", "geometry": {"type": "Point", "coordinates": [16.74144, 68.30511]}, "properties": {"type": "basemetall", "s2_oh_z": null, "s2_feox_z": null}}, {"type": "Feature", "geometry": {"type": "Point", "coordinates": [16.88784, 68.36004]}, "properties": {"type": "basemetall", "s2_oh_z": 2.68, "s2_feox_z": -1.71}}, {"type": "Feature", "geometry": {"type": "Point", "coordinates": [16.59213, 68.38582]}, "properties": {"type": "basemetall", "s2_oh_z": null, "s2_feox_z": null}}, {"type": "Feature", "geometry": {"type": "Point", "coordinates": [16.5825, 68.37326]}, "properties": {"type": "basemetall", "s2_oh_z": 3.96, "s2_feox_z": 4.57}}, {"type": "Feature", "geometry": {"type": "Point", "coordinates": [16.6223, 68.38571]}, "properties": {"type": "basemetall", "s2_oh_z": null, "s2_feox_z": null}}, {"type": "Feature", "geometry": {"type": "Point", "coordinates": [16.59134, 68.30841]}, "properties": {"type": "basemetall", "s2_oh_z": null, "s2_feox_z": null}}, {"type": "Feature", "geometry": {"type": "Point", "coordinates": [16.58183, 68.31119]}, "properties": {"type": "basemetall", "s2_oh_z": null, "s2_feox_z": null}}, {"type": "Feature", "geometry": {"type": "Point", "coordinates": [16.71056, 68.31623]}, "properties": {"type": "basemetall", "s2_oh_z": null, "s2_feox_z": null}}, {"type": "Feature", "geometry": {"type": "Point", "coordinates": [16.36852, 68.31308]}, "properties": {"type": "basemetall", "s2_oh_z": 2.52, "s2_feox_z": 0.65}}, {"type": "Feature", "geometry": {"type": "Point", "coordinates": [16.59574, 68.30208]}, "properties": {"type": "basemetall", "s2_oh_z": -0.15, "s2_feox_z": -0.41}}, {"type": "Feature", "geometry": {"type": "Point", "coordinates": [16.75548, 68.25206]}, "properties": {"type": "basemetall", "s2_oh_z": null, "s2_feox_z": null}}, {"type": "Feature", "geometry": {"type": "Point", "coordinates": [16.86836, 68.32485]}, "properties": {"type": "basemetall", "s2_oh_z": 1.81, "s2_feox_z": 1.42}}, {"type": "Feature", "geometry": {"type": "Point", "coordinates": [16.86654, 68.35221]}, "properties": {"type": "basemetall", "s2_oh_z": 2.26, "s2_feox_z": 0.57}}, {"type": "Feature", "geometry": {"type": "Point", "coordinates": [16.54401, 68.32683]}, "properties": {"type": "basemetall", "s2_oh_z": null, "s2_feox_z": null}}]}