<?xml version="1.0" encoding="UTF-8"?>
<kml xmlns="http://www.opengis.net/kml/2.2"><Document>
<name>GULLØYE – Ballangen - Bálák</name>
<Style id="kA"><IconStyle><color>ff2b39c0</color><scale>1.1</scale></IconStyle></Style>
<Style id="kB"><IconStyle><color>ff227ee6</color><scale>1.1</scale></IconStyle></Style>
<Style id="kC"><IconStyle><color>ff0fc4f1</color><scale>1.1</scale></IconStyle></Style>
<Placemark><name>1A Bruksåsmoen (Børsvatnelva)</name><styleUrl>#kA</styleUrl><description>P=100. Os: sideelv kommer inn her – grus og tyngre materiale legges i osen og bankehodet nedenfor. Skarp sving – grav på innersvingen og bak store steiner. Strømeffekten faller 44 % over strekningen – tungt materiale slipper her. Berggrunn: Glimmerskifer (100 % gunstig oppstrøms). Kort gange: bilvei 232 m unna.</description><Point><coordinates>16.73130,68.31204,0</coordinates></Point></Placemark>
<Placemark><name>2A Kjønnstad (Sørelva)</name><styleUrl>#kA</styleUrl><description>P=90. Foss/stryk rett oppstrøms (4 m fall på 100 m) – fossekulp og fjell i dagen. Os: Ruonkaelva kommer inn her – grus og tyngre materiale legges i osen og bankehodet nedenfor. Berggrunn: Granatglimmerskifer (100 % gunstig oppstrøms). Gange 0.7 km fra nærmeste bilvei.</description><Point><coordinates>16.69356,68.26610,0</coordinates></Point></Placemark>
<Placemark><name>3A Melkevasselva, km 0.2</name><styleUrl>#kA</styleUrl><description>P=83. Foss/stryk rett oppstrøms (3 m fall på 100 m) – fossekulp og fjell i dagen. Berggrunn: Glimmerskifer (100 % gunstig oppstrøms). Gange 1.1 km fra nærmeste bilvei.</description><Point><coordinates>16.70309,68.22780,0</coordinates></Point></Placemark>
<Placemark><name>4A Lauvdalen (bekk)</name><styleUrl>#kA</styleUrl><description>P=78. Foss/stryk rett oppstrøms (5 m fall på 100 m) – fossekulp og fjell i dagen. Berggrunn: Glimmerskifer (100 % gunstig oppstrøms). Lett: bilvei 19 m unna (Kjeldemarkveien).</description><Point><coordinates>16.56493,68.36698,0</coordinates></Point></Placemark>
<Placemark><name>5A Lyngmo (Melkevasselva)</name><styleUrl>#kA</styleUrl><description>P=77. Foss/stryk rett oppstrøms (10 m fall på 100 m) – fossekulp og fjell i dagen. Skarp sving – grav på innersvingen og bak store steiner. Berggrunn: Glimmerskifer (100 % gunstig oppstrøms). Kort gange: bilvei 343 m unna.</description><Point><coordinates>16.70895,68.23457,0</coordinates></Point></Placemark>
<Placemark><name>6A Grønli (Kjeldelva - Gáldojohka)</name><styleUrl>#kA</styleUrl><description>P=72. Foss/stryk rett oppstrøms (4 m fall på 100 m) – fossekulp og fjell i dagen. Os: sideelv kommer inn her – grus og tyngre materiale legges i osen og bankehodet nedenfor. Skarp sving – grav på innersvingen og bak store steiner. Berggrunn: Marmor (85 % gunstig oppstrøms). Kort gange: bilvei 151 m unna.</description><Point><coordinates>16.58145,68.38184,0</coordinates></Point></Placemark>
<Placemark><name>7B Skjellneset (Arneselva)</name><styleUrl>#kB</styleUrl><description>P=70. Foss/stryk rett oppstrøms (28 m fall på 100 m) – fossekulp og fjell i dagen. Os: sideelv kommer inn her – grus og tyngre materiale legges i osen og bankehodet nedenfor. Berggrunn: Granatglimmerskifer (100 % gunstig oppstrøms). Lett: bilvei 41 m unna (service).</description><Point><coordinates>16.92939,68.34373,0</coordinates></Point></Placemark>
<Placemark><name>8B Fosslund (Sørelva)</name><styleUrl>#kB</styleUrl><description>P=68. Foss/stryk rett oppstrøms (6 m fall på 100 m) – fossekulp og fjell i dagen. Berggrunn: Granatglimmerskifer (100 % gunstig oppstrøms). Lett: bilvei 56 m unna (service).</description><Point><coordinates>16.71002,68.25817,0</coordinates></Point></Placemark>
<Placemark><name>9B Stokkedalen (Stokkedalelva)</name><styleUrl>#kB</styleUrl><description>P=64. Foss/stryk rett oppstrøms (43 m fall på 100 m) – fossekulp og fjell i dagen. Os: sideelv kommer inn her – grus og tyngre materiale legges i osen og bankehodet nedenfor. Berggrunn: Glimmerskifer (91 % gunstig oppstrøms). Avsides: 4.1 km fra bilvei – planlegg dagstur.</description><Point><coordinates>16.86227,68.27887,0</coordinates></Point></Placemark>
<Placemark><name>10B Kvannmoen (bekk)</name><styleUrl>#kB</styleUrl><description>P=64. Foss/stryk rett oppstrøms (33 m fall på 100 m) – fossekulp og fjell i dagen. Skarp sving – grav på innersvingen og bak store steiner. Berggrunn: Kalkglimmerskifer (100 % gunstig oppstrøms). Avsides: 4.3 km fra bilvei – planlegg dagstur.</description><Point><coordinates>16.87828,68.24754,0</coordinates></Point></Placemark>
<Placemark><name>11B Botnmoen (Botnelva)</name><styleUrl>#kB</styleUrl><description>P=63. Foss/stryk rett oppstrøms (27 m fall på 100 m) – fossekulp og fjell i dagen. Skarp sving – grav på innersvingen og bak store steiner. Berggrunn: Granatglimmerskifer (100 % gunstig oppstrøms). Avsides: 6.1 km fra bilvei – planlegg dagstur.</description><Point><coordinates>16.92724,68.24257,0</coordinates></Point></Placemark>
<Placemark><name>12B Kjeldebotn - Gáldovuotna (Skarnesdalelva)</name><styleUrl>#kB</styleUrl><description>P=59. Foss/stryk rett oppstrøms (15 m fall på 100 m) – fossekulp og fjell i dagen. Os: sideelv kommer inn her – grus og tyngre materiale legges i osen og bankehodet nedenfor. Berggrunn: Granatglimmerskifer (62 % gunstig oppstrøms). Lett: bilvei 38 m unna (service). Parkering 290 m unna.</description><Point><coordinates>16.67190,68.40479,0</coordinates></Point></Placemark>
<Placemark><name>13B Furuhaugfossen (Skarnesdalelva)</name><styleUrl>#kB</styleUrl><description>P=57. Foss/stryk rett oppstrøms (13 m fall på 100 m) – fossekulp og fjell i dagen. Os: Kvannelva kommer inn her – grus og tyngre materiale legges i osen og bankehodet nedenfor. Berggrunn: Granatglimmerskifer (54 % gunstig oppstrøms). Kort gange: bilvei 227 m unna.</description><Point><coordinates>16.71082,68.39502,0</coordinates></Point></Placemark>
<Placemark><name>14B Arneslia-Bruavann (Arneselva)</name><styleUrl>#kB</styleUrl><description>P=56. Foss/stryk rett oppstrøms (23 m fall på 100 m) – fossekulp og fjell i dagen. Os: sideelv kommer inn her – grus og tyngre materiale legges i osen og bankehodet nedenfor. Berggrunn: Granatglimmerskifer (100 % gunstig oppstrøms). Kort gange: bilvei 280 m unna.</description><Point><coordinates>16.93450,68.33202,0</coordinates></Point></Placemark>
<Placemark><name>15B Kvannmoelva, km 1.0</name><styleUrl>#kB</styleUrl><description>P=54. Foss/stryk rett oppstrøms (4 m fall på 100 m) – fossekulp og fjell i dagen. Os: sideelv kommer inn her – grus og tyngre materiale legges i osen og bankehodet nedenfor. Skarp sving – grav på innersvingen og bak store steiner. Berggrunn: Kalkglimmerskifer (100 % gunstig oppstrøms). Avsides: 3.4 km fra bilvei – planlegg dagstur.</description><Point><coordinates>16.86372,68.23643,0</coordinates></Point></Placemark>
<Placemark><name>16B Botnelva, km 1.0</name><styleUrl>#kB</styleUrl><description>P=54. Foss/stryk rett oppstrøms (28 m fall på 100 m) – fossekulp og fjell i dagen. Strømeffekten faller 34 % over strekningen – tungt materiale slipper her. Berggrunn: Granatglimmerskifer (100 % gunstig oppstrøms). Avsides: 6.4 km fra bilvei – planlegg dagstur.</description><Point><coordinates>16.93642,68.23555,0</coordinates></Point></Placemark>
<Placemark><name>17B Furuholt (Kjeldelva - Gáldojohka)</name><styleUrl>#kB</styleUrl><description>P=53. Foss/stryk rett oppstrøms (3 m fall på 100 m) – fossekulp og fjell i dagen. Berggrunn: Marmor (85 % gunstig oppstrøms). Kort gange: bilvei 320 m unna.</description><Point><coordinates>16.60122,68.39644,0</coordinates></Point></Placemark>
<Placemark><name>18B bekk, km 0.7</name><styleUrl>#kB</styleUrl><description>P=52. Foss/stryk rett oppstrøms (7 m fall på 100 m) – fossekulp og fjell i dagen. Os: sideelv kommer inn her – grus og tyngre materiale legges i osen og bankehodet nedenfor. Berggrunn: Granatglimmerskifer (81 % gunstig oppstrøms). Avsides: 4.3 km fra bilvei – planlegg dagstur.</description><Point><coordinates>16.87767,68.28385,0</coordinates></Point></Placemark>
<Placemark><name>19B Stokkedalen (bekk)</name><styleUrl>#kB</styleUrl><description>P=49. Foss/stryk rett oppstrøms (77 m fall på 100 m) – fossekulp og fjell i dagen. Berggrunn: Granatglimmerskifer (78 % gunstig oppstrøms). Avsides: 4.8 km fra bilvei – planlegg dagstur.</description><Point><coordinates>16.86849,68.27206,0</coordinates></Point></Placemark>
<Placemark><name>20B Klippenborg (bekk)</name><styleUrl>#kB</styleUrl><description>P=47. Foss/stryk rett oppstrøms (13 m fall på 100 m) – fossekulp og fjell i dagen. Skarp sving – grav på innersvingen og bak store steiner. Berggrunn: Glimmerskifer (81 % gunstig oppstrøms). Kort gange: bilvei 150 m unna.</description><Point><coordinates>16.55692,68.35586,0</coordinates></Point></Placemark>
</Document></kml>