<?xml version="1.0" encoding="UTF-8"?>
<gpx version="1.1" creator="gulloye" xmlns="http://www.topografix.com/GPX/1/1">
  <wpt lat="68.31204" lon="16.73130"><name>1 A – Bruksåsmoen (Børsvatnelva)</name><desc>Os: sideelv kommer inn her – grus og tyngre materiale legges i osen og bankehodet nedenfor. Skarp sving – grav på innersvingen og bak store steiner. Strømeffekten faller 44 % over strekningen – tungt materiale slipper her. Berggrunn: Glimmerskifer (100 % gunstig oppstrøms).</desc></wpt>
  <wpt lat="68.26610" lon="16.69356"><name>2 A – Kjønnstad (Sørelva)</name><desc>Foss/stryk rett oppstrøms (4 m fall på 100 m) – fossekulp og fjell i dagen. Os: Ruonkaelva kommer inn her – grus og tyngre materiale legges i osen og bankehodet nedenfor. Berggrunn: Granatglimmerskifer (100 % gunstig oppstrøms).</desc></wpt>
  <wpt lat="68.22780" lon="16.70309"><name>3 A – Melkevasselva, km 0.2</name><desc>Foss/stryk rett oppstrøms (3 m fall på 100 m) – fossekulp og fjell i dagen. Berggrunn: Glimmerskifer (100 % gunstig oppstrøms).</desc></wpt>
  <wpt lat="68.36698" lon="16.56493"><name>4 A – Lauvdalen (bekk)</name><desc>Foss/stryk rett oppstrøms (5 m fall på 100 m) – fossekulp og fjell i dagen. Berggrunn: Glimmerskifer (100 % gunstig oppstrøms).</desc></wpt>
  <wpt lat="68.23457" lon="16.70895"><name>5 A – Lyngmo (Melkevasselva)</name><desc>Foss/stryk rett oppstrøms (10 m fall på 100 m) – fossekulp og fjell i dagen. Skarp sving – grav på innersvingen og bak store steiner. Berggrunn: Glimmerskifer (100 % gunstig oppstrøms).</desc></wpt>
  <wpt lat="68.38184" lon="16.58145"><name>6 A – Grønli (Kjeldelva - Gáldojohka)</name><desc>Foss/stryk rett oppstrøms (4 m fall på 100 m) – fossekulp og fjell i dagen. Os: sideelv kommer inn her – grus og tyngre materiale legges i osen og bankehodet nedenfor. Skarp sving – grav på innersvingen og bak store steiner. Berggrunn: Marmor (85 % gunstig oppstrøms).</desc></wpt>
  <wpt lat="68.34373" lon="16.92939"><name>7 B – Skjellneset (Arneselva)</name><desc>Foss/stryk rett oppstrøms (28 m fall på 100 m) – fossekulp og fjell i dagen. Os: sideelv kommer inn her – grus og tyngre materiale legges i osen og bankehodet nedenfor. Berggrunn: Granatglimmerskifer (100 % gunstig oppstrøms).</desc></wpt>
  <wpt lat="68.25817" lon="16.71002"><name>8 B – Fosslund (Sørelva)</name><desc>Foss/stryk rett oppstrøms (6 m fall på 100 m) – fossekulp og fjell i dagen. Berggrunn: Granatglimmerskifer (100 % gunstig oppstrøms).</desc></wpt>
  <wpt lat="68.27887" lon="16.86227"><name>9 B – Stokkedalen (Stokkedalelva)</name><desc>Foss/stryk rett oppstrøms (43 m fall på 100 m) – fossekulp og fjell i dagen. Os: sideelv kommer inn her – grus og tyngre materiale legges i osen og bankehodet nedenfor. Berggrunn: Glimmerskifer (91 % gunstig oppstrøms).</desc></wpt>
  <wpt lat="68.24754" lon="16.87828"><name>10 B – Kvannmoen (bekk)</name><desc>Foss/stryk rett oppstrøms (33 m fall på 100 m) – fossekulp og fjell i dagen. Skarp sving – grav på innersvingen og bak store steiner. Berggrunn: Kalkglimmerskifer (100 % gunstig oppstrøms).</desc></wpt>
  <wpt lat="68.24257" lon="16.92724"><name>11 B – Botnmoen (Botnelva)</name><desc>Foss/stryk rett oppstrøms (27 m fall på 100 m) – fossekulp og fjell i dagen. Skarp sving – grav på innersvingen og bak store steiner. Berggrunn: Granatglimmerskifer (100 % gunstig oppstrøms).</desc></wpt>
  <wpt lat="68.40479" lon="16.67190"><name>12 B – Kjeldebotn - Gáldovuotna (Skarnesdalelva)</name><desc>Foss/stryk rett oppstrøms (15 m fall på 100 m) – fossekulp og fjell i dagen. Os: sideelv kommer inn her – grus og tyngre materiale legges i osen og bankehodet nedenfor. Berggrunn: Granatglimmerskifer (62 % gunstig oppstrøms).</desc></wpt>
  <wpt lat="68.39502" lon="16.71082"><name>13 B – Furuhaugfossen (Skarnesdalelva)</name><desc>Foss/stryk rett oppstrøms (13 m fall på 100 m) – fossekulp og fjell i dagen. Os: Kvannelva kommer inn her – grus og tyngre materiale legges i osen og bankehodet nedenfor. Berggrunn: Granatglimmerskifer (54 % gunstig oppstrøms).</desc></wpt>
  <wpt lat="68.33202" lon="16.93450"><name>14 B – Arneslia-Bruavann (Arneselva)</name><desc>Foss/stryk rett oppstrøms (23 m fall på 100 m) – fossekulp og fjell i dagen. Os: sideelv kommer inn her – grus og tyngre materiale legges i osen og bankehodet nedenfor. Berggrunn: Granatglimmerskifer (100 % gunstig oppstrøms).</desc></wpt>
  <wpt lat="68.23643" lon="16.86372"><name>15 B – Kvannmoelva, km 1.0</name><desc>Foss/stryk rett oppstrøms (4 m fall på 100 m) – fossekulp og fjell i dagen. Os: sideelv kommer inn her – grus og tyngre materiale legges i osen og bankehodet nedenfor. Skarp sving – grav på innersvingen og bak store steiner. Berggrunn: Kalkglimmerskifer (100 % gunstig oppstrøms).</desc></wpt>
  <wpt lat="68.23555" lon="16.93642"><name>16 B – Botnelva, km 1.0</name><desc>Foss/stryk rett oppstrøms (28 m fall på 100 m) – fossekulp og fjell i dagen. Strømeffekten faller 34 % over strekningen – tungt materiale slipper her. Berggrunn: Granatglimmerskifer (100 % gunstig oppstrøms).</desc></wpt>
  <wpt lat="68.39644" lon="16.60122"><name>17 B – Furuholt (Kjeldelva - Gáldojohka)</name><desc>Foss/stryk rett oppstrøms (3 m fall på 100 m) – fossekulp og fjell i dagen. Berggrunn: Marmor (85 % gunstig oppstrøms).</desc></wpt>
  <wpt lat="68.28385" lon="16.87767"><name>18 B – bekk, km 0.7</name><desc>Foss/stryk rett oppstrøms (7 m fall på 100 m) – fossekulp og fjell i dagen. Os: sideelv kommer inn her – grus og tyngre materiale legges i osen og bankehodet nedenfor. Berggrunn: Granatglimmerskifer (81 % gunstig oppstrøms).</desc></wpt>
  <wpt lat="68.27206" lon="16.86849"><name>19 B – Stokkedalen (bekk)</name><desc>Foss/stryk rett oppstrøms (77 m fall på 100 m) – fossekulp og fjell i dagen. Berggrunn: Granatglimmerskifer (78 % gunstig oppstrøms).</desc></wpt>
  <wpt lat="68.35586" lon="16.55692"><name>20 B – Klippenborg (bekk)</name><desc>Foss/stryk rett oppstrøms (13 m fall på 100 m) – fossekulp og fjell i dagen. Skarp sving – grav på innersvingen og bak store steiner. Berggrunn: Glimmerskifer (81 % gunstig oppstrøms).</desc></wpt>
</gpx>