{
"type": "FeatureCollection",
"features": [
{
"type": "Feature",
"geometry": {
"type": "Point",
"coordinates": [
8.70859,
58.60092
]
},
"properties": {
"elv": "Nidelva",
"km": 1.2,
"z": 89.38,
"S": 0.02,
"Q": 215.96,
"w": 50.0,
"w_q": 44.09,
"h": 1.35,
"tau": 198.54,
"tau_c": 89.3,
"omega": 636.89,
"M": 2.22,
"D": 0.0,
"R": 0.81,
"sving": 0.23,
"os": 0.0,
"os_navn": "",
"foss": 1.0,
"foss_drop": 3.92,
"juv": 0.19,
"B": 1.26,
"frac_fav": 1.0,
"d_gull_km": 2.55,
"berg": "Kvartsitt | Kvartsitt, kvartsrik gneis | Bamble litotektoniske enhet",
"p_raw": 0.51,
"A_km2": 1799.64,
"gate": 1.0,
"P": 100.0,
"rank": 1,
"klasse": "A",
"d_vei_m": 118,
"vei_navn": "Bøylefossveien",
"d_sti_m": 997,
"d_parkering_m": 2719,
"adkomst": "Lett: bilvei 118 m unna (Bøylefossveien).",
"navn": "Bøylefoss bru (Nidelva)",
"hvorfor": "Foss/stryk rett oppstrøms (4 m fall på 100 m) – fossekulp og fjell i dagen. τ = 199 Pa ≈ 2.2× terskelen: sand og grus flyttes ved flom, gull blir liggende (retensjon). Berggrunn: Kvartsitt (100 % gunstig oppstrøms). NGU-registrert gullforekomst 2.6 km unna.",
"s2_anomali": 3.66,
"s2_feox_z": 1.55,
"satsjekk": "Automatisk bildeanalyse: ingen tydelige trekk."
}
},
{
"type": "Feature",
"geometry": {
"type": "Point",
"coordinates": [
8.70683,
58.60863
]
},
"properties": {
"elv": "Nidelva",
"km": 0.2,
"z": 99.8,
"S": 0.03,
"Q": 215.73,
"w": 40.0,
"w_q": 44.06,
"h": 1.28,
"tau": 354.08,
"tau_c": 122.41,
"omega": 1494.25,
"M": 2.89,
"D": 0.06,
"R": 0.55,
"sving": 0.31,
"os": 0.0,
"os_navn": "",
"foss": 0.73,
"foss_drop": 5.54,
"juv": 0.16,
"B": 1.26,
"frac_fav": 1.0,
"d_gull_km": 2.43,
"berg": "Kvartsitt | Kvartsitt, kvartsrik gneis | Bamble litotektoniske enhet",
"p_raw": 0.41,
"A_km2": 1797.75,
"gate": 1.0,
"P": 79.28,
"rank": 2,
"klasse": "A",
"d_vei_m": 150,
"vei_navn": "Bøylefossveien",
"d_sti_m": 155,
"d_parkering_m": 3574,
"adkomst": "Kort gange: bilvei 150 m unna.",
"navn": "Kastefossen (Nidelva)",
"hvorfor": "Foss/stryk rett oppstrøms (6 m fall på 100 m) – fossekulp og fjell i dagen. τ = 354 Pa ≈ 2.9× terskelen: sand og grus flyttes ved flom, gull blir liggende (retensjon). Berggrunn: Kvartsitt (100 % gunstig oppstrøms). NGU-registrert gullforekomst 2.4 km unna.",
"s2_anomali": 2.57,
"s2_feox_z": 1.22,
"satsjekk": "Automatisk bildeanalyse: ingen tydelige trekk."
}
},
{
"type": "Feature",
"geometry": {
"type": "Point",
"coordinates": [
8.67306,
58.54153
]
},
"properties": {
"elv": "Nidelva",
"km": 0.2,
"z": 39.95,
"S": 0.01,
"Q": 223.58,
"w": 48.0,
"w_q": 44.86,
"h": 1.9,
"tau": 107.09,
"tau_c": 55.25,
"omega": 262.95,
"M": 1.94,
"D": 0.3,
"R": 0.91,
"sving": 0.33,
"os": 0.0,
"os_navn": "",
"foss": 0.0,
"foss_drop": 0.0,
"juv": 0.07,
"B": 1.02,
"frac_fav": 0.62,
"d_gull_km": 8.86,
"berg": "Amfibolitt | Amfibolitt, stedvis hyperstenførende (charnockittisk) | Bamble litotektoniske enhet",
"p_raw": 0.35,
"A_km2": 1863.19,
"gate": 1.0,
"P": 68.6,
"rank": 3,
"klasse": "B",
"d_vei_m": 85,
"vei_navn": "Eivindstadveien",
"d_sti_m": 546,
"d_parkering_m": 2177,
"adkomst": "Lett: bilvei 85 m unna (Eivindstadveien).",
"navn": "Stoet (Nidelva)",
"hvorfor": "τ = 107 Pa ≈ 1.9× terskelen: sand og grus flyttes ved flom, gull blir liggende (retensjon). Berggrunn: Amfibolitt (62 % gunstig oppstrøms).",
"s2_anomali": 4.0,
"s2_feox_z": 4.87,
"satsjekk": "Automatisk bildeanalyse: dypt/mørkt vann."
}
},
{
"type": "Feature",
"geometry": {
"type": "Point",
"coordinates": [
8.70086,
58.57192
]
},
"properties": {
"elv": "Nidelva",
"km": 2.8,
"z": 57.98,
"S": 0.0,
"Q": 221.85,
"w": 109.64,
"w_q": 44.68,
"h": 2.39,
"tau": 11.31,
"tau_c": 16.01,
"omega": 9.59,
"M": 0.71,
"D": 0.33,
"R": 0.45,
"sving": 0.07,
"os": 0.51,
"os_navn": "sideelv",
"foss": 0.0,
"foss_drop": 0.0,
"juv": 0.0,
"B": 1.1,
"frac_fav": 0.67,
"d_gull_km": 5.12,
"berg": "Granitt | Granitt, noe forgneiset, stedvis hyperstenførende (charnockittisk) | Bamble litotektoniske enhet",
"p_raw": 0.29,
"A_km2": 1848.73,
"gate": 1.0,
"P": 56.99,
"rank": 4,
"klasse": "B",
"d_vei_m": 62,
"vei_navn": "track",
"d_sti_m": 594,
"d_parkering_m": 588,
"adkomst": "Lett: bilvei 62 m unna (track). Parkering 588 m unna.",
"navn": "Stemmyr (Nidelva)",
"hvorfor": "Os: sideelv kommer inn her – grus og tyngre materiale legges i osen og bankehodet nedenfor. Strømeffekten faller 33 % over strekningen – tungt materiale slipper her. Berggrunn: Granitt (67 % gunstig oppstrøms). NGU-registrert gullforekomst 5.1 km unna.",
"s2_anomali": 4.0,
"s2_feox_z": 4.8,
"satsjekk": "Automatisk bildeanalyse: dypt/mørkt vann."
}
},
{
"type": "Feature",
"geometry": {
"type": "Point",
"coordinates": [
8.90171,
58.64068
]
},
"properties": {
"elv": "Storelva",
"km": 7.1,
"z": 19.26,
"S": 0.03,
"Q": 40.53,
"w": 43.46,
"w_q": 19.1,
"h": 0.45,
"tau": 113.23,
"tau_c": 116.4,
"omega": 233.6,
"M": 0.97,
"D": 0.0,
"R": 0.77,
"sving": 0.39,
"os": 0.0,
"os_navn": "",
"foss": 1.0,
"foss_drop": 3.15,
"juv": 0.0,
"B": 0.71,
"frac_fav": 0.37,
"d_gull_km": 9.53,
"berg": "Granitt | Granitt, noe forgneiset, stedvis hyperstenførende (charnockittisk) | Bamble litotektoniske enhet",
"p_raw": 0.29,
"A_km2": 337.71,
"gate": 1.0,
"P": 55.97,
"rank": 5,
"klasse": "B",
"d_vei_m": 54,
"vei_navn": "Bergeveien",
"d_sti_m": 337,
"d_parkering_m": 1606,
"adkomst": "Lett: bilvei 54 m unna (Bergeveien).",
"navn": "Bergehagane (Storelva)",
"hvorfor": "Foss/stryk rett oppstrøms (3 m fall på 100 m) – fossekulp og fjell i dagen. τ = 113 Pa ≈ 1.0× terskelen: sand og grus flyttes ved flom, gull blir liggende (retensjon). Berggrunn: Granitt (37 % gunstig oppstrøms).",
"s2_anomali": 4.0,
"s2_feox_z": 2.77,
"satsjekk": "Automatisk bildeanalyse: dypt/mørkt vann."
}
},
{
"type": "Feature",
"geometry": {
"type": "Point",
"coordinates": [
8.85481,
58.63149
]
},
"properties": {
"elv": "Storelva",
"km": 2.6,
"z": 39.37,
"S": 0.03,
"Q": 32.04,
"w": 30.0,
"w_q": 16.98,
"h": 0.47,
"tau": 136.46,
"tau_c": 125.11,
"omega": 309.08,
"M": 1.09,
"D": 0.12,
"R": 0.87,
"sving": 0.04,
"os": 0.0,
"os_navn": "",
"foss": 1.0,
"foss_drop": 7.25,
"juv": 0.0,
"B": 0.72,
"frac_fav": 0.37,
"d_gull_km": 6.62,
"berg": "Granitt | Granitt, noe forgneiset, stedvis hyperstenførende (charnockittisk) | Bamble litotektoniske enhet",
"p_raw": 0.29,
"A_km2": 266.98,
"gate": 1.0,
"P": 55.75,
"rank": 6,
"klasse": "B",
"d_vei_m": 33,
"vei_navn": "Nesverkveien",
"d_sti_m": 175,
"d_parkering_m": 129,
"adkomst": "Lett: bilvei 33 m unna (Nesverkveien). Parkering 129 m unna.",
"navn": "Bakken (Storelva)",
"hvorfor": "Foss/stryk rett oppstrøms (7 m fall på 100 m) – fossekulp og fjell i dagen. τ = 136 Pa ≈ 1.1× terskelen: sand og grus flyttes ved flom, gull blir liggende (retensjon). Berggrunn: Granitt (37 % gunstig oppstrøms). NGU-registrert gullforekomst 6.6 km unna.",
"s2_anomali": 2.35,
"s2_feox_z": 2.35,
"satsjekk": "Automatisk bildeanalyse: dypt/mørkt vann."
}
},
{
"type": "Feature",
"geometry": {
"type": "Point",
"coordinates": [
8.63285,
58.50905
]
},
"properties": {
"elv": "Songeelva",
"km": 18.4,
"z": 42.47,
"S": 0.01,
"Q": 8.64,
"w": 23.88,
"w_q": 8.82,
"h": 0.32,
"tau": 38.09,
"tau_c": 80.07,
"omega": 42.89,
"M": 0.48,
"D": 0.16,
"R": 0.16,
"sving": 0.67,
"os": 0.0,
"os_navn": "",
"foss": 1.0,
"foss_drop": 3.85,
"juv": 0.0,
"B": 0.83,
"frac_fav": 0.78,
"d_gull_km": 11.16,
"berg": "Granitt | Granitt, noe forgneiset, stedvis hyperstenførende (charnockittisk) | Bamble litotektoniske enhet",
"p_raw": 0.27,
"A_km2": 71.99,
"gate": 1.0,
"P": 52.13,
"rank": 7,
"klasse": "B",
"d_vei_m": 30,
"vei_navn": "Osevollvegen",
"d_sti_m": 70,
"d_parkering_m": 293,
"adkomst": "Lett: bilvei 30 m unna (Osevollvegen). Parkering 293 m unna.",
"navn": "Osevollen badeplass (Songeelva)",
"hvorfor": "Foss/stryk rett oppstrøms (4 m fall på 100 m) – fossekulp og fjell i dagen. Skarp sving – grav på innersvingen og bak store steiner. Berggrunn: Granitt (78 % gunstig oppstrøms).",
"s2_anomali": 2.42,
"s2_feox_z": 2.42,
"satsjekk": "Automatisk bildeanalyse: dypt/mørkt vann."
}
},
{
"type": "Feature",
"geometry": {
"type": "Point",
"coordinates": [
8.69095,
58.56164
]
},
"properties": {
"elv": "Nidelva",
"km": 4.1,
"z": 57.61,
"S": 0.0,
"Q": 222.31,
"w": 76.0,
"w_q": 44.73,
"h": 3.21,
"tau": 12.46,
"tau_c": 14.49,
"omega": 11.35,
"M": 0.86,
"D": 0.26,
"R": 0.65,
"sving": 0.17,
"os": 0.0,
"os_navn": "",
"foss": 0.0,
"foss_drop": 0.0,
"juv": 0.0,
"B": 1.06,
"frac_fav": 0.65,
"d_gull_km": 6.4,
"berg": "Granitt | Granitt, noe forgneiset, stedvis hyperstenførende (charnockittisk) | Bamble litotektoniske enhet",
"p_raw": 0.26,
"A_km2": 1852.61,
"gate": 1.0,
"P": 50.06,
"rank": 8,
"klasse": "B",
"d_vei_m": 64,
"vei_navn": "track",
"d_sti_m": 1179,
"d_parkering_m": 1872,
"adkomst": "Lett: bilvei 64 m unna (track).",
"navn": "Langeidstryket (Nidelva)",
"hvorfor": "τ = 12 Pa ≈ 0.9× terskelen: sand og grus flyttes ved flom, gull blir liggende (retensjon). Berggrunn: Granitt (65 % gunstig oppstrøms). NGU-registrert gullforekomst 6.4 km unna.",
"s2_anomali": 2.74,
"s2_feox_z": 2.74,
"satsjekk": "Automatisk bildeanalyse: dypt/mørkt vann."
}
},
{
"type": "Feature",
"geometry": {
"type": "Point",
"coordinates": [
8.6342,
58.54765
]
},
"properties": {
"elv": "Songeelva",
"km": 12.4,
"z": 82.89,
"S": 0.01,
"Q": 7.44,
"w": 24.55,
"w_q": 8.18,
"h": 0.32,
"tau": 27.09,
"tau_c": 67.74,
"omega": 25.71,
"M": 0.4,
"D": 0.01,
"R": 0.09,
"sving": 0.4,
"os": 0.49,
"os_navn": "Orrebekken",
"foss": 1.0,
"foss_drop": 3.49,
"juv": 0.0,
"B": 0.82,
"frac_fav": 0.78,
"d_gull_km": 9.67,
"berg": "Granitt | Granitt, noe forgneiset, stedvis hyperstenførende (charnockittisk) | Bamble litotektoniske enhet",
"p_raw": 0.25,
"A_km2": 62.01,
"gate": 1.0,
"P": 49.29,
"rank": 9,
"klasse": "B",
"d_vei_m": 104,
"vei_navn": "Jomåsveien",
"d_sti_m": 193,
"d_parkering_m": 2618,
"adkomst": "Lett: bilvei 104 m unna (Jomåsveien).",
"navn": "Trollmoen (Songeelva)",
"hvorfor": "Foss/stryk rett oppstrøms (3 m fall på 100 m) – fossekulp og fjell i dagen. Berggrunn: Granitt (78 % gunstig oppstrøms).",
"s2_anomali": null,
"s2_feox_z": null,
"satsjekk": "Automatisk bildeanalyse: dypt/mørkt vann."
}
},
{
"type": "Feature",
"geometry": {
"type": "Point",
"coordinates": [
8.8487,
58.64952
]
},
"properties": {
"elv": "Storelva",
"km": 0.4,
"z": 71.23,
"S": 0.02,
"Q": 31.77,
"w": 40.0,
"w_q": 16.91,
"h": 0.47,
"tau": 75.68,
"tau_c": 93.43,
"omega": 128.21,
"M": 0.81,
"D": 0.0,
"R": 0.59,
"sving": 0.3,
"os": 0.0,
"os_navn": "",
"foss": 1.0,
"foss_drop": 4.53,
"juv": 0.0,
"B": 0.71,
"frac_fav": 0.37,
"d_gull_km": 7.28,
"berg": "Granitt | Granitt, noe forgneiset, stedvis hyperstenførende (charnockittisk) | Bamble litotektoniske enhet",
"p_raw": 0.24,
"A_km2": 264.78,
"gate": 1.0,
"P": 47.62,
"rank": 10,
"klasse": "B",
"d_vei_m": 49,
"vei_navn": "Nesverkveien",
"d_sti_m": 370,
"d_parkering_m": 2168,
"adkomst": "Lett: bilvei 49 m unna (Nesverkveien).",
"navn": "Vassenden (Storelva)",
"hvorfor": "Foss/stryk rett oppstrøms (5 m fall på 100 m) – fossekulp og fjell i dagen. τ = 76 Pa ≈ 0.8× terskelen: sand og grus flyttes ved flom, gull blir liggende (retensjon). Berggrunn: Granitt (37 % gunstig oppstrøms). NGU-registrert gullforekomst 7.3 km unna.",
"s2_anomali": 1.94,
"s2_feox_z": 1.21,
"satsjekk": "Automatisk bildeanalyse: dypt/mørkt vann, tett vegetasjon – elva delvis skjult."
}
},
{
"type": "Feature",
"geometry": {
"type": "Point",
"coordinates": [
8.85713,
58.62485
]
},
"properties": {
"elv": "Storelva",
"km": 3.4,
"z": 27.08,
"S": 0.0,
"Q": 36.69,
"w": 53.61,
"w_q": 18.17,
"h": 0.93,
"tau": 11.47,
"tau_c": 25.79,
"omega": 8.42,
"M": 0.44,
"D": 0.46,
"R": 0.13,
"sving": 0.59,
"os": 0.8,
"os_navn": "Lillelv",
"foss": 0.0,
"foss_drop": 0.0,
"juv": 0.0,
"B": 0.73,
"frac_fav": 0.37,
"d_gull_km": 6.53,
"berg": "Granitt | Granitt, noe forgneiset, stedvis hyperstenførende (charnockittisk) | Bamble litotektoniske enhet",
"p_raw": 0.24,
"A_km2": 305.76,
"gate": 1.0,
"P": 47.48,
"rank": 11,
"klasse": "B",
"d_vei_m": 49,
"vei_navn": "Solbergveien",
"d_sti_m": 246,
"d_parkering_m": 525,
"adkomst": "Lett: bilvei 49 m unna (Solbergveien). Parkering 525 m unna.",
"navn": "Nes (Storelva)",
"hvorfor": "Os: Lillelv kommer inn her – grus og tyngre materiale legges i osen og bankehodet nedenfor. Skarp sving – grav på innersvingen og bak store steiner. Strømeffekten faller 46 % over strekningen – tungt materiale slipper her. Berggrunn: Granitt (37 % gunstig oppstrøms). NGU-registrert gullforekomst 6.5 km unna.",
"s2_anomali": 0.29,
"s2_feox_z": 0.12,
"satsjekk": "Automatisk bildeanalyse: dypt/mørkt vann."
}
},
{
"type": "Feature",
"geometry": {
"type": "Point",
"coordinates": [
8.64098,
58.53982
]
},
"properties": {
"elv": "Songeelva",
"km": 13.8,
"z": 67.7,
"S": 0.01,
"Q": 7.68,
"w": 22.97,
"w_q": 8.31,
"h": 0.34,
"tau": 29.6,
"tau_c": 69.12,
"omega": 29.55,
"M": 0.43,
"D": 0.22,
"R": 0.11,
"sving": 0.16,
"os": 0.82,
"os_navn": "sideelv",
"foss": 0.37,
"foss_drop": 3.87,
"juv": 0.0,
"B": 0.82,
"frac_fav": 0.78,
"d_gull_km": 10.07,
"berg": "Granitt | Granitt, noe forgneiset, stedvis hyperstenførende (charnockittisk) | Bamble litotektoniske enhet",
"p_raw": 0.22,
"A_km2": 64.0,
"gate": 1.0,
"P": 43.88,
"rank": 12,
"klasse": "C",
"d_vei_m": 54,
"vei_navn": "Jomåsveien",
"d_sti_m": 879,
"d_parkering_m": 1661,
"adkomst": "Lett: bilvei 54 m unna (Jomåsveien).",
"navn": "Nordbø (Songeelva)",
"hvorfor": "Foss/stryk rett oppstrøms (4 m fall på 100 m) – fossekulp og fjell i dagen. Os: sideelv kommer inn her – grus og tyngre materiale legges i osen og bankehodet nedenfor. Berggrunn: Granitt (78 % gunstig oppstrøms).",
"s2_anomali": 2.89,
"s2_feox_z": 2.89,
"satsjekk": "Automatisk bildeanalyse: dypt/mørkt vann."
}
},
{
"type": "Feature",
"geometry": {
"type": "Point",
"coordinates": [
8.88137,
58.63132
]
},
"properties": {
"elv": "Storelva",
"km": 5.3,
"z": 22.45,
"S": 0.0,
"Q": 40.23,
"w": 48.27,
"w_q": 19.03,
"h": 1.3,
"tau": 8.06,
"tau_c": 18.34,
"omega": 5.18,
"M": 0.44,
"D": 0.51,
"R": 0.12,
"sving": 0.88,
"os": 0.2,
"os_navn": "sideelv",
"foss": 0.0,
"foss_drop": 0.0,
"juv": 0.0,
"B": 0.72,
"frac_fav": 0.37,
"d_gull_km": 8.08,
"berg": "Granitt | Granitt, noe forgneiset, stedvis hyperstenførende (charnockittisk) | Bamble litotektoniske enhet",
"p_raw": 0.21,
"A_km2": 335.28,
"gate": 1.0,
"P": 41.68,
"rank": 13,
"klasse": "C",
"d_vei_m": 52,
"vei_navn": "track",
"d_sti_m": 745,
"d_parkering_m": 1498,
"adkomst": "Lett: bilvei 52 m unna (track). Parkering 1498 m unna.",
"navn": "Sveinungsplass (Storelva)",
"hvorfor": "Skarp sving – grav på innersvingen og bak store steiner. Strømeffekten faller 51 % over strekningen – tungt materiale slipper her. Berggrunn: Granitt (37 % gunstig oppstrøms).",
"s2_anomali": null,
"s2_feox_z": null,
"satsjekk": "Automatisk bildeanalyse: dypt/mørkt vann, tett vegetasjon – elva delvis skjult."
}
},
{
"type": "Feature",
"geometry": {
"type": "Point",
"coordinates": [
8.6258,
58.52307
]
},
"properties": {
"elv": "Songeelva",
"km": 16.3,
"z": 58.55,
"S": 0.02,
"Q": 7.96,
"w": 25.39,
"w_q": 8.46,
"h": 0.25,
"tau": 49.49,
"tau_c": 102.87,
"omega": 61.3,
"M": 0.48,
"D": 0.01,
"R": 0.17,
"sving": 0.4,
"os": 0.0,
"os_navn": "",
"foss": 1.0,
"foss_drop": 4.69,
"juv": 0.0,
"B": 0.81,
"frac_fav": 0.78,
"d_gull_km": 12.09,
"berg": "Granitt | Granitt, noe forgneiset, stedvis hyperstenførende (charnockittisk) | Bamble litotektoniske enhet",
"p_raw": 0.21,
"A_km2": 66.3,
"gate": 1.0,
"P": 40.46,
"rank": 14,
"klasse": "C",
"d_vei_m": 48,
"vei_navn": "service",
"d_sti_m": 1020,
"d_parkering_m": 977,
"adkomst": "Lett: bilvei 48 m unna (service). Parkering 977 m unna.",
"navn": "Rynnemyr (Songeelva)",
"hvorfor": "Foss/stryk rett oppstrøms (5 m fall på 100 m) – fossekulp og fjell i dagen. Berggrunn: Granitt (78 % gunstig oppstrøms).",
"s2_anomali": 2.99,
"s2_feox_z": 2.99,
"satsjekk": "Automatisk bildeanalyse: dypt/mørkt vann."
}
},
{
"type": "Feature",
"geometry": {
"type": "Point",
"coordinates": [
8.83651,
58.62054
]
},
"properties": {
"elv": "Marendalselva",
"km": 2.6,
"z": 53.02,
"S": 0.02,
"Q": 2.53,
"w": 14.27,
"w_q": 4.78,
"h": 0.18,
"tau": 34.06,
"tau_c": 100.33,
"omega": 33.04,
"M": 0.34,
"D": 0.01,
"R": 0.05,
"sving": 0.7,
"os": 0.74,
"os_navn": "sideelv",
"foss": 1.0,
"foss_drop": 4.15,
"juv": 0.0,
"B": 0.54,
"frac_fav": 0.35,
"d_gull_km": 5.25,
"berg": "Trondhjemitt | Trondhjemitt, kvartsdioritt, forgneiset og foliert | Bamble litotektoniske enhet",
"p_raw": 0.21,
"A_km2": 21.11,
"gate": 1.0,
"P": 40.35,
"rank": 15,
"klasse": "C",
"d_vei_m": 128,
"vei_navn": "Vålandsveien",
"d_sti_m": 9,
"d_parkering_m": 496,
"adkomst": "Lett: bilvei 128 m unna (Vålandsveien). Parkering 496 m unna.",
"navn": "Ekra (Marendalselva)",
"hvorfor": "Foss/stryk rett oppstrøms (4 m fall på 100 m) – fossekulp og fjell i dagen. Os: sideelv kommer inn her – grus og tyngre materiale legges i osen og bankehodet nedenfor. Skarp sving – grav på innersvingen og bak store steiner. Berggrunn: Trondhjemitt (35 % gunstig oppstrøms). NGU-registrert gullforekomst 5.2 km unna.",
"s2_anomali": 1.72,
"s2_feox_z": 1.72,
"satsjekk": "Automatisk bildeanalyse: tett vegetasjon – elva delvis skjult."
}
},
{
"type": "Feature",
"geometry": {
"type": "Point",
"coordinates": [
8.80592,
58.55114
]
},
"properties": {
"elv": "Brekkeelva",
"km": 1.6,
"z": 31.06,
"S": 0.03,
"Q": 3.89,
"w": 17.02,
"w_q": 5.92,
"h": 0.18,
"tau": 54.88,
"tau_c": 126.66,
"omega": 67.87,
"M": 0.43,
"D": 0.0,
"R": 0.12,
"sving": 1.0,
"os": 0.6,
"os_navn": "sideelv",
"foss": 0.51,
"foss_drop": 9.21,
"juv": 0.0,
"B": 0.58,
"frac_fav": 0.4,
"d_gull_km": 7.42,
"berg": "Migmatitt | Migmatitt, stedvis hyperstenførende (charnockittisk) | Bamble litotektoniske enhet",
"p_raw": 0.2,
"A_km2": 32.45,
"gate": 1.0,
"P": 39.18,
"rank": 16,
"klasse": "C",
"d_vei_m": 22,
"vei_navn": "Sagemoveien",
"d_sti_m": 154,
"d_parkering_m": 565,
"adkomst": "Lett: bilvei 22 m unna (Sagemoveien). Parkering 565 m unna.",
"navn": "Brekka (Brekkeelva)",
"hvorfor": "Foss/stryk rett oppstrøms (9 m fall på 100 m) – fossekulp og fjell i dagen. Os: sideelv kommer inn her – grus og tyngre materiale legges i osen og bankehodet nedenfor. Skarp sving – grav på innersvingen og bak store steiner. Berggrunn: Migmatitt (40 % gunstig oppstrøms). NGU-registrert gullforekomst 7.4 km unna.",
"s2_anomali": 0.76,
"s2_feox_z": 0.7,
"satsjekk": "Automatisk bildeanalyse: dypt/mørkt vann, tett vegetasjon – elva delvis skjult."
}
},
{
"type": "Feature",
"geometry": {
"type": "Point",
"coordinates": [
8.64572,
58.60517
]
},
"properties": {
"elv": "Songeelva",
"km": 4.5,
"z": 155.66,
"S": 0.01,
"Q": 3.73,
"w": 17.4,
"w_q": 5.79,
"h": 0.24,
"tau": 25.22,
"tau_c": 74.63,
"omega": 22.07,
"M": 0.34,
"D": -0.0,
"R": 0.05,
"sving": 0.57,
"os": 0.0,
"os_navn": "",
"foss": 1.0,
"foss_drop": 4.45,
"juv": 0.0,
"B": 0.77,
"frac_fav": 0.78,
"d_gull_km": 6.0,
"berg": "Granitt | Granitt, noe forgneiset, stedvis hyperstenførende (charnockittisk) | Bamble litotektoniske enhet",
"p_raw": 0.19,
"A_km2": 31.07,
"gate": 1.0,
"P": 37.43,
"rank": 17,
"klasse": "C",
"d_vei_m": 470,
"vei_navn": "Olsbuveien",
"d_sti_m": 537,
"d_parkering_m": 1424,
"adkomst": "Kort gange: bilvei 470 m unna. Parkering 1424 m unna.",
"navn": "Sagmyra (Songeelva)",
"hvorfor": "Foss/stryk rett oppstrøms (4 m fall på 100 m) – fossekulp og fjell i dagen. Skarp sving – grav på innersvingen og bak store steiner. Berggrunn: Granitt (78 % gunstig oppstrøms). NGU-registrert gullforekomst 6.0 km unna.",
"s2_anomali": null,
"s2_feox_z": null,
"satsjekk": "Automatisk bildeanalyse: dypt/mørkt vann, tett vegetasjon – elva delvis skjult."
}
},
{
"type": "Feature",
"geometry": {
"type": "Point",
"coordinates": [
8.71593,
58.59129
]
},
"properties": {
"elv": "Nidelva",
"km": 0.4,
"z": 58.56,
"S": 0.0,
"Q": 219.7,
"w": 88.0,
"w_q": 44.47,
"h": 3.09,
"tau": 9.78,
"tau_c": 13.09,
"omega": 7.91,
"M": 0.75,
"D": 0.01,
"R": 0.51,
"sving": 0.07,
"os": 0.0,
"os_navn": "",
"foss": 0.0,
"foss_drop": 0.0,
"juv": 0.0,
"B": 1.22,
"frac_fav": 0.79,
"d_gull_km": 2.86,
"berg": "Granitt | Granitt, noe forgneiset, stedvis hyperstenførende (charnockittisk) | Bamble litotektoniske enhet",
"p_raw": 0.17,
"A_km2": 1830.81,
"gate": 1.0,
"P": 33.49,
"rank": 18,
"klasse": "C",
"d_vei_m": 111,
"vei_navn": "Bøylestadveien",
"d_sti_m": 675,
"d_parkering_m": 1748,
"adkomst": "Lett: bilvei 111 m unna (Bøylestadveien).",
"navn": "Vassenden (Nidelva)",
"hvorfor": "Berggrunn: Granitt (79 % gunstig oppstrøms). NGU-registrert gullforekomst 2.9 km unna.",
"s2_anomali": 2.84,
"s2_feox_z": 2.84,
"satsjekk": "Automatisk bildeanalyse: dypt/mørkt vann."
}
},
{
"type": "Feature",
"geometry": {
"type": "Point",
"coordinates": [
8.61553,
58.60152
]
},
"properties": {
"elv": "Songeelva",
"km": 2.1,
"z": 165.66,
"S": 0.01,
"Q": 2.91,
"w": 15.41,
"w_q": 5.11,
"h": 0.21,
"tau": 27.35,
"tau_c": 83.55,
"omega": 24.34,
"M": 0.33,
"D": -0.0,
"R": 0.04,
"sving": 0.23,
"os": 0.21,
"os_navn": "Stebekken",
"foss": 1.0,
"foss_drop": 4.07,
"juv": 0.0,
"B": 0.74,
"frac_fav": 0.78,
"d_gull_km": 7.8,
"berg": "Granitt | Granitt, noe forgneiset, stedvis hyperstenførende (charnockittisk) | Bamble litotektoniske enhet",
"p_raw": 0.17,
"A_km2": 24.22,
"gate": 1.0,
"P": 32.63,
"rank": 19,
"klasse": "C",
"d_vei_m": 44,
"vei_navn": "Jomåsveien",
"d_sti_m": 788,
"d_parkering_m": 516,
"adkomst": "Lett: bilvei 44 m unna (Jomåsveien). Parkering 516 m unna.",
"navn": "Frivoll (Songeelva)",
"hvorfor": "Foss/stryk rett oppstrøms (4 m fall på 100 m) – fossekulp og fjell i dagen. Berggrunn: Granitt (78 % gunstig oppstrøms). NGU-registrert gullforekomst 7.8 km unna.",
"s2_anomali": 1.32,
"s2_feox_z": 1.32,
"satsjekk": "Automatisk bildeanalyse: dypt/mørkt vann."
}
},
{
"type": "Feature",
"geometry": {
"type": "Point",
"coordinates": [
8.64705,
58.56963
]
},
"properties": {
"elv": "Sleikbekken",
"km": 3.2,
"z": 109.51,
"S": 0.06,
"Q": 4.89,
"w": 14.69,
"w_q": 6.64,
"h": 0.19,
"tau": 112.55,
"tau_c": 179.88,
"omega": 199.4,
"M": 0.63,
"D": -0.0,
"R": 0.35,
"sving": 0.31,
"os": 0.0,
"os_navn": "",
"foss": 1.0,
"foss_drop": 8.27,
"juv": 0.0,
"B": 0.57,
"frac_fav": 0.35,
"d_gull_km": 7.46,
"berg": "Granitt | Granitt, noe forgneiset, stedvis hyperstenførende (charnockittisk) | Bamble litotektoniske enhet",
"p_raw": 0.16,
"A_km2": 40.79,
"gate": 1.0,
"P": 31.63,
"rank": 20,
"klasse": "C",
"d_vei_m": 52,
"vei_navn": "Jomåsveien",
"d_sti_m": 393,
"d_parkering_m": 2921,
"adkomst": "Lett: bilvei 52 m unna (Jomåsveien).",
"navn": "Venemyr (Sleikbekken)",
"hvorfor": "Foss/stryk rett oppstrøms (8 m fall på 100 m) – fossekulp og fjell i dagen. Berggrunn: Granitt (35 % gunstig oppstrøms). NGU-registrert gullforekomst 7.5 km unna.",
"s2_anomali": null,
"s2_feox_z": null,
"satsjekk": "Automatisk bildeanalyse: dypt/mørkt vann, tett vegetasjon – elva delvis skjult."
}
}
]
}