{"type": "FeatureCollection", "features": [{"type": "Feature", "geometry": {"type": "Point", "coordinates": [8.74836, 58.61055]}, "properties": {"type": "gull", "okey": "5319", "name": "Våland", "objtype": "MalmRegistrering", "websub_ntext": "Gull", "sted_verif": "Y", "faktaark": "https://aps.ngu.no/pls/oradb/minres_deposit_fakta.Main?p_objid=5319&p_spraak=N", "s2_oh_z": 0.77, "s2_feox_z": 1.94}}, {"type": "Feature", "geometry": {"type": "Point", "coordinates": [8.90425, 58.56657]}, "properties": {"type": "basemetall", "s2_oh_z": 0.45, "s2_feox_z": 3.18}}, {"type": "Feature", "geometry": {"type": "Point", "coordinates": [8.8227, 58.54677]}, "properties": {"type": "basemetall", "s2_oh_z": 3.12, "s2_feox_z": -0.41}}, {"type": "Feature", "geometry": {"type": "Point", "coordinates": [8.83621, 58.55345]}, "properties": {"type": "basemetall", "s2_oh_z": 3.6, "s2_feox_z": 1.92}}, {"type": "Feature", "geometry": {"type": "Point", "coordinates": [8.74351, 58.60403]}, "properties": {"type": "basemetall", "s2_oh_z": 2.74, "s2_feox_z": 2.04}}, {"type": "Feature", "geometry": {"type": "Point", "coordinates": [8.70651, 58.57296]}, "properties": {"type": "basemetall", "s2_oh_z": 3.13, "s2_feox_z": 2.08}}, {"type": "Feature", "geometry": {"type": "Point", "coordinates": [8.69359, 58.5556]}, "properties": {"type": "basemetall", "s2_oh_z": 15.82, "s2_feox_z": 1.94}}, {"type": "Feature", "geometry": {"type": "Point", "coordinates": [8.70102, 58.56376]}, "properties": {"type": "basemetall", "s2_oh_z": null, "s2_feox_z": null}}]}