<?xml version="1.0" encoding="UTF-8"?>
<gpx version="1.1" creator="gulloye" xmlns="http://www.topografix.com/GPX/1/1">
  <wpt lat="58.60092" lon="8.70859"><name>1 A – Bøylefoss bru (Nidelva)</name><desc>Foss/stryk rett oppstrøms (4 m fall på 100 m) – fossekulp og fjell i dagen. τ = 199 Pa ≈ 2.2× terskelen: sand og grus flyttes ved flom, gull blir liggende (retensjon). Berggrunn: Kvartsitt (100 % gunstig oppstrøms). NGU-registrert gullforekomst 2.6 km unna.</desc></wpt>
  <wpt lat="58.60863" lon="8.70683"><name>2 A – Kastefossen (Nidelva)</name><desc>Foss/stryk rett oppstrøms (6 m fall på 100 m) – fossekulp og fjell i dagen. τ = 354 Pa ≈ 2.9× terskelen: sand og grus flyttes ved flom, gull blir liggende (retensjon). Berggrunn: Kvartsitt (100 % gunstig oppstrøms). NGU-registrert gullforekomst 2.4 km unna.</desc></wpt>
  <wpt lat="58.54153" lon="8.67306"><name>3 B – Stoet (Nidelva)</name><desc>τ = 107 Pa ≈ 1.9× terskelen: sand og grus flyttes ved flom, gull blir liggende (retensjon). Berggrunn: Amfibolitt (62 % gunstig oppstrøms).</desc></wpt>
  <wpt lat="58.57192" lon="8.70086"><name>4 B – Stemmyr (Nidelva)</name><desc>Os: sideelv kommer inn her – grus og tyngre materiale legges i osen og bankehodet nedenfor. Strømeffekten faller 33 % over strekningen – tungt materiale slipper her. Berggrunn: Granitt (67 % gunstig oppstrøms). NGU-registrert gullforekomst 5.1 km unna.</desc></wpt>
  <wpt lat="58.64068" lon="8.90171"><name>5 B – Bergehagane (Storelva)</name><desc>Foss/stryk rett oppstrøms (3 m fall på 100 m) – fossekulp og fjell i dagen. τ = 113 Pa ≈ 1.0× terskelen: sand og grus flyttes ved flom, gull blir liggende (retensjon). Berggrunn: Granitt (37 % gunstig oppstrøms).</desc></wpt>
  <wpt lat="58.63149" lon="8.85481"><name>6 B – Bakken (Storelva)</name><desc>Foss/stryk rett oppstrøms (7 m fall på 100 m) – fossekulp og fjell i dagen. τ = 136 Pa ≈ 1.1× terskelen: sand og grus flyttes ved flom, gull blir liggende (retensjon). Berggrunn: Granitt (37 % gunstig oppstrøms). NGU-registrert gullforekomst 6.6 km unna.</desc></wpt>
  <wpt lat="58.50905" lon="8.63285"><name>7 B – Osevollen badeplass (Songeelva)</name><desc>Foss/stryk rett oppstrøms (4 m fall på 100 m) – fossekulp og fjell i dagen. Skarp sving – grav på innersvingen og bak store steiner. Berggrunn: Granitt (78 % gunstig oppstrøms).</desc></wpt>
  <wpt lat="58.56164" lon="8.69095"><name>8 B – Langeidstryket (Nidelva)</name><desc>τ = 12 Pa ≈ 0.9× terskelen: sand og grus flyttes ved flom, gull blir liggende (retensjon). Berggrunn: Granitt (65 % gunstig oppstrøms). NGU-registrert gullforekomst 6.4 km unna.</desc></wpt>
  <wpt lat="58.54765" lon="8.63420"><name>9 B – Trollmoen (Songeelva)</name><desc>Foss/stryk rett oppstrøms (3 m fall på 100 m) – fossekulp og fjell i dagen. Berggrunn: Granitt (78 % gunstig oppstrøms).</desc></wpt>
  <wpt lat="58.64952" lon="8.84870"><name>10 B – Vassenden (Storelva)</name><desc>Foss/stryk rett oppstrøms (5 m fall på 100 m) – fossekulp og fjell i dagen. τ = 76 Pa ≈ 0.8× terskelen: sand og grus flyttes ved flom, gull blir liggende (retensjon). Berggrunn: Granitt (37 % gunstig oppstrøms). NGU-registrert gullforekomst 7.3 km unna.</desc></wpt>
  <wpt lat="58.62485" lon="8.85713"><name>11 B – Nes (Storelva)</name><desc>Os: Lillelv kommer inn her – grus og tyngre materiale legges i osen og bankehodet nedenfor. Skarp sving – grav på innersvingen og bak store steiner. Strømeffekten faller 46 % over strekningen – tungt materiale slipper her. Berggrunn: Granitt (37 % gunstig oppstrøms). NGU-registrert gullforekomst 6.5 km unna.</desc></wpt>
  <wpt lat="58.53982" lon="8.64098"><name>12 C – Nordbø (Songeelva)</name><desc>Foss/stryk rett oppstrøms (4 m fall på 100 m) – fossekulp og fjell i dagen. Os: sideelv kommer inn her – grus og tyngre materiale legges i osen og bankehodet nedenfor. Berggrunn: Granitt (78 % gunstig oppstrøms).</desc></wpt>
  <wpt lat="58.63132" lon="8.88137"><name>13 C – Sveinungsplass (Storelva)</name><desc>Skarp sving – grav på innersvingen og bak store steiner. Strømeffekten faller 51 % over strekningen – tungt materiale slipper her. Berggrunn: Granitt (37 % gunstig oppstrøms).</desc></wpt>
  <wpt lat="58.52307" lon="8.62580"><name>14 C – Rynnemyr (Songeelva)</name><desc>Foss/stryk rett oppstrøms (5 m fall på 100 m) – fossekulp og fjell i dagen. Berggrunn: Granitt (78 % gunstig oppstrøms).</desc></wpt>
  <wpt lat="58.62054" lon="8.83651"><name>15 C – Ekra (Marendalselva)</name><desc>Foss/stryk rett oppstrøms (4 m fall på 100 m) – fossekulp og fjell i dagen. Os: sideelv kommer inn her – grus og tyngre materiale legges i osen og bankehodet nedenfor. Skarp sving – grav på innersvingen og bak store steiner. Berggrunn: Trondhjemitt (35 % gunstig oppstrøms). NGU-registrert gullforekomst 5.2 km unna.</desc></wpt>
  <wpt lat="58.55114" lon="8.80592"><name>16 C – Brekka (Brekkeelva)</name><desc>Foss/stryk rett oppstrøms (9 m fall på 100 m) – fossekulp og fjell i dagen. Os: sideelv kommer inn her – grus og tyngre materiale legges i osen og bankehodet nedenfor. Skarp sving – grav på innersvingen og bak store steiner. Berggrunn: Migmatitt (40 % gunstig oppstrøms). NGU-registrert gullforekomst 7.4 km unna.</desc></wpt>
  <wpt lat="58.60517" lon="8.64572"><name>17 C – Sagmyra (Songeelva)</name><desc>Foss/stryk rett oppstrøms (4 m fall på 100 m) – fossekulp og fjell i dagen. Skarp sving – grav på innersvingen og bak store steiner. Berggrunn: Granitt (78 % gunstig oppstrøms). NGU-registrert gullforekomst 6.0 km unna.</desc></wpt>
  <wpt lat="58.59129" lon="8.71593"><name>18 C – Vassenden (Nidelva)</name><desc>Berggrunn: Granitt (79 % gunstig oppstrøms). NGU-registrert gullforekomst 2.9 km unna.</desc></wpt>
  <wpt lat="58.60152" lon="8.61553"><name>19 C – Frivoll (Songeelva)</name><desc>Foss/stryk rett oppstrøms (4 m fall på 100 m) – fossekulp og fjell i dagen. Berggrunn: Granitt (78 % gunstig oppstrøms). NGU-registrert gullforekomst 7.8 km unna.</desc></wpt>
  <wpt lat="58.56963" lon="8.64705"><name>20 C – Venemyr (Sleikbekken)</name><desc>Foss/stryk rett oppstrøms (8 m fall på 100 m) – fossekulp og fjell i dagen. Berggrunn: Granitt (35 % gunstig oppstrøms). NGU-registrert gullforekomst 7.5 km unna.</desc></wpt>
</gpx>