<?xml version="1.0" encoding="UTF-8"?>
<kml xmlns="http://www.opengis.net/kml/2.2"><Document>
<name>GULLØYE – Tvedestrand</name>
<Style id="kA"><IconStyle><color>ff2b39c0</color><scale>1.1</scale></IconStyle></Style>
<Style id="kB"><IconStyle><color>ff227ee6</color><scale>1.1</scale></IconStyle></Style>
<Style id="kC"><IconStyle><color>ff0fc4f1</color><scale>1.1</scale></IconStyle></Style>
<Placemark><name>1A Bøylefoss bru (Nidelva)</name><styleUrl>#kA</styleUrl><description>P=100. Foss/stryk rett oppstrøms (4 m fall på 100 m) – fossekulp og fjell i dagen. τ = 199 Pa ≈ 2.2× terskelen: sand og grus flyttes ved flom, gull blir liggende (retensjon). Berggrunn: Kvartsitt (100 % gunstig oppstrøms). NGU-registrert gullforekomst 2.6 km unna. Lett: bilvei 118 m unna (Bøylefossveien).</description><Point><coordinates>8.70859,58.60092,0</coordinates></Point></Placemark>
<Placemark><name>2A Kastefossen (Nidelva)</name><styleUrl>#kA</styleUrl><description>P=79. Foss/stryk rett oppstrøms (6 m fall på 100 m) – fossekulp og fjell i dagen. τ = 354 Pa ≈ 2.9× terskelen: sand og grus flyttes ved flom, gull blir liggende (retensjon). Berggrunn: Kvartsitt (100 % gunstig oppstrøms). NGU-registrert gullforekomst 2.4 km unna. Kort gange: bilvei 150 m unna.</description><Point><coordinates>8.70683,58.60863,0</coordinates></Point></Placemark>
<Placemark><name>3B Stoet (Nidelva)</name><styleUrl>#kB</styleUrl><description>P=69. τ = 107 Pa ≈ 1.9× terskelen: sand og grus flyttes ved flom, gull blir liggende (retensjon). Berggrunn: Amfibolitt (62 % gunstig oppstrøms). Lett: bilvei 85 m unna (Eivindstadveien).</description><Point><coordinates>8.67306,58.54153,0</coordinates></Point></Placemark>
<Placemark><name>4B Stemmyr (Nidelva)</name><styleUrl>#kB</styleUrl><description>P=57. Os: sideelv kommer inn her – grus og tyngre materiale legges i osen og bankehodet nedenfor. Strømeffekten faller 33 % over strekningen – tungt materiale slipper her. Berggrunn: Granitt (67 % gunstig oppstrøms). NGU-registrert gullforekomst 5.1 km unna. Lett: bilvei 62 m unna (track). Parkering 588 m unna.</description><Point><coordinates>8.70086,58.57192,0</coordinates></Point></Placemark>
<Placemark><name>5B Bergehagane (Storelva)</name><styleUrl>#kB</styleUrl><description>P=56. Foss/stryk rett oppstrøms (3 m fall på 100 m) – fossekulp og fjell i dagen. τ = 113 Pa ≈ 1.0× terskelen: sand og grus flyttes ved flom, gull blir liggende (retensjon). Berggrunn: Granitt (37 % gunstig oppstrøms). Lett: bilvei 54 m unna (Bergeveien).</description><Point><coordinates>8.90171,58.64068,0</coordinates></Point></Placemark>
<Placemark><name>6B Bakken (Storelva)</name><styleUrl>#kB</styleUrl><description>P=56. Foss/stryk rett oppstrøms (7 m fall på 100 m) – fossekulp og fjell i dagen. τ = 136 Pa ≈ 1.1× terskelen: sand og grus flyttes ved flom, gull blir liggende (retensjon). Berggrunn: Granitt (37 % gunstig oppstrøms). NGU-registrert gullforekomst 6.6 km unna. Lett: bilvei 33 m unna (Nesverkveien). Parkering 129 m unna.</description><Point><coordinates>8.85481,58.63149,0</coordinates></Point></Placemark>
<Placemark><name>7B Osevollen badeplass (Songeelva)</name><styleUrl>#kB</styleUrl><description>P=52. Foss/stryk rett oppstrøms (4 m fall på 100 m) – fossekulp og fjell i dagen. Skarp sving – grav på innersvingen og bak store steiner. Berggrunn: Granitt (78 % gunstig oppstrøms). Lett: bilvei 30 m unna (Osevollvegen). Parkering 293 m unna.</description><Point><coordinates>8.63285,58.50905,0</coordinates></Point></Placemark>
<Placemark><name>8B Langeidstryket (Nidelva)</name><styleUrl>#kB</styleUrl><description>P=50. τ = 12 Pa ≈ 0.9× terskelen: sand og grus flyttes ved flom, gull blir liggende (retensjon). Berggrunn: Granitt (65 % gunstig oppstrøms). NGU-registrert gullforekomst 6.4 km unna. Lett: bilvei 64 m unna (track).</description><Point><coordinates>8.69095,58.56164,0</coordinates></Point></Placemark>
<Placemark><name>9B Trollmoen (Songeelva)</name><styleUrl>#kB</styleUrl><description>P=49. Foss/stryk rett oppstrøms (3 m fall på 100 m) – fossekulp og fjell i dagen. Berggrunn: Granitt (78 % gunstig oppstrøms). Lett: bilvei 104 m unna (Jomåsveien).</description><Point><coordinates>8.63420,58.54765,0</coordinates></Point></Placemark>
<Placemark><name>10B Vassenden (Storelva)</name><styleUrl>#kB</styleUrl><description>P=48. Foss/stryk rett oppstrøms (5 m fall på 100 m) – fossekulp og fjell i dagen. τ = 76 Pa ≈ 0.8× terskelen: sand og grus flyttes ved flom, gull blir liggende (retensjon). Berggrunn: Granitt (37 % gunstig oppstrøms). NGU-registrert gullforekomst 7.3 km unna. Lett: bilvei 49 m unna (Nesverkveien).</description><Point><coordinates>8.84870,58.64952,0</coordinates></Point></Placemark>
<Placemark><name>11B Nes (Storelva)</name><styleUrl>#kB</styleUrl><description>P=47. Os: Lillelv kommer inn her – grus og tyngre materiale legges i osen og bankehodet nedenfor. Skarp sving – grav på innersvingen og bak store steiner. Strømeffekten faller 46 % over strekningen – tungt materiale slipper her. Berggrunn: Granitt (37 % gunstig oppstrøms). NGU-registrert gullforekomst 6.5 km unna. Lett: bilvei 49 m unna (Solbergveien). Parkering 525 m unna.</description><Point><coordinates>8.85713,58.62485,0</coordinates></Point></Placemark>
<Placemark><name>12C Nordbø (Songeelva)</name><styleUrl>#kC</styleUrl><description>P=44. Foss/stryk rett oppstrøms (4 m fall på 100 m) – fossekulp og fjell i dagen. Os: sideelv kommer inn her – grus og tyngre materiale legges i osen og bankehodet nedenfor. Berggrunn: Granitt (78 % gunstig oppstrøms). Lett: bilvei 54 m unna (Jomåsveien).</description><Point><coordinates>8.64098,58.53982,0</coordinates></Point></Placemark>
<Placemark><name>13C Sveinungsplass (Storelva)</name><styleUrl>#kC</styleUrl><description>P=42. Skarp sving – grav på innersvingen og bak store steiner. Strømeffekten faller 51 % over strekningen – tungt materiale slipper her. Berggrunn: Granitt (37 % gunstig oppstrøms). Lett: bilvei 52 m unna (track). Parkering 1498 m unna.</description><Point><coordinates>8.88137,58.63132,0</coordinates></Point></Placemark>
<Placemark><name>14C Rynnemyr (Songeelva)</name><styleUrl>#kC</styleUrl><description>P=40. Foss/stryk rett oppstrøms (5 m fall på 100 m) – fossekulp og fjell i dagen. Berggrunn: Granitt (78 % gunstig oppstrøms). Lett: bilvei 48 m unna (service). Parkering 977 m unna.</description><Point><coordinates>8.62580,58.52307,0</coordinates></Point></Placemark>
<Placemark><name>15C Ekra (Marendalselva)</name><styleUrl>#kC</styleUrl><description>P=40. Foss/stryk rett oppstrøms (4 m fall på 100 m) – fossekulp og fjell i dagen. Os: sideelv kommer inn her – grus og tyngre materiale legges i osen og bankehodet nedenfor. Skarp sving – grav på innersvingen og bak store steiner. Berggrunn: Trondhjemitt (35 % gunstig oppstrøms). NGU-registrert gullforekomst 5.2 km unna. Lett: bilvei 128 m unna (Vålandsveien). Parkering 496 m unna.</description><Point><coordinates>8.83651,58.62054,0</coordinates></Point></Placemark>
<Placemark><name>16C Brekka (Brekkeelva)</name><styleUrl>#kC</styleUrl><description>P=39. Foss/stryk rett oppstrøms (9 m fall på 100 m) – fossekulp og fjell i dagen. Os: sideelv kommer inn her – grus og tyngre materiale legges i osen og bankehodet nedenfor. Skarp sving – grav på innersvingen og bak store steiner. Berggrunn: Migmatitt (40 % gunstig oppstrøms). NGU-registrert gullforekomst 7.4 km unna. Lett: bilvei 22 m unna (Sagemoveien). Parkering 565 m unna.</description><Point><coordinates>8.80592,58.55114,0</coordinates></Point></Placemark>
<Placemark><name>17C Sagmyra (Songeelva)</name><styleUrl>#kC</styleUrl><description>P=37. Foss/stryk rett oppstrøms (4 m fall på 100 m) – fossekulp og fjell i dagen. Skarp sving – grav på innersvingen og bak store steiner. Berggrunn: Granitt (78 % gunstig oppstrøms). NGU-registrert gullforekomst 6.0 km unna. Kort gange: bilvei 470 m unna. Parkering 1424 m unna.</description><Point><coordinates>8.64572,58.60517,0</coordinates></Point></Placemark>
<Placemark><name>18C Vassenden (Nidelva)</name><styleUrl>#kC</styleUrl><description>P=33. Berggrunn: Granitt (79 % gunstig oppstrøms). NGU-registrert gullforekomst 2.9 km unna. Lett: bilvei 111 m unna (Bøylestadveien).</description><Point><coordinates>8.71593,58.59129,0</coordinates></Point></Placemark>
<Placemark><name>19C Frivoll (Songeelva)</name><styleUrl>#kC</styleUrl><description>P=33. Foss/stryk rett oppstrøms (4 m fall på 100 m) – fossekulp og fjell i dagen. Berggrunn: Granitt (78 % gunstig oppstrøms). NGU-registrert gullforekomst 7.8 km unna. Lett: bilvei 44 m unna (Jomåsveien). Parkering 516 m unna.</description><Point><coordinates>8.61553,58.60152,0</coordinates></Point></Placemark>
<Placemark><name>20C Venemyr (Sleikbekken)</name><styleUrl>#kC</styleUrl><description>P=32. Foss/stryk rett oppstrøms (8 m fall på 100 m) – fossekulp og fjell i dagen. Berggrunn: Granitt (35 % gunstig oppstrøms). NGU-registrert gullforekomst 7.5 km unna. Lett: bilvei 52 m unna (Jomåsveien).</description><Point><coordinates>8.64705,58.56963,0</coordinates></Point></Placemark>
</Document></kml>