{
"type": "FeatureCollection",
"features": [
{
"type": "Feature",
"geometry": {
"type": "Point",
"coordinates": [
6.80983,
59.5756
]
},
"properties": {
"elv": "Storåa",
"km": 1.2,
"z": 503.11,
"S": 0.11,
"Q": 19.3,
"w": 34.06,
"w_q": 13.18,
"h": 0.21,
"tau": 235.08,
"tau_c": 243.35,
"omega": 620.59,
"M": 0.97,
"D": -0.0,
"R": 0.76,
"sving": 0.65,
"os": 0.88,
"os_navn": "Moskarbekken",
"foss": 1.0,
"foss_drop": 8.09,
"juv": 0.0,
"B": 0.84,
"frac_fav": 0.83,
"d_gull_km": 53.27,
"berg": "Basalt | Metabasalt | Telemark litotektoniske enhet",
"p_raw": 0.48,
"A_km2": 77.22,
"gate": 1.0,
"P": 100.0,
"rank": 1,
"klasse": "A",
"d_vei_m": 17,
"vei_navn": "Vetrhusvegen",
"d_sti_m": 744,
"d_parkering_m": 440,
"adkomst": "Lett: bilvei 17 m unna (Vetrhusvegen). Parkering 440 m unna.",
"navn": "Storåa, km 1.2",
"hvorfor": "Foss/stryk rett oppstrøms (8 m fall på 100 m) – fossekulp og fjell i dagen. Os: Moskarbekken kommer inn her – grus og tyngre materiale legges i osen og bankehodet nedenfor. Skarp sving – grav på innersvingen og bak store steiner. τ = 235 Pa ≈ 1.0× terskelen: sand og grus flyttes ved flom, gull blir liggende (retensjon). Berggrunn: Basalt (83 % gunstig oppstrøms).",
"s2_anomali": 1.15,
"s2_feox_z": 1.01,
"satsjekk": "Automatisk bildeanalyse: ingen tydelige trekk."
}
},
{
"type": "Feature",
"geometry": {
"type": "Point",
"coordinates": [
6.81647,
59.68661
]
},
"properties": {
"elv": "bekk",
"km": 1.9,
"z": 489.47,
"S": 0.11,
"Q": 15.45,
"w": 22.0,
"w_q": 11.79,
"h": 0.24,
"tau": 269.5,
"tau_c": 244.08,
"omega": 773.6,
"M": 1.1,
"D": 0.09,
"R": 0.88,
"sving": 0.54,
"os": 0.84,
"os_navn": "sideelv",
"foss": 1.0,
"foss_drop": 22.39,
"juv": 0.03,
"B": 0.74,
"frac_fav": 0.68,
"d_gull_km": 62.31,
"berg": "Felsisk vulkansk bergart | Metamorfe vulkanitter, udifferensiert, vesentlig av sur til intermediær sammensetning | Telemark litotektoniske enhet",
"p_raw": 0.44,
"A_km2": 61.8,
"gate": 1.0,
"P": 91.79,
"rank": 2,
"klasse": "A",
"d_vei_m": 85,
"vei_navn": "unclassified",
"d_sti_m": 3665,
"d_parkering_m": 4204,
"adkomst": "Lett: bilvei 85 m unna (unclassified).",
"navn": "Nedstastølen (bekk)",
"hvorfor": "Foss/stryk rett oppstrøms (22 m fall på 100 m) – fossekulp og fjell i dagen. Os: sideelv kommer inn her – grus og tyngre materiale legges i osen og bankehodet nedenfor. Skarp sving – grav på innersvingen og bak store steiner. τ = 270 Pa ≈ 1.1× terskelen: sand og grus flyttes ved flom, gull blir liggende (retensjon). Berggrunn: Felsisk vulkansk bergart (68 % gunstig oppstrøms).",
"s2_anomali": 2.24,
"s2_feox_z": 0.57,
"satsjekk": "Automatisk bildeanalyse: tett vegetasjon – elva delvis skjult."
}
},
{
"type": "Feature",
"geometry": {
"type": "Point",
"coordinates": [
7.13487,
59.67336
]
},
"properties": {
"elv": "Holmavassåna",
"km": 0.5,
"z": 1012.54,
"S": 0.04,
"Q": 14.43,
"w": 34.24,
"w_q": 11.4,
"h": 0.24,
"tau": 100.99,
"tau_c": 151.02,
"omega": 177.79,
"M": 0.67,
"D": 0.2,
"R": 0.4,
"sving": 0.23,
"os": 0.89,
"os_navn": "sideelv",
"foss": 1.0,
"foss_drop": 11.63,
"juv": 0.0,
"B": 0.9,
"frac_fav": 1.0,
"d_gull_km": 52.02,
"berg": "Basalt | Metabasalt | Telemark litotektoniske enhet",
"p_raw": 0.41,
"A_km2": 57.74,
"gate": 1.0,
"P": 86.27,
"rank": 3,
"klasse": "A",
"d_vei_m": 102,
"vei_navn": "unclassified",
"d_sti_m": 304,
"d_parkering_m": 18109,
"adkomst": "Lett: bilvei 102 m unna (unclassified).",
"navn": "Holmavassåna, km 0.5",
"hvorfor": "Foss/stryk rett oppstrøms (12 m fall på 100 m) – fossekulp og fjell i dagen. Os: sideelv kommer inn her – grus og tyngre materiale legges i osen og bankehodet nedenfor. Berggrunn: Basalt (100 % gunstig oppstrøms).",
"s2_anomali": 2.89,
"s2_feox_z": 2.89,
"satsjekk": "Automatisk bildeanalyse: hvitt vann/stryk synlig, dypt/mørkt vann."
}
},
{
"type": "Feature",
"geometry": {
"type": "Point",
"coordinates": [
7.10949,
59.6714
]
},
"properties": {
"elv": "Holmavassåna",
"km": 2.0,
"z": 982.2,
"S": 0.04,
"Q": 15.24,
"w": 16.0,
"w_q": 11.71,
"h": 0.41,
"tau": 156.96,
"tau_c": 144.45,
"omega": 367.44,
"M": 1.09,
"D": 0.0,
"R": 0.87,
"sving": 0.39,
"os": 0.1,
"os_navn": "sideelv",
"foss": 1.0,
"foss_drop": 3.98,
"juv": 0.06,
"B": 0.91,
"frac_fav": 1.0,
"d_gull_km": 52.38,
"berg": "Basalt | Metabasalt | Telemark litotektoniske enhet",
"p_raw": 0.41,
"A_km2": 60.96,
"gate": 1.0,
"P": 84.41,
"rank": 4,
"klasse": "A",
"d_vei_m": 200,
"vei_navn": "unclassified",
"d_sti_m": 1447,
"d_parkering_m": 16659,
"adkomst": "Kort gange: bilvei 200 m unna.",
"navn": "Gravetjørn (Holmavassåna)",
"hvorfor": "Foss/stryk rett oppstrøms (4 m fall på 100 m) – fossekulp og fjell i dagen. τ = 157 Pa ≈ 1.1× terskelen: sand og grus flyttes ved flom, gull blir liggende (retensjon). Berggrunn: Basalt (100 % gunstig oppstrøms).",
"s2_anomali": 3.54,
"s2_feox_z": 3.54,
"satsjekk": "Automatisk bildeanalyse: dypt/mørkt vann."
}
},
{
"type": "Feature",
"geometry": {
"type": "Point",
"coordinates": [
6.92325,
59.64786
]
},
"properties": {
"elv": "Bleskestadåa",
"km": 4.7,
"z": 202.82,
"S": 0.09,
"Q": 33.93,
"w": 24.0,
"w_q": 17.47,
"h": 0.39,
"tau": 365.31,
"tau_c": 224.08,
"omega": 1312.47,
"M": 1.63,
"D": 0.02,
"R": 0.99,
"sving": 0.52,
"os": 0.52,
"os_navn": "sideelv",
"foss": 1.0,
"foss_drop": 18.09,
"juv": 0.17,
"B": 0.66,
"frac_fav": 0.43,
"d_gull_km": 55.26,
"berg": "Granodioritt | Massiv granitt, porfyrgranitt, middels- til grovkornet | Telemark litotektoniske enhet",
"p_raw": 0.38,
"A_km2": 135.71,
"gate": 1.0,
"P": 79.54,
"rank": 5,
"klasse": "A",
"d_vei_m": 63,
"vei_navn": "Gardavegen",
"d_sti_m": 700,
"d_parkering_m": 5953,
"adkomst": "Lett: bilvei 63 m unna (Gardavegen).",
"navn": "Bleskestad (Bleskestadåa)",
"hvorfor": "Foss/stryk rett oppstrøms (18 m fall på 100 m) – fossekulp og fjell i dagen. Os: sideelv kommer inn her – grus og tyngre materiale legges i osen og bankehodet nedenfor. Skarp sving – grav på innersvingen og bak store steiner. τ = 365 Pa ≈ 1.6× terskelen: sand og grus flyttes ved flom, gull blir liggende (retensjon). Berggrunn: Granodioritt (43 % gunstig oppstrøms).",
"s2_anomali": 1.52,
"s2_feox_z": 1.4,
"satsjekk": "Automatisk bildeanalyse: dypt/mørkt vann."
}
},
{
"type": "Feature",
"geometry": {
"type": "Point",
"coordinates": [
6.84686,
59.56479
]
},
"properties": {
"elv": "Jonsstølåno",
"km": 4.3,
"z": 612.88,
"S": 0.09,
"Q": 8.14,
"w": 21.42,
"w_q": 8.56,
"h": 0.18,
"tau": 157.75,
"tau_c": 216.89,
"omega": 330.73,
"M": 0.73,
"D": 0.13,
"R": 0.48,
"sving": 0.38,
"os": 0.92,
"os_navn": "Kyrkjesteinåno",
"foss": 1.0,
"foss_drop": 17.61,
"juv": 0.0,
"B": 0.76,
"frac_fav": 0.84,
"d_gull_km": 50.93,
"berg": "Granitt | Massiv granitt, porfyrgranitt, middels- til grovkornet | Telemark litotektoniske enhet",
"p_raw": 0.37,
"A_km2": 32.57,
"gate": 1.0,
"P": 78.02,
"rank": 6,
"klasse": "A",
"d_vei_m": 18,
"vei_navn": "Vetrhusvegen",
"d_sti_m": 18,
"d_parkering_m": 251,
"adkomst": "Lett: bilvei 18 m unna (Vetrhusvegen). Parkering 251 m unna.",
"navn": "Krokhøl (Jonsstølåno)",
"hvorfor": "Foss/stryk rett oppstrøms (18 m fall på 100 m) – fossekulp og fjell i dagen. Os: Kyrkjesteinåno kommer inn her – grus og tyngre materiale legges i osen og bankehodet nedenfor. Berggrunn: Granitt (84 % gunstig oppstrøms).",
"s2_anomali": 1.05,
"s2_feox_z": 0.65,
"satsjekk": "Automatisk bildeanalyse: dypt/mørkt vann."
}
},
{
"type": "Feature",
"geometry": {
"type": "Point",
"coordinates": [
6.96979,
59.63006
]
},
"properties": {
"elv": "Bleskestadåa",
"km": 1.2,
"z": 672.2,
"S": 0.06,
"Q": 32.07,
"w": 12.0,
"w_q": 16.99,
"h": 0.66,
"tau": 423.54,
"tau_c": 185.65,
"omega": 1703.34,
"M": 2.28,
"D": 0.0,
"R": 0.78,
"sving": 0.16,
"os": 0.98,
"os_navn": "sideelv",
"foss": 1.0,
"foss_drop": 14.83,
"juv": 0.33,
"B": 0.68,
"frac_fav": 0.47,
"d_gull_km": 52.13,
"berg": "Granodioritt | Massiv granitt, porfyrgranitt, middels- til grovkornet | Telemark litotektoniske enhet",
"p_raw": 0.37,
"A_km2": 128.3,
"gate": 1.0,
"P": 77.68,
"rank": 7,
"klasse": "A",
"d_vei_m": 2273,
"vei_navn": "track",
"d_sti_m": 101,
"d_parkering_m": 8839,
"adkomst": "Avsides: 2.3 km fra bilvei – planlegg dagstur.",
"navn": "Nystølen (Bleskestadåa)",
"hvorfor": "Foss/stryk rett oppstrøms (15 m fall på 100 m) – fossekulp og fjell i dagen. Os: sideelv kommer inn her – grus og tyngre materiale legges i osen og bankehodet nedenfor. τ = 424 Pa ≈ 2.3× terskelen: sand og grus flyttes ved flom, gull blir liggende (retensjon). Berggrunn: Granodioritt (47 % gunstig oppstrøms).",
"s2_anomali": null,
"s2_feox_z": null,
"satsjekk": "Automatisk bildeanalyse: dypt/mørkt vann, tett vegetasjon – elva delvis skjult."
}
},
{
"type": "Feature",
"geometry": {
"type": "Point",
"coordinates": [
6.87358,
59.65236
]
},
"properties": {
"elv": "Roaldkvamsåa",
"km": 2.0,
"z": 80.9,
"S": 0.02,
"Q": 62.43,
"w": 38.0,
"w_q": 23.7,
"h": 0.71,
"tau": 126.59,
"tau_c": 98.43,
"omega": 294.32,
"M": 1.29,
"D": 0.03,
"R": 0.97,
"sving": 0.35,
"os": 0.6,
"os_navn": "Tverråa",
"foss": 1.0,
"foss_drop": 3.07,
"juv": 0.0,
"B": 0.68,
"frac_fav": 0.39,
"d_gull_km": 57.32,
"berg": "Granodioritt | Massiv granitt, porfyrgranitt, middels- til grovkornet | Telemark litotektoniske enhet",
"p_raw": 0.37,
"A_km2": 249.74,
"gate": 1.0,
"P": 76.87,
"rank": 8,
"klasse": "A",
"d_vei_m": 127,
"vei_navn": "Gardavegen",
"d_sti_m": 1124,
"d_parkering_m": 3167,
"adkomst": "Lett: bilvei 127 m unna (Gardavegen).",
"navn": "Oppigard (Roaldkvamsåa)",
"hvorfor": "Foss/stryk rett oppstrøms (3 m fall på 100 m) – fossekulp og fjell i dagen. Os: Tverråa kommer inn her – grus og tyngre materiale legges i osen og bankehodet nedenfor. τ = 127 Pa ≈ 1.3× terskelen: sand og grus flyttes ved flom, gull blir liggende (retensjon). Berggrunn: Granodioritt (39 % gunstig oppstrøms).",
"s2_anomali": 1.64,
"s2_feox_z": 1.64,
"satsjekk": "Automatisk bildeanalyse: ingen tydelige trekk."
}
},
{
"type": "Feature",
"geometry": {
"type": "Point",
"coordinates": [
6.85606,
59.57205
]
},
"properties": {
"elv": "Gaukstølåa",
"km": 2.4,
"z": 617.68,
"S": 0.03,
"Q": 9.65,
"w": 27.81,
"w_q": 9.32,
"h": 0.24,
"tau": 66.58,
"tau_c": 121.8,
"omega": 95.15,
"M": 0.55,
"D": 0.09,
"R": 0.24,
"sving": 0.47,
"os": 0.74,
"os_navn": "sideelv",
"foss": 1.0,
"foss_drop": 5.4,
"juv": 0.0,
"B": 0.86,
"frac_fav": 1.0,
"d_gull_km": 51.14,
"berg": "Basalt | Metabasalt | Telemark litotektoniske enhet",
"p_raw": 0.35,
"A_km2": 38.59,
"gate": 1.0,
"P": 73.62,
"rank": 9,
"klasse": "A",
"d_vei_m": 25,
"vei_navn": "Vetrhusvegen",
"d_sti_m": 375,
"d_parkering_m": 732,
"adkomst": "Lett: bilvei 25 m unna (Vetrhusvegen). Parkering 732 m unna.",
"navn": "Krokhøl (Gaukstølåa)",
"hvorfor": "Foss/stryk rett oppstrøms (5 m fall på 100 m) – fossekulp og fjell i dagen. Os: sideelv kommer inn her – grus og tyngre materiale legges i osen og bankehodet nedenfor. Berggrunn: Basalt (100 % gunstig oppstrøms).",
"s2_anomali": 2.16,
"s2_feox_z": 2.16,
"satsjekk": "Automatisk bildeanalyse: grus/sandbanke synlig."
}
},
{
"type": "Feature",
"geometry": {
"type": "Point",
"coordinates": [
6.82679,
59.57493
]
},
"properties": {
"elv": "Storåa",
"km": 0.2,
"z": 560.22,
"S": 0.04,
"Q": 19.19,
"w": 22.0,
"w_q": 13.14,
"h": 0.38,
"tau": 150.54,
"tau_c": 146.24,
"omega": 344.9,
"M": 1.03,
"D": 0.02,
"R": 0.82,
"sving": 0.01,
"os": 0.37,
"os_navn": "Jonsstølåno",
"foss": 1.0,
"foss_drop": 8.98,
"juv": 0.05,
"B": 0.83,
"frac_fav": 0.81,
"d_gull_km": 52.53,
"berg": "Basalt | Metabasalt | Telemark litotektoniske enhet",
"p_raw": 0.35,
"A_km2": 76.75,
"gate": 1.0,
"P": 72.88,
"rank": 10,
"klasse": "B",
"d_vei_m": 761,
"vei_navn": "Vetrhusvegen",
"d_sti_m": 217,
"d_parkering_m": 943,
"adkomst": "Gange 0.8 km fra nærmeste bilvei. Parkering 943 m unna.",
"navn": "Storåa, km 0.2",
"hvorfor": "Foss/stryk rett oppstrøms (9 m fall på 100 m) – fossekulp og fjell i dagen. τ = 151 Pa ≈ 1.0× terskelen: sand og grus flyttes ved flom, gull blir liggende (retensjon). Berggrunn: Basalt (81 % gunstig oppstrøms).",
"s2_anomali": null,
"s2_feox_z": null,
"satsjekk": "Automatisk bildeanalyse: dypt/mørkt vann."
}
},
{
"type": "Feature",
"geometry": {
"type": "Point",
"coordinates": [
7.23659,
59.57167
]
},
"properties": {
"elv": "bekk",
"km": 2.0,
"z": 809.18,
"S": 0.12,
"Q": 10.03,
"w": 19.67,
"w_q": 9.5,
"h": 0.2,
"tau": 226.29,
"tau_c": 247.26,
"omega": 576.37,
"M": 0.92,
"D": 0.0,
"R": 0.71,
"sving": 0.37,
"os": 0.12,
"os_navn": "Væringsåni",
"foss": 1.0,
"foss_drop": 14.2,
"juv": 0.0,
"B": 0.86,
"frac_fav": 1.0,
"d_gull_km": 39.35,
"berg": "Glimmergneis | Båndet, sliret biotittrik gneis, migmatitt med grunnmasse (paleosom) av biotittgneis og amfibolitt | Telemark litotektoniske enhet",
"p_raw": 0.35,
"A_km2": 40.11,
"gate": 1.0,
"P": 72.2,
"rank": 11,
"klasse": "B",
"d_vei_m": 12,
"vei_navn": "Breivevegen",
"d_sti_m": 17,
"d_parkering_m": 22024,
"adkomst": "Lett: bilvei 12 m unna (Breivevegen).",
"navn": "bekk, km 2.0",
"hvorfor": "Foss/stryk rett oppstrøms (14 m fall på 100 m) – fossekulp og fjell i dagen. τ = 226 Pa ≈ 0.9× terskelen: sand og grus flyttes ved flom, gull blir liggende (retensjon). Berggrunn: Glimmergneis (100 % gunstig oppstrøms).",
"s2_anomali": 3.29,
"s2_feox_z": 3.29,
"satsjekk": "Automatisk bildeanalyse: grus/sandbanke synlig."
}
},
{
"type": "Feature",
"geometry": {
"type": "Point",
"coordinates": [
7.02311,
59.63789
]
},
"properties": {
"elv": "Sandvassåna",
"km": 0.6,
"z": 789.16,
"S": 0.1,
"Q": 24.45,
"w": 24.0,
"w_q": 14.83,
"h": 0.32,
"tau": 302.94,
"tau_c": 225.95,
"omega": 961.8,
"M": 1.34,
"D": 0.11,
"R": 0.98,
"sving": 0.12,
"os": 0.0,
"os_navn": "",
"foss": 1.0,
"foss_drop": 25.22,
"juv": 0.0,
"B": 0.78,
"frac_fav": 0.68,
"d_gull_km": 51.27,
"berg": "Granodioritt | Massiv granitt, porfyrgranitt, middels- til grovkornet | Telemark litotektoniske enhet",
"p_raw": 0.34,
"A_km2": 97.81,
"gate": 1.0,
"P": 70.51,
"rank": 12,
"klasse": "B",
"d_vei_m": 2138,
"vei_navn": "unclassified",
"d_sti_m": 576,
"d_parkering_m": 11662,
"adkomst": "Avsides: 2.1 km fra bilvei – planlegg dagstur.",
"navn": "Sandvassåna, km 0.6",
"hvorfor": "Foss/stryk rett oppstrøms (25 m fall på 100 m) – fossekulp og fjell i dagen. τ = 303 Pa ≈ 1.3× terskelen: sand og grus flyttes ved flom, gull blir liggende (retensjon). Berggrunn: Granodioritt (68 % gunstig oppstrøms).",
"s2_anomali": null,
"s2_feox_z": null,
"satsjekk": "Automatisk bildeanalyse: dypt/mørkt vann."
}
},
{
"type": "Feature",
"geometry": {
"type": "Point",
"coordinates": [
6.82515,
59.69231
]
},
"properties": {
"elv": "bekk",
"km": 1.0,
"z": 602.94,
"S": 0.12,
"Q": 14.41,
"w": 33.34,
"w_q": 11.39,
"h": 0.18,
"tau": 209.11,
"tau_c": 251.55,
"omega": 505.6,
"M": 0.83,
"D": -0.0,
"R": 0.62,
"sving": 0.11,
"os": 0.89,
"os_navn": "sideelv",
"foss": 1.0,
"foss_drop": 15.31,
"juv": 0.0,
"B": 0.73,
"frac_fav": 0.68,
"d_gull_km": 62.53,
"berg": "Felsisk vulkansk bergart | Metamorfe vulkanitter, udifferensiert, vesentlig av sur til intermediær sammensetning | Telemark litotektoniske enhet",
"p_raw": 0.33,
"A_km2": 57.64,
"gate": 1.0,
"P": 69.33,
"rank": 13,
"klasse": "B",
"d_vei_m": 52,
"vei_navn": "unclassified",
"d_sti_m": 4358,
"d_parkering_m": 4857,
"adkomst": "Lett: bilvei 52 m unna (unclassified).",
"navn": "Myrane (bekk)",
"hvorfor": "Foss/stryk rett oppstrøms (15 m fall på 100 m) – fossekulp og fjell i dagen. Os: sideelv kommer inn her – grus og tyngre materiale legges i osen og bankehodet nedenfor. τ = 209 Pa ≈ 0.8× terskelen: sand og grus flyttes ved flom, gull blir liggende (retensjon). Berggrunn: Felsisk vulkansk bergart (68 % gunstig oppstrøms).",
"s2_anomali": 1.36,
"s2_feox_z": -0.08,
"satsjekk": "Automatisk bildeanalyse: ingen tydelige trekk."
}
},
{
"type": "Feature",
"geometry": {
"type": "Point",
"coordinates": [
6.93333,
59.64309
]
},
"properties": {
"elv": "Bleskestadåa",
"km": 3.9,
"z": 271.55,
"S": 0.24,
"Q": 33.84,
"w": 16.0,
"w_q": 17.45,
"h": 0.38,
"tau": 897.56,
"tau_c": 356.86,
"omega": 4980.31,
"M": 2.52,
"D": 0.11,
"R": 0.69,
"sving": 0.06,
"os": 0.76,
"os_navn": "sideelv",
"foss": 1.0,
"foss_drop": 73.69,
"juv": 0.25,
"B": 0.67,
"frac_fav": 0.44,
"d_gull_km": 54.5,
"berg": "Granodioritt | Massiv granitt, porfyrgranitt, middels- til grovkornet | Telemark litotektoniske enhet",
"p_raw": 0.33,
"A_km2": 135.36,
"gate": 1.0,
"P": 68.39,
"rank": 14,
"klasse": "B",
"d_vei_m": 73,
"vei_navn": "track",
"d_sti_m": 178,
"d_parkering_m": 6555,
"adkomst": "Lett: bilvei 73 m unna (track).",
"navn": "Klauvfossen (Bleskestadåa)",
"hvorfor": "Foss/stryk rett oppstrøms (74 m fall på 100 m) – fossekulp og fjell i dagen. Os: sideelv kommer inn her – grus og tyngre materiale legges i osen og bankehodet nedenfor. τ = 898 Pa ≈ 2.5× terskelen: sand og grus flyttes ved flom, gull blir liggende (retensjon). Berggrunn: Granodioritt (44 % gunstig oppstrøms).",
"s2_anomali": null,
"s2_feox_z": null,
"satsjekk": "Automatisk bildeanalyse: dypt/mørkt vann."
}
},
{
"type": "Feature",
"geometry": {
"type": "Point",
"coordinates": [
6.98963,
59.6285
]
},
"properties": {
"elv": "Sandvassåna",
"km": 2.9,
"z": 707.6,
"S": 0.02,
"Q": 28.37,
"w": 47.35,
"w_q": 15.98,
"h": 0.37,
"tau": 73.2,
"tau_c": 103.17,
"omega": 117.92,
"M": 0.71,
"D": 0.0,
"R": 0.46,
"sving": 0.07,
"os": 0.93,
"os_navn": "sideelv",
"foss": 1.0,
"foss_drop": 4.16,
"juv": 0.0,
"B": 0.79,
"frac_fav": 0.68,
"d_gull_km": 51.37,
"berg": "Granodioritt | Massiv granitt, porfyrgranitt, middels- til grovkornet | Telemark litotektoniske enhet",
"p_raw": 0.33,
"A_km2": 113.48,
"gate": 1.0,
"P": 68.32,
"rank": 15,
"klasse": "B",
"d_vei_m": 3263,
"vei_navn": "service",
"d_sti_m": 215,
"d_parkering_m": 9971,
"adkomst": "Avsides: 3.3 km fra bilvei – planlegg dagstur.",
"navn": "Stovo (Sandvassåna)",
"hvorfor": "Foss/stryk rett oppstrøms (4 m fall på 100 m) – fossekulp og fjell i dagen. Os: sideelv kommer inn her – grus og tyngre materiale legges i osen og bankehodet nedenfor. Berggrunn: Granodioritt (68 % gunstig oppstrøms).",
"s2_anomali": 4.0,
"s2_feox_z": 4.56,
"satsjekk": "Automatisk bildeanalyse: grus/sandbanke synlig."
}
},
{
"type": "Feature",
"geometry": {
"type": "Point",
"coordinates": [
6.95672,
59.67158
]
},
"properties": {
"elv": "Nordmorkåa",
"km": 0.3,
"z": 565.04,
"S": 0.16,
"Q": 19.45,
"w": 33.87,
"w_q": 13.23,
"h": 0.19,
"tau": 306.17,
"tau_c": 292.36,
"omega": 907.42,
"M": 1.05,
"D": 0.07,
"R": 0.84,
"sving": 0.28,
"os": 0.95,
"os_navn": "sideelv",
"foss": 1.0,
"foss_drop": 24.23,
"juv": 0.0,
"B": 0.58,
"frac_fav": 0.35,
"d_gull_km": 56.43,
"berg": "Granodioritt | Massiv granitt, porfyrgranitt, middels- til grovkornet | Telemark litotektoniske enhet",
"p_raw": 0.32,
"A_km2": 77.79,
"gate": 1.0,
"P": 67.3,
"rank": 16,
"klasse": "B",
"d_vei_m": 86,
"vei_navn": "track",
"d_sti_m": 295,
"d_parkering_m": 8237,
"adkomst": "Lett: bilvei 86 m unna (track).",
"navn": "Kvelvane (Nordmorkåa)",
"hvorfor": "Foss/stryk rett oppstrøms (24 m fall på 100 m) – fossekulp og fjell i dagen. Os: sideelv kommer inn her – grus og tyngre materiale legges i osen og bankehodet nedenfor. τ = 306 Pa ≈ 1.0× terskelen: sand og grus flyttes ved flom, gull blir liggende (retensjon). Berggrunn: Granodioritt (35 % gunstig oppstrøms).",
"s2_anomali": 2.42,
"s2_feox_z": 1.96,
"satsjekk": "Automatisk bildeanalyse: grus/sandbanke synlig."
}
},
{
"type": "Feature",
"geometry": {
"type": "Point",
"coordinates": [
6.99455,
59.69993
]
},
"properties": {
"elv": "bekk",
"km": 1.9,
"z": 666.16,
"S": 0.22,
"Q": 14.31,
"w": 28.47,
"w_q": 11.35,
"h": 0.16,
"tau": 352.04,
"tau_c": 341.96,
"omega": 1086.81,
"M": 1.03,
"D": 0.17,
"R": 0.82,
"sving": 0.55,
"os": 0.63,
"os_navn": "sideelv",
"foss": 1.0,
"foss_drop": 77.66,
"juv": 0.0,
"B": 0.56,
"frac_fav": 0.35,
"d_gull_km": 58.09,
"berg": "Granittisk gneis | Gneis, udifferensiert (overveiende lyse kvartsfeltspatbergarter) | Midtre kaledonsk dekkeserie",
"p_raw": 0.32,
"A_km2": 57.24,
"gate": 1.0,
"P": 66.08,
"rank": 17,
"klasse": "B",
"d_vei_m": 3473,
"vei_navn": "track",
"d_sti_m": 48,
"d_parkering_m": 11482,
"adkomst": "Avsides: 3.5 km fra bilvei – planlegg dagstur.",
"navn": "Fossaslåtta (bekk)",
"hvorfor": "Foss/stryk rett oppstrøms (78 m fall på 100 m) – fossekulp og fjell i dagen. Os: sideelv kommer inn her – grus og tyngre materiale legges i osen og bankehodet nedenfor. Skarp sving – grav på innersvingen og bak store steiner. τ = 352 Pa ≈ 1.0× terskelen: sand og grus flyttes ved flom, gull blir liggende (retensjon). Berggrunn: Granittisk gneis (35 % gunstig oppstrøms).",
"s2_anomali": 1.68,
"s2_feox_z": 0.01,
"satsjekk": "Automatisk bildeanalyse: grus/sandbanke synlig."
}
},
{
"type": "Feature",
"geometry": {
"type": "Point",
"coordinates": [
6.88694,
59.65411
]
},
"properties": {
"elv": "Roaldkvamsåa",
"km": 1.2,
"z": 97.22,
"S": 0.02,
"Q": 61.69,
"w": 46.14,
"w_q": 23.56,
"h": 0.58,
"tau": 131.93,
"tau_c": 111.11,
"omega": 305.22,
"M": 1.19,
"D": 0.09,
"R": 0.93,
"sving": 0.41,
"os": 0.0,
"os_navn": "",
"foss": 1.0,
"foss_drop": 3.95,
"juv": 0.03,
"B": 0.68,
"frac_fav": 0.4,
"d_gull_km": 57.02,
"berg": "Granodioritt | Massiv granitt, porfyrgranitt, middels- til grovkornet | Telemark litotektoniske enhet",
"p_raw": 0.32,
"A_km2": 246.74,
"gate": 1.0,
"P": 66.06,
"rank": 18,
"klasse": "B",
"d_vei_m": 17,
"vei_navn": "Gardavegen",
"d_sti_m": 838,
"d_parkering_m": 3942,
"adkomst": "Lett: bilvei 17 m unna (Gardavegen).",
"navn": "Roaldkvamsåa, km 1.2",
"hvorfor": "Foss/stryk rett oppstrøms (4 m fall på 100 m) – fossekulp og fjell i dagen. τ = 132 Pa ≈ 1.2× terskelen: sand og grus flyttes ved flom, gull blir liggende (retensjon). Berggrunn: Granodioritt (40 % gunstig oppstrøms).",
"s2_anomali": 1.53,
"s2_feox_z": 1.53,
"satsjekk": "Automatisk bildeanalyse: ingen tydelige trekk."
}
},
{
"type": "Feature",
"geometry": {
"type": "Point",
"coordinates": [
6.90877,
59.65258
]
},
"properties": {
"elv": "Bleskestadåa",
"km": 5.8,
"z": 132.55,
"S": 0.05,
"Q": 37.22,
"w": 14.0,
"w_q": 18.3,
"h": 0.71,
"tau": 359.09,
"tau_c": 165.81,
"omega": 1351.33,
"M": 2.17,
"D": 0.02,
"R": 0.83,
"sving": 0.11,
"os": 0.41,
"os_navn": "Nordmorkåa",
"foss": 1.0,
"foss_drop": 8.56,
"juv": 0.33,
"B": 0.67,
"frac_fav": 0.43,
"d_gull_km": 56.16,
"berg": "Granodioritt | Massiv granitt, porfyrgranitt, middels- til grovkornet | Telemark litotektoniske enhet",
"p_raw": 0.31,
"A_km2": 148.86,
"gate": 1.0,
"P": 65.54,
"rank": 19,
"klasse": "B",
"d_vei_m": 61,
"vei_navn": "Gardavegen",
"d_sti_m": 1673,
"d_parkering_m": 5149,
"adkomst": "Lett: bilvei 61 m unna (Gardavegen).",
"navn": "Dokkjo (Bleskestadåa)",
"hvorfor": "Foss/stryk rett oppstrøms (9 m fall på 100 m) – fossekulp og fjell i dagen. τ = 359 Pa ≈ 2.2× terskelen: sand og grus flyttes ved flom, gull blir liggende (retensjon). Berggrunn: Granodioritt (43 % gunstig oppstrøms).",
"s2_anomali": 0.57,
"s2_feox_z": -0.34,
"satsjekk": "Automatisk bildeanalyse: dypt/mørkt vann."
}
},
{
"type": "Feature",
"geometry": {
"type": "Point",
"coordinates": [
6.86073,
59.55571
]
},
"properties": {
"elv": "Jonsstølåno",
"km": 2.8,
"z": 777.9,
"S": 0.1,
"Q": 4.7,
"w": 17.14,
"w_q": 6.5,
"h": 0.14,
"tau": 138.73,
"tau_c": 227.7,
"omega": 262.69,
"M": 0.61,
"D": 0.0,
"R": 0.32,
"sving": 0.63,
"os": 0.76,
"os_navn": "sideelv",
"foss": 1.0,
"foss_drop": 7.64,
"juv": 0.0,
"B": 0.71,
"frac_fav": 0.84,
"d_gull_km": 49.65,
"berg": "Granitt | Massiv granitt, porfyrgranitt, middels- til grovkornet | Telemark litotektoniske enhet",
"p_raw": 0.31,
"A_km2": 18.79,
"gate": 1.0,
"P": 65.1,
"rank": 20,
"klasse": "B",
"d_vei_m": 1259,
"vei_navn": "Vetrhusvegen",
"d_sti_m": 30,
"d_parkering_m": 1454,
"adkomst": "Gange 1.3 km fra nærmeste bilvei. Parkering 1454 m unna.",
"navn": "Jonsstølen (Jonsstølåno)",
"hvorfor": "Foss/stryk rett oppstrøms (8 m fall på 100 m) – fossekulp og fjell i dagen. Os: sideelv kommer inn her – grus og tyngre materiale legges i osen og bankehodet nedenfor. Skarp sving – grav på innersvingen og bak store steiner. Berggrunn: Granitt (84 % gunstig oppstrøms).",
"s2_anomali": 1.78,
"s2_feox_z": -0.83,
"satsjekk": "Automatisk bildeanalyse: tett vegetasjon – elva delvis skjult."
}
}
]
}