{"type": "FeatureCollection", "features": [{"type": "Feature", "geometry": {"type": "Point", "coordinates": [7.05491, 59.65194]}, "properties": {"type": "basemetall", "s2_oh_z": 1.94, "s2_feox_z": 2.36}}, {"type": "Feature", "geometry": {"type": "Point", "coordinates": [6.96035, 59.65667]}, "properties": {"type": "basemetall", "s2_oh_z": 0.7, "s2_feox_z": 1.47}}, {"type": "Feature", "geometry": {"type": "Point", "coordinates": [7.18053, 59.60602]}, "properties": {"type": "basemetall", "s2_oh_z": 2.92, "s2_feox_z": 4.71}}, {"type": "Feature", "geometry": {"type": "Point", "coordinates": [7.17261, 59.60501]}, "properties": {"type": "basemetall", "s2_oh_z": 2.74, "s2_feox_z": 0.64}}, {"type": "Feature", "geometry": {"type": "Point", "coordinates": [6.93475, 59.64911]}, "properties": {"type": "basemetall", "s2_oh_z": 1.0, "s2_feox_z": 1.88}}, {"type": "Feature", "geometry": {"type": "Point", "coordinates": [6.95885, 59.68135]}, "properties": {"type": "basemetall", "s2_oh_z": 0.79, "s2_feox_z": 2.8}}, {"type": "Feature", "geometry": {"type": "Point", "coordinates": [7.11337, 59.63426]}, "properties": {"type": "basemetall", "s2_oh_z": 1.02, "s2_feox_z": 2.15}}, {"type": "Feature", "geometry": {"type": "Point", "coordinates": [7.18562, 59.61013]}, "properties": {"type": "basemetall", "s2_oh_z": 1.25, "s2_feox_z": 1.13}}]}