<?xml version="1.0" encoding="UTF-8"?>
<kml xmlns="http://www.opengis.net/kml/2.2"><Document>
<name>GULLØYE – Bleskestad</name>
<Style id="kA"><IconStyle><color>ff2b39c0</color><scale>1.1</scale></IconStyle></Style>
<Style id="kB"><IconStyle><color>ff227ee6</color><scale>1.1</scale></IconStyle></Style>
<Style id="kC"><IconStyle><color>ff0fc4f1</color><scale>1.1</scale></IconStyle></Style>
<Placemark><name>1A Storåa, km 1.2</name><styleUrl>#kA</styleUrl><description>P=100. Foss/stryk rett oppstrøms (8 m fall på 100 m) – fossekulp og fjell i dagen. Os: Moskarbekken kommer inn her – grus og tyngre materiale legges i osen og bankehodet nedenfor. Skarp sving – grav på innersvingen og bak store steiner. τ = 235 Pa ≈ 1.0× terskelen: sand og grus flyttes ved flom, gull blir liggende (retensjon). Berggrunn: Basalt (83 % gunstig oppstrøms). Lett: bilvei 17 m unna (Vetrhusvegen). Parkering 440 m unna.</description><Point><coordinates>6.80983,59.57560,0</coordinates></Point></Placemark>
<Placemark><name>2A Nedstastølen (bekk)</name><styleUrl>#kA</styleUrl><description>P=92. Foss/stryk rett oppstrøms (22 m fall på 100 m) – fossekulp og fjell i dagen. Os: sideelv kommer inn her – grus og tyngre materiale legges i osen og bankehodet nedenfor. Skarp sving – grav på innersvingen og bak store steiner. τ = 270 Pa ≈ 1.1× terskelen: sand og grus flyttes ved flom, gull blir liggende (retensjon). Berggrunn: Felsisk vulkansk bergart (68 % gunstig oppstrøms). Lett: bilvei 85 m unna (unclassified).</description><Point><coordinates>6.81647,59.68661,0</coordinates></Point></Placemark>
<Placemark><name>3A Holmavassåna, km 0.5</name><styleUrl>#kA</styleUrl><description>P=86. Foss/stryk rett oppstrøms (12 m fall på 100 m) – fossekulp og fjell i dagen. Os: sideelv kommer inn her – grus og tyngre materiale legges i osen og bankehodet nedenfor. Berggrunn: Basalt (100 % gunstig oppstrøms). Lett: bilvei 102 m unna (unclassified).</description><Point><coordinates>7.13487,59.67336,0</coordinates></Point></Placemark>
<Placemark><name>4A Gravetjørn (Holmavassåna)</name><styleUrl>#kA</styleUrl><description>P=84. Foss/stryk rett oppstrøms (4 m fall på 100 m) – fossekulp og fjell i dagen. τ = 157 Pa ≈ 1.1× terskelen: sand og grus flyttes ved flom, gull blir liggende (retensjon). Berggrunn: Basalt (100 % gunstig oppstrøms). Kort gange: bilvei 200 m unna.</description><Point><coordinates>7.10949,59.67140,0</coordinates></Point></Placemark>
<Placemark><name>5A Bleskestad (Bleskestadåa)</name><styleUrl>#kA</styleUrl><description>P=80. Foss/stryk rett oppstrøms (18 m fall på 100 m) – fossekulp og fjell i dagen. Os: sideelv kommer inn her – grus og tyngre materiale legges i osen og bankehodet nedenfor. Skarp sving – grav på innersvingen og bak store steiner. τ = 365 Pa ≈ 1.6× terskelen: sand og grus flyttes ved flom, gull blir liggende (retensjon). Berggrunn: Granodioritt (43 % gunstig oppstrøms). Lett: bilvei 63 m unna (Gardavegen).</description><Point><coordinates>6.92325,59.64786,0</coordinates></Point></Placemark>
<Placemark><name>6A Krokhøl (Jonsstølåno)</name><styleUrl>#kA</styleUrl><description>P=78. Foss/stryk rett oppstrøms (18 m fall på 100 m) – fossekulp og fjell i dagen. Os: Kyrkjesteinåno kommer inn her – grus og tyngre materiale legges i osen og bankehodet nedenfor. Berggrunn: Granitt (84 % gunstig oppstrøms). Lett: bilvei 18 m unna (Vetrhusvegen). Parkering 251 m unna.</description><Point><coordinates>6.84686,59.56479,0</coordinates></Point></Placemark>
<Placemark><name>7A Nystølen (Bleskestadåa)</name><styleUrl>#kA</styleUrl><description>P=78. Foss/stryk rett oppstrøms (15 m fall på 100 m) – fossekulp og fjell i dagen. Os: sideelv kommer inn her – grus og tyngre materiale legges i osen og bankehodet nedenfor. τ = 424 Pa ≈ 2.3× terskelen: sand og grus flyttes ved flom, gull blir liggende (retensjon). Berggrunn: Granodioritt (47 % gunstig oppstrøms). Avsides: 2.3 km fra bilvei – planlegg dagstur.</description><Point><coordinates>6.96979,59.63006,0</coordinates></Point></Placemark>
<Placemark><name>8A Oppigard (Roaldkvamsåa)</name><styleUrl>#kA</styleUrl><description>P=77. Foss/stryk rett oppstrøms (3 m fall på 100 m) – fossekulp og fjell i dagen. Os: Tverråa kommer inn her – grus og tyngre materiale legges i osen og bankehodet nedenfor. τ = 127 Pa ≈ 1.3× terskelen: sand og grus flyttes ved flom, gull blir liggende (retensjon). Berggrunn: Granodioritt (39 % gunstig oppstrøms). Lett: bilvei 127 m unna (Gardavegen).</description><Point><coordinates>6.87358,59.65236,0</coordinates></Point></Placemark>
<Placemark><name>9A Krokhøl (Gaukstølåa)</name><styleUrl>#kA</styleUrl><description>P=74. Foss/stryk rett oppstrøms (5 m fall på 100 m) – fossekulp og fjell i dagen. Os: sideelv kommer inn her – grus og tyngre materiale legges i osen og bankehodet nedenfor. Berggrunn: Basalt (100 % gunstig oppstrøms). Lett: bilvei 25 m unna (Vetrhusvegen). Parkering 732 m unna.</description><Point><coordinates>6.85606,59.57205,0</coordinates></Point></Placemark>
<Placemark><name>10B Storåa, km 0.2</name><styleUrl>#kB</styleUrl><description>P=73. Foss/stryk rett oppstrøms (9 m fall på 100 m) – fossekulp og fjell i dagen. τ = 151 Pa ≈ 1.0× terskelen: sand og grus flyttes ved flom, gull blir liggende (retensjon). Berggrunn: Basalt (81 % gunstig oppstrøms). Gange 0.8 km fra nærmeste bilvei. Parkering 943 m unna.</description><Point><coordinates>6.82679,59.57493,0</coordinates></Point></Placemark>
<Placemark><name>11B bekk, km 2.0</name><styleUrl>#kB</styleUrl><description>P=72. Foss/stryk rett oppstrøms (14 m fall på 100 m) – fossekulp og fjell i dagen. τ = 226 Pa ≈ 0.9× terskelen: sand og grus flyttes ved flom, gull blir liggende (retensjon). Berggrunn: Glimmergneis (100 % gunstig oppstrøms). Lett: bilvei 12 m unna (Breivevegen).</description><Point><coordinates>7.23659,59.57167,0</coordinates></Point></Placemark>
<Placemark><name>12B Sandvassåna, km 0.6</name><styleUrl>#kB</styleUrl><description>P=71. Foss/stryk rett oppstrøms (25 m fall på 100 m) – fossekulp og fjell i dagen. τ = 303 Pa ≈ 1.3× terskelen: sand og grus flyttes ved flom, gull blir liggende (retensjon). Berggrunn: Granodioritt (68 % gunstig oppstrøms). Avsides: 2.1 km fra bilvei – planlegg dagstur.</description><Point><coordinates>7.02311,59.63789,0</coordinates></Point></Placemark>
<Placemark><name>13B Myrane (bekk)</name><styleUrl>#kB</styleUrl><description>P=69. Foss/stryk rett oppstrøms (15 m fall på 100 m) – fossekulp og fjell i dagen. Os: sideelv kommer inn her – grus og tyngre materiale legges i osen og bankehodet nedenfor. τ = 209 Pa ≈ 0.8× terskelen: sand og grus flyttes ved flom, gull blir liggende (retensjon). Berggrunn: Felsisk vulkansk bergart (68 % gunstig oppstrøms). Lett: bilvei 52 m unna (unclassified).</description><Point><coordinates>6.82515,59.69231,0</coordinates></Point></Placemark>
<Placemark><name>14B Klauvfossen (Bleskestadåa)</name><styleUrl>#kB</styleUrl><description>P=68. Foss/stryk rett oppstrøms (74 m fall på 100 m) – fossekulp og fjell i dagen. Os: sideelv kommer inn her – grus og tyngre materiale legges i osen og bankehodet nedenfor. τ = 898 Pa ≈ 2.5× terskelen: sand og grus flyttes ved flom, gull blir liggende (retensjon). Berggrunn: Granodioritt (44 % gunstig oppstrøms). Lett: bilvei 73 m unna (track).</description><Point><coordinates>6.93333,59.64309,0</coordinates></Point></Placemark>
<Placemark><name>15B Stovo (Sandvassåna)</name><styleUrl>#kB</styleUrl><description>P=68. Foss/stryk rett oppstrøms (4 m fall på 100 m) – fossekulp og fjell i dagen. Os: sideelv kommer inn her – grus og tyngre materiale legges i osen og bankehodet nedenfor. Berggrunn: Granodioritt (68 % gunstig oppstrøms). Avsides: 3.3 km fra bilvei – planlegg dagstur.</description><Point><coordinates>6.98963,59.62850,0</coordinates></Point></Placemark>
<Placemark><name>16B Kvelvane (Nordmorkåa)</name><styleUrl>#kB</styleUrl><description>P=67. Foss/stryk rett oppstrøms (24 m fall på 100 m) – fossekulp og fjell i dagen. Os: sideelv kommer inn her – grus og tyngre materiale legges i osen og bankehodet nedenfor. τ = 306 Pa ≈ 1.0× terskelen: sand og grus flyttes ved flom, gull blir liggende (retensjon). Berggrunn: Granodioritt (35 % gunstig oppstrøms). Lett: bilvei 86 m unna (track).</description><Point><coordinates>6.95672,59.67158,0</coordinates></Point></Placemark>
<Placemark><name>17B Fossaslåtta (bekk)</name><styleUrl>#kB</styleUrl><description>P=66. Foss/stryk rett oppstrøms (78 m fall på 100 m) – fossekulp og fjell i dagen. Os: sideelv kommer inn her – grus og tyngre materiale legges i osen og bankehodet nedenfor. Skarp sving – grav på innersvingen og bak store steiner. τ = 352 Pa ≈ 1.0× terskelen: sand og grus flyttes ved flom, gull blir liggende (retensjon). Berggrunn: Granittisk gneis (35 % gunstig oppstrøms). Avsides: 3.5 km fra bilvei – planlegg dagstur.</description><Point><coordinates>6.99455,59.69993,0</coordinates></Point></Placemark>
<Placemark><name>18B Roaldkvamsåa, km 1.2</name><styleUrl>#kB</styleUrl><description>P=66. Foss/stryk rett oppstrøms (4 m fall på 100 m) – fossekulp og fjell i dagen. τ = 132 Pa ≈ 1.2× terskelen: sand og grus flyttes ved flom, gull blir liggende (retensjon). Berggrunn: Granodioritt (40 % gunstig oppstrøms). Lett: bilvei 17 m unna (Gardavegen).</description><Point><coordinates>6.88694,59.65411,0</coordinates></Point></Placemark>
<Placemark><name>19B Dokkjo (Bleskestadåa)</name><styleUrl>#kB</styleUrl><description>P=66. Foss/stryk rett oppstrøms (9 m fall på 100 m) – fossekulp og fjell i dagen. τ = 359 Pa ≈ 2.2× terskelen: sand og grus flyttes ved flom, gull blir liggende (retensjon). Berggrunn: Granodioritt (43 % gunstig oppstrøms). Lett: bilvei 61 m unna (Gardavegen).</description><Point><coordinates>6.90877,59.65258,0</coordinates></Point></Placemark>
<Placemark><name>20B Jonsstølen (Jonsstølåno)</name><styleUrl>#kB</styleUrl><description>P=65. Foss/stryk rett oppstrøms (8 m fall på 100 m) – fossekulp og fjell i dagen. Os: sideelv kommer inn her – grus og tyngre materiale legges i osen og bankehodet nedenfor. Skarp sving – grav på innersvingen og bak store steiner. Berggrunn: Granitt (84 % gunstig oppstrøms). Gange 1.3 km fra nærmeste bilvei. Parkering 1454 m unna.</description><Point><coordinates>6.86073,59.55571,0</coordinates></Point></Placemark>
</Document></kml>