<?xml version="1.0" encoding="UTF-8"?>
<gpx version="1.1" creator="gulloye" xmlns="http://www.topografix.com/GPX/1/1">
  <wpt lat="59.57560" lon="6.80983"><name>1 A – Storåa, km 1.2</name><desc>Foss/stryk rett oppstrøms (8 m fall på 100 m) – fossekulp og fjell i dagen. Os: Moskarbekken kommer inn her – grus og tyngre materiale legges i osen og bankehodet nedenfor. Skarp sving – grav på innersvingen og bak store steiner. τ = 235 Pa ≈ 1.0× terskelen: sand og grus flyttes ved flom, gull blir liggende (retensjon). Berggrunn: Basalt (83 % gunstig oppstrøms).</desc></wpt>
  <wpt lat="59.68661" lon="6.81647"><name>2 A – Nedstastølen (bekk)</name><desc>Foss/stryk rett oppstrøms (22 m fall på 100 m) – fossekulp og fjell i dagen. Os: sideelv kommer inn her – grus og tyngre materiale legges i osen og bankehodet nedenfor. Skarp sving – grav på innersvingen og bak store steiner. τ = 270 Pa ≈ 1.1× terskelen: sand og grus flyttes ved flom, gull blir liggende (retensjon). Berggrunn: Felsisk vulkansk bergart (68 % gunstig oppstrøms).</desc></wpt>
  <wpt lat="59.67336" lon="7.13487"><name>3 A – Holmavassåna, km 0.5</name><desc>Foss/stryk rett oppstrøms (12 m fall på 100 m) – fossekulp og fjell i dagen. Os: sideelv kommer inn her – grus og tyngre materiale legges i osen og bankehodet nedenfor. Berggrunn: Basalt (100 % gunstig oppstrøms).</desc></wpt>
  <wpt lat="59.67140" lon="7.10949"><name>4 A – Gravetjørn (Holmavassåna)</name><desc>Foss/stryk rett oppstrøms (4 m fall på 100 m) – fossekulp og fjell i dagen. τ = 157 Pa ≈ 1.1× terskelen: sand og grus flyttes ved flom, gull blir liggende (retensjon). Berggrunn: Basalt (100 % gunstig oppstrøms).</desc></wpt>
  <wpt lat="59.64786" lon="6.92325"><name>5 A – Bleskestad (Bleskestadåa)</name><desc>Foss/stryk rett oppstrøms (18 m fall på 100 m) – fossekulp og fjell i dagen. Os: sideelv kommer inn her – grus og tyngre materiale legges i osen og bankehodet nedenfor. Skarp sving – grav på innersvingen og bak store steiner. τ = 365 Pa ≈ 1.6× terskelen: sand og grus flyttes ved flom, gull blir liggende (retensjon). Berggrunn: Granodioritt (43 % gunstig oppstrøms).</desc></wpt>
  <wpt lat="59.56479" lon="6.84686"><name>6 A – Krokhøl (Jonsstølåno)</name><desc>Foss/stryk rett oppstrøms (18 m fall på 100 m) – fossekulp og fjell i dagen. Os: Kyrkjesteinåno kommer inn her – grus og tyngre materiale legges i osen og bankehodet nedenfor. Berggrunn: Granitt (84 % gunstig oppstrøms).</desc></wpt>
  <wpt lat="59.63006" lon="6.96979"><name>7 A – Nystølen (Bleskestadåa)</name><desc>Foss/stryk rett oppstrøms (15 m fall på 100 m) – fossekulp og fjell i dagen. Os: sideelv kommer inn her – grus og tyngre materiale legges i osen og bankehodet nedenfor. τ = 424 Pa ≈ 2.3× terskelen: sand og grus flyttes ved flom, gull blir liggende (retensjon). Berggrunn: Granodioritt (47 % gunstig oppstrøms).</desc></wpt>
  <wpt lat="59.65236" lon="6.87358"><name>8 A – Oppigard (Roaldkvamsåa)</name><desc>Foss/stryk rett oppstrøms (3 m fall på 100 m) – fossekulp og fjell i dagen. Os: Tverråa kommer inn her – grus og tyngre materiale legges i osen og bankehodet nedenfor. τ = 127 Pa ≈ 1.3× terskelen: sand og grus flyttes ved flom, gull blir liggende (retensjon). Berggrunn: Granodioritt (39 % gunstig oppstrøms).</desc></wpt>
  <wpt lat="59.57205" lon="6.85606"><name>9 A – Krokhøl (Gaukstølåa)</name><desc>Foss/stryk rett oppstrøms (5 m fall på 100 m) – fossekulp og fjell i dagen. Os: sideelv kommer inn her – grus og tyngre materiale legges i osen og bankehodet nedenfor. Berggrunn: Basalt (100 % gunstig oppstrøms).</desc></wpt>
  <wpt lat="59.57493" lon="6.82679"><name>10 B – Storåa, km 0.2</name><desc>Foss/stryk rett oppstrøms (9 m fall på 100 m) – fossekulp og fjell i dagen. τ = 151 Pa ≈ 1.0× terskelen: sand og grus flyttes ved flom, gull blir liggende (retensjon). Berggrunn: Basalt (81 % gunstig oppstrøms).</desc></wpt>
  <wpt lat="59.57167" lon="7.23659"><name>11 B – bekk, km 2.0</name><desc>Foss/stryk rett oppstrøms (14 m fall på 100 m) – fossekulp og fjell i dagen. τ = 226 Pa ≈ 0.9× terskelen: sand og grus flyttes ved flom, gull blir liggende (retensjon). Berggrunn: Glimmergneis (100 % gunstig oppstrøms).</desc></wpt>
  <wpt lat="59.63789" lon="7.02311"><name>12 B – Sandvassåna, km 0.6</name><desc>Foss/stryk rett oppstrøms (25 m fall på 100 m) – fossekulp og fjell i dagen. τ = 303 Pa ≈ 1.3× terskelen: sand og grus flyttes ved flom, gull blir liggende (retensjon). Berggrunn: Granodioritt (68 % gunstig oppstrøms).</desc></wpt>
  <wpt lat="59.69231" lon="6.82515"><name>13 B – Myrane (bekk)</name><desc>Foss/stryk rett oppstrøms (15 m fall på 100 m) – fossekulp og fjell i dagen. Os: sideelv kommer inn her – grus og tyngre materiale legges i osen og bankehodet nedenfor. τ = 209 Pa ≈ 0.8× terskelen: sand og grus flyttes ved flom, gull blir liggende (retensjon). Berggrunn: Felsisk vulkansk bergart (68 % gunstig oppstrøms).</desc></wpt>
  <wpt lat="59.64309" lon="6.93333"><name>14 B – Klauvfossen (Bleskestadåa)</name><desc>Foss/stryk rett oppstrøms (74 m fall på 100 m) – fossekulp og fjell i dagen. Os: sideelv kommer inn her – grus og tyngre materiale legges i osen og bankehodet nedenfor. τ = 898 Pa ≈ 2.5× terskelen: sand og grus flyttes ved flom, gull blir liggende (retensjon). Berggrunn: Granodioritt (44 % gunstig oppstrøms).</desc></wpt>
  <wpt lat="59.62850" lon="6.98963"><name>15 B – Stovo (Sandvassåna)</name><desc>Foss/stryk rett oppstrøms (4 m fall på 100 m) – fossekulp og fjell i dagen. Os: sideelv kommer inn her – grus og tyngre materiale legges i osen og bankehodet nedenfor. Berggrunn: Granodioritt (68 % gunstig oppstrøms).</desc></wpt>
  <wpt lat="59.67158" lon="6.95672"><name>16 B – Kvelvane (Nordmorkåa)</name><desc>Foss/stryk rett oppstrøms (24 m fall på 100 m) – fossekulp og fjell i dagen. Os: sideelv kommer inn her – grus og tyngre materiale legges i osen og bankehodet nedenfor. τ = 306 Pa ≈ 1.0× terskelen: sand og grus flyttes ved flom, gull blir liggende (retensjon). Berggrunn: Granodioritt (35 % gunstig oppstrøms).</desc></wpt>
  <wpt lat="59.69993" lon="6.99455"><name>17 B – Fossaslåtta (bekk)</name><desc>Foss/stryk rett oppstrøms (78 m fall på 100 m) – fossekulp og fjell i dagen. Os: sideelv kommer inn her – grus og tyngre materiale legges i osen og bankehodet nedenfor. Skarp sving – grav på innersvingen og bak store steiner. τ = 352 Pa ≈ 1.0× terskelen: sand og grus flyttes ved flom, gull blir liggende (retensjon). Berggrunn: Granittisk gneis (35 % gunstig oppstrøms).</desc></wpt>
  <wpt lat="59.65411" lon="6.88694"><name>18 B – Roaldkvamsåa, km 1.2</name><desc>Foss/stryk rett oppstrøms (4 m fall på 100 m) – fossekulp og fjell i dagen. τ = 132 Pa ≈ 1.2× terskelen: sand og grus flyttes ved flom, gull blir liggende (retensjon). Berggrunn: Granodioritt (40 % gunstig oppstrøms).</desc></wpt>
  <wpt lat="59.65258" lon="6.90877"><name>19 B – Dokkjo (Bleskestadåa)</name><desc>Foss/stryk rett oppstrøms (9 m fall på 100 m) – fossekulp og fjell i dagen. τ = 359 Pa ≈ 2.2× terskelen: sand og grus flyttes ved flom, gull blir liggende (retensjon). Berggrunn: Granodioritt (43 % gunstig oppstrøms).</desc></wpt>
  <wpt lat="59.55571" lon="6.86073"><name>20 B – Jonsstølen (Jonsstølåno)</name><desc>Foss/stryk rett oppstrøms (8 m fall på 100 m) – fossekulp og fjell i dagen. Os: sideelv kommer inn her – grus og tyngre materiale legges i osen og bankehodet nedenfor. Skarp sving – grav på innersvingen og bak store steiner. Berggrunn: Granitt (84 % gunstig oppstrøms).</desc></wpt>
</gpx>