{
"type": "FeatureCollection",
"features": [
{
"type": "Feature",
"geometry": {
"type": "Point",
"coordinates": [
10.17149,
63.64321
]
},
"properties": {
"elv": "Svartelva",
"km": 0.3,
"z": 118.98,
"S": 0.04,
"Q": 17.89,
"w": 32.79,
"w_q": 12.69,
"h": 0.28,
"tau": 121.01,
"tau_c": 153.74,
"omega": 238.46,
"M": 0.79,
"D": 0.03,
"R": 0.56,
"sving": 0.59,
"os": 0.67,
"os_navn": "sideelv",
"foss": 1.0,
"foss_drop": 10.96,
"juv": 0.0,
"B": 1.0,
"frac_fav": 1.0,
"d_gull_km": 154.53,
"berg": "Grønnstein | Grønnstein, (Støren, Byafoss) | Øvre kaledonske dekkeserie",
"p_raw": 0.49,
"A_km2": 149.12,
"gate": 1.0,
"P": 100.0,
"rank": 1,
"klasse": "A",
"d_vei_m": 122,
"vei_navn": "Sliperveien",
"d_sti_m": 671,
"d_parkering_m": 377,
"adkomst": "Lett: bilvei 122 m unna (Sliperveien). Parkering 377 m unna.",
"navn": "Hafella (Svartelva)",
"hvorfor": "Foss/stryk rett oppstrøms (11 m fall på 100 m) – fossekulp og fjell i dagen. Os: sideelv kommer inn her – grus og tyngre materiale legges i osen og bankehodet nedenfor. Skarp sving – grav på innersvingen og bak store steiner. Berggrunn: Grønnstein (100 % gunstig oppstrøms).",
"s2_anomali": null,
"s2_feox_z": null,
"satsjekk": "Automatisk bildeanalyse: dypt/mørkt vann, tett vegetasjon – elva delvis skjult."
}
},
{
"type": "Feature",
"geometry": {
"type": "Point",
"coordinates": [
10.28508,
63.78971
]
},
"properties": {
"elv": "Holvasselva",
"km": 0.4,
"z": 133.65,
"S": 0.08,
"Q": 16.63,
"w": 34.02,
"w_q": 12.23,
"h": 0.22,
"tau": 167.06,
"tau_c": 203.14,
"omega": 372.91,
"M": 0.82,
"D": 0.24,
"R": 0.61,
"sving": 0.59,
"os": 0.0,
"os_navn": "",
"foss": 1.0,
"foss_drop": 23.78,
"juv": 0.0,
"B": 0.99,
"frac_fav": 1.0,
"d_gull_km": 140.33,
"berg": "Grønnstein | Grønnstein med overgang til amfibolitt, stedvis med granat | Midtre kaledonsk dekkeserie",
"p_raw": 0.44,
"A_km2": 138.54,
"gate": 1.0,
"P": 89.65,
"rank": 2,
"klasse": "A",
"d_vei_m": 195,
"vei_navn": "service",
"d_sti_m": 874,
"d_parkering_m": 582,
"adkomst": "Kort gange: bilvei 195 m unna. Parkering 582 m unna.",
"navn": "Storfossen (Holvasselva)",
"hvorfor": "Foss/stryk rett oppstrøms (24 m fall på 100 m) – fossekulp og fjell i dagen. Skarp sving – grav på innersvingen og bak store steiner. τ = 167 Pa ≈ 0.8× terskelen: sand og grus flyttes ved flom, gull blir liggende (retensjon). Berggrunn: Grønnstein (100 % gunstig oppstrøms).",
"s2_anomali": 0.18,
"s2_feox_z": 0.18,
"satsjekk": "Automatisk bildeanalyse: dypt/mørkt vann."
}
},
{
"type": "Feature",
"geometry": {
"type": "Point",
"coordinates": [
10.15957,
63.76117
]
},
"properties": {
"elv": "Osaelva",
"km": 1.5,
"z": 18.86,
"S": 0.05,
"Q": 6.98,
"w": 23.33,
"w_q": 7.93,
"h": 0.19,
"tau": 90.42,
"tau_c": 161.56,
"omega": 144.39,
"M": 0.56,
"D": 0.13,
"R": 0.26,
"sving": 0.68,
"os": 0.63,
"os_navn": "Bubekken",
"foss": 1.0,
"foss_drop": 15.07,
"juv": 0.0,
"B": 0.9,
"frac_fav": 1.0,
"d_gull_km": 147.25,
"berg": "Grønnstein | Grønnstein med overgang til amfibolitt, stedvis med granat | Midtre kaledonsk dekkeserie",
"p_raw": 0.4,
"A_km2": 58.16,
"gate": 1.0,
"P": 81.44,
"rank": 3,
"klasse": "A",
"d_vei_m": 45,
"vei_navn": "Sagliveien",
"d_sti_m": 978,
"d_parkering_m": 3544,
"adkomst": "Lett: bilvei 45 m unna (Sagliveien).",
"navn": "Fosshaugen (Osaelva)",
"hvorfor": "Foss/stryk rett oppstrøms (15 m fall på 100 m) – fossekulp og fjell i dagen. Os: Bubekken kommer inn her – grus og tyngre materiale legges i osen og bankehodet nedenfor. Skarp sving – grav på innersvingen og bak store steiner. Berggrunn: Grønnstein (100 % gunstig oppstrøms).",
"s2_anomali": 1.2,
"s2_feox_z": 1.08,
"satsjekk": "Automatisk bildeanalyse: ingen tydelige trekk."
}
},
{
"type": "Feature",
"geometry": {
"type": "Point",
"coordinates": [
10.25648,
63.78646
]
},
"properties": {
"elv": "Holvasselva",
"km": 2.0,
"z": 88.18,
"S": 0.02,
"Q": 16.89,
"w": 36.99,
"w_q": 12.33,
"h": 0.31,
"tau": 67.31,
"tau_c": 109.15,
"omega": 100.58,
"M": 0.62,
"D": 0.37,
"R": 0.33,
"sving": 0.29,
"os": 0.87,
"os_navn": "Olausbekken",
"foss": 0.39,
"foss_drop": 11.56,
"juv": 0.0,
"B": 1.0,
"frac_fav": 1.0,
"d_gull_km": 141.7,
"berg": "Grønnstein | Grønnstein med overgang til amfibolitt, stedvis med granat | Midtre kaledonsk dekkeserie",
"p_raw": 0.39,
"A_km2": 140.73,
"gate": 1.0,
"P": 80.02,
"rank": 4,
"klasse": "A",
"d_vei_m": 100,
"vei_navn": "service",
"d_sti_m": 434,
"d_parkering_m": 251,
"adkomst": "Lett: bilvei 100 m unna (service). Parkering 251 m unna.",
"navn": "Fossen (Holvasselva)",
"hvorfor": "Foss/stryk rett oppstrøms (12 m fall på 100 m) – fossekulp og fjell i dagen. Os: Olausbekken kommer inn her – grus og tyngre materiale legges i osen og bankehodet nedenfor. Strømeffekten faller 37 % over strekningen – tungt materiale slipper her. Berggrunn: Grønnstein (100 % gunstig oppstrøms).",
"s2_anomali": 0.92,
"s2_feox_z": 0.62,
"satsjekk": "Automatisk bildeanalyse: dypt/mørkt vann."
}
},
{
"type": "Feature",
"geometry": {
"type": "Point",
"coordinates": [
10.15208,
63.64216
]
},
"properties": {
"elv": "Svartelva",
"km": 1.4,
"z": 79.13,
"S": 0.08,
"Q": 18.02,
"w": 38.21,
"w_q": 12.74,
"h": 0.22,
"tau": 159.81,
"tau_c": 199.91,
"omega": 348.56,
"M": 0.8,
"D": 0.04,
"R": 0.58,
"sving": 0.51,
"os": 0.0,
"os_navn": "",
"foss": 1.0,
"foss_drop": 10.92,
"juv": 0.0,
"B": 1.0,
"frac_fav": 1.0,
"d_gull_km": 155.36,
"berg": "Grønnstein | Grønnstein, (Støren, Byafoss) | Øvre kaledonske dekkeserie",
"p_raw": 0.38,
"A_km2": 150.19,
"gate": 1.0,
"P": 78.15,
"rank": 5,
"klasse": "A",
"d_vei_m": 17,
"vei_navn": "Øvlandsveien",
"d_sti_m": 1184,
"d_parkering_m": 953,
"adkomst": "Lett: bilvei 17 m unna (Øvlandsveien). Parkering 953 m unna.",
"navn": "Kvislan (Svartelva)",
"hvorfor": "Foss/stryk rett oppstrøms (11 m fall på 100 m) – fossekulp og fjell i dagen. Skarp sving – grav på innersvingen og bak store steiner. Berggrunn: Grønnstein (100 % gunstig oppstrøms).",
"s2_anomali": 0.33,
"s2_feox_z": 0.33,
"satsjekk": "Automatisk bildeanalyse: dypt/mørkt vann."
}
},
{
"type": "Feature",
"geometry": {
"type": "Point",
"coordinates": [
10.20361,
63.67
]
},
"properties": {
"elv": "bekk",
"km": 1.5,
"z": 36.68,
"S": 0.08,
"Q": 10.07,
"w": 19.6,
"w_q": 9.52,
"h": 0.23,
"tau": 170.5,
"tau_c": 201.16,
"omega": 384.45,
"M": 0.85,
"D": 0.0,
"R": 0.64,
"sving": 0.67,
"os": 0.12,
"os_navn": "sideelv",
"foss": 0.51,
"foss_drop": 36.12,
"juv": 0.0,
"B": 0.94,
"frac_fav": 1.0,
"d_gull_km": 151.44,
"berg": "Grønnstein | Grønnstein, (Støren, Byafoss) | Øvre kaledonske dekkeserie",
"p_raw": 0.33,
"A_km2": 83.91,
"gate": 1.0,
"P": 68.74,
"rank": 6,
"klasse": "B",
"d_vei_m": 55,
"vei_navn": "Skaugdalsveien",
"d_sti_m": 1405,
"d_parkering_m": 485,
"adkomst": "Lett: bilvei 55 m unna (Skaugdalsveien). Parkering 485 m unna.",
"navn": "Olsøya (bekk)",
"hvorfor": "Foss/stryk rett oppstrøms (36 m fall på 100 m) – fossekulp og fjell i dagen. Skarp sving – grav på innersvingen og bak store steiner. τ = 171 Pa ≈ 0.8× terskelen: sand og grus flyttes ved flom, gull blir liggende (retensjon). Berggrunn: Grønnstein (100 % gunstig oppstrøms).",
"s2_anomali": null,
"s2_feox_z": null,
"satsjekk": "Automatisk bildeanalyse: grus/sandbanke synlig."
}
},
{
"type": "Feature",
"geometry": {
"type": "Point",
"coordinates": [
10.13385,
63.64068
]
},
"properties": {
"elv": "Svartelva",
"km": 2.6,
"z": 22.74,
"S": 0.03,
"Q": 29.52,
"w": 44.69,
"w_q": 16.3,
"h": 0.36,
"tau": 93.17,
"tau_c": 117.54,
"omega": 168.72,
"M": 0.79,
"D": 0.18,
"R": 0.57,
"sving": 0.01,
"os": 0.0,
"os_navn": "",
"foss": 0.72,
"foss_drop": 5.43,
"juv": 0.0,
"B": 1.05,
"frac_fav": 1.0,
"d_gull_km": 156.17,
"berg": "Grønnstein | Grønnstein, (Støren, Byafoss) | Øvre kaledonske dekkeserie",
"p_raw": 0.3,
"A_km2": 245.96,
"gate": 1.0,
"P": 62.24,
"rank": 7,
"klasse": "B",
"d_vei_m": 49,
"vei_navn": "Rotåsveien",
"d_sti_m": 1920,
"d_parkering_m": 1361,
"adkomst": "Lett: bilvei 49 m unna (Rotåsveien). Parkering 1361 m unna.",
"navn": "Granmo (Svartelva)",
"hvorfor": "Foss/stryk rett oppstrøms (5 m fall på 100 m) – fossekulp og fjell i dagen. Berggrunn: Grønnstein (100 % gunstig oppstrøms).",
"s2_anomali": 0.67,
"s2_feox_z": 0.67,
"satsjekk": "Automatisk bildeanalyse: grus/sandbanke synlig, dypt/mørkt vann."
}
},
{
"type": "Feature",
"geometry": {
"type": "Point",
"coordinates": [
10.14611,
63.75845
]
},
"properties": {
"elv": "Osaelva",
"km": 2.3,
"z": 4.68,
"S": 0.01,
"Q": 7.22,
"w": 23.29,
"w_q": 8.06,
"h": 0.28,
"tau": 38.67,
"tau_c": 86.56,
"omega": 42.94,
"M": 0.45,
"D": 0.1,
"R": 0.13,
"sving": 0.32,
"os": 0.78,
"os_navn": "Granskardbekken",
"foss": 0.51,
"foss_drop": 4.76,
"juv": 0.0,
"B": 0.91,
"frac_fav": 1.0,
"d_gull_km": 147.97,
"berg": "Grønnstein | Grønnstein med overgang til amfibolitt, stedvis med granat | Midtre kaledonsk dekkeserie",
"p_raw": 0.27,
"A_km2": 60.17,
"gate": 1.0,
"P": 54.89,
"rank": 8,
"klasse": "B",
"d_vei_m": 131,
"vei_navn": "Sagliveien",
"d_sti_m": 1466,
"d_parkering_m": 4271,
"adkomst": "Lett: bilvei 131 m unna (Sagliveien).",
"navn": "Tømmerbakken (Osaelva)",
"hvorfor": "Foss/stryk rett oppstrøms (5 m fall på 100 m) – fossekulp og fjell i dagen. Os: Granskardbekken kommer inn her – grus og tyngre materiale legges i osen og bankehodet nedenfor. Berggrunn: Grønnstein (100 % gunstig oppstrøms).",
"s2_anomali": 1.05,
"s2_feox_z": 1.05,
"satsjekk": "Automatisk bildeanalyse: tett vegetasjon – elva delvis skjult."
}
},
{
"type": "Feature",
"geometry": {
"type": "Point",
"coordinates": [
10.16681,
63.75567
]
},
"properties": {
"elv": "Osaelva",
"km": 0.7,
"z": 76.4,
"S": 0.05,
"Q": 6.31,
"w": 20.52,
"w_q": 7.53,
"h": 0.19,
"tau": 92.39,
"tau_c": 162.06,
"omega": 149.25,
"M": 0.57,
"D": 0.0,
"R": 0.27,
"sving": 0.51,
"os": 0.0,
"os_navn": "",
"foss": 1.0,
"foss_drop": 6.17,
"juv": 0.0,
"B": 0.89,
"frac_fav": 1.0,
"d_gull_km": 147.29,
"berg": "Grønnstein | Grønnstein med overgang til amfibolitt, stedvis med granat | Midtre kaledonsk dekkeserie",
"p_raw": 0.26,
"A_km2": 52.56,
"gate": 1.0,
"P": 54.2,
"rank": 9,
"klasse": "B",
"d_vei_m": 27,
"vei_navn": "Osaveien",
"d_sti_m": 399,
"d_parkering_m": 3618,
"adkomst": "Lett: bilvei 27 m unna (Osaveien).",
"navn": "Gullgruvefossen (Osaelva)",
"hvorfor": "Foss/stryk rett oppstrøms (6 m fall på 100 m) – fossekulp og fjell i dagen. Skarp sving – grav på innersvingen og bak store steiner. Berggrunn: Grønnstein (100 % gunstig oppstrøms).",
"s2_anomali": null,
"s2_feox_z": null,
"satsjekk": "Automatisk bildeanalyse: dypt/mørkt vann, tett vegetasjon – elva delvis skjult."
}
},
{
"type": "Feature",
"geometry": {
"type": "Point",
"coordinates": [
10.49081,
63.69668
]
},
"properties": {
"elv": "Ytterelva",
"km": 1.5,
"z": 216.96,
"S": 0.06,
"Q": 1.91,
"w": 12.47,
"w_q": 4.15,
"h": 0.12,
"tau": 66.3,
"tau_c": 172.11,
"omega": 84.1,
"M": 0.39,
"D": 0.14,
"R": 0.08,
"sving": 0.67,
"os": 0.67,
"os_navn": "sideelv",
"foss": 1.0,
"foss_drop": 16.09,
"juv": 0.0,
"B": 0.57,
"frac_fav": 0.55,
"d_gull_km": 138.49,
"berg": "Granatglimmerskifer | Glimmerskifer, amfibolitt, kalksilikatskifer, metasandstein, kalkspatmarmor og gneis | Midtre kaledonsk dekkeserie",
"p_raw": 0.23,
"A_km2": 15.96,
"gate": 1.0,
"P": 46.58,
"rank": 10,
"klasse": "B",
"d_vei_m": 84,
"vei_navn": "Kråkmoveien",
"d_sti_m": 1094,
"d_parkering_m": 3389,
"adkomst": "Lett: bilvei 84 m unna (Kråkmoveien).",
"navn": "Merratjønna (Ytterelva)",
"hvorfor": "Foss/stryk rett oppstrøms (16 m fall på 100 m) – fossekulp og fjell i dagen. Os: sideelv kommer inn her – grus og tyngre materiale legges i osen og bankehodet nedenfor. Skarp sving – grav på innersvingen og bak store steiner. Berggrunn: Granatglimmerskifer (55 % gunstig oppstrøms).",
"s2_anomali": null,
"s2_feox_z": null,
"satsjekk": "Automatisk bildeanalyse: dypt/mørkt vann."
}
},
{
"type": "Feature",
"geometry": {
"type": "Point",
"coordinates": [
10.55727,
63.64307
]
},
"properties": {
"elv": "bekk",
"km": 0.2,
"z": 175.16,
"S": 0.06,
"Q": 1.73,
"w": 11.57,
"w_q": 3.95,
"h": 0.11,
"tau": 71.59,
"tau_c": 183.79,
"omega": 93.48,
"M": 0.39,
"D": 0.11,
"R": 0.08,
"sving": 0.68,
"os": 0.0,
"os_navn": "",
"foss": 1.0,
"foss_drop": 12.54,
"juv": 0.0,
"B": 0.76,
"frac_fav": 1.0,
"d_gull_km": 139.97,
"berg": "Glimmerskifer | Glimmerskifer, stedvis med granat | Midtre kaledonsk dekkeserie",
"p_raw": 0.22,
"A_km2": 14.43,
"gate": 1.0,
"P": 45.91,
"rank": 11,
"klasse": "B",
"d_vei_m": 330,
"vei_navn": "service",
"d_sti_m": 389,
"d_parkering_m": 1557,
"adkomst": "Kort gange: bilvei 330 m unna.",
"navn": "Lunfossen (bekk)",
"hvorfor": "Foss/stryk rett oppstrøms (13 m fall på 100 m) – fossekulp og fjell i dagen. Skarp sving – grav på innersvingen og bak store steiner. Berggrunn: Glimmerskifer (100 % gunstig oppstrøms).",
"s2_anomali": null,
"s2_feox_z": null,
"satsjekk": "Automatisk bildeanalyse: dypt/mørkt vann, tett vegetasjon – elva delvis skjult."
}
},
{
"type": "Feature",
"geometry": {
"type": "Point",
"coordinates": [
10.32368,
63.71064
]
},
"properties": {
"elv": "Sørelva",
"km": 7.4,
"z": 83.2,
"S": 0.01,
"Q": 4.04,
"w": 18.23,
"w_q": 6.03,
"h": 0.23,
"tau": 31.88,
"tau_c": 87.02,
"omega": 31.04,
"M": 0.37,
"D": -0.0,
"R": 0.06,
"sving": 0.24,
"os": 0.96,
"os_navn": "Dalabekken",
"foss": 1.0,
"foss_drop": 3.64,
"juv": 0.0,
"B": 0.63,
"frac_fav": 0.57,
"d_gull_km": 143.96,
"berg": "Øyegneis | Øyegneis, omdannet porfyrisk granitt | Nær stedeget grunnfjell",
"p_raw": 0.22,
"A_km2": 33.67,
"gate": 1.0,
"P": 45.07,
"rank": 12,
"klasse": "B",
"d_vei_m": 35,
"vei_navn": "service",
"d_sti_m": 4176,
"d_parkering_m": 2731,
"adkomst": "Lett: bilvei 35 m unna (service).",
"navn": "Alset (Sørelva)",
"hvorfor": "Foss/stryk rett oppstrøms (4 m fall på 100 m) – fossekulp og fjell i dagen. Os: Dalabekken kommer inn her – grus og tyngre materiale legges i osen og bankehodet nedenfor. Berggrunn: Øyegneis (57 % gunstig oppstrøms).",
"s2_anomali": 0.78,
"s2_feox_z": 0.78,
"satsjekk": "Automatisk bildeanalyse: dypt/mørkt vann, tett vegetasjon – elva delvis skjult."
}
},
{
"type": "Feature",
"geometry": {
"type": "Point",
"coordinates": [
10.5954,
63.67523
]
},
"properties": {
"elv": "Ytterelva",
"km": 8.4,
"z": 41.4,
"S": 0.05,
"Q": 3.69,
"w": 17.3,
"w_q": 5.76,
"h": 0.15,
"tau": 78.25,
"tau_c": 168.36,
"omega": 111.83,
"M": 0.46,
"D": 0.05,
"R": 0.15,
"sving": 0.44,
"os": 0.6,
"os_navn": "Kvernbakkbekken",
"foss": 1.0,
"foss_drop": 9.72,
"juv": 0.0,
"B": 0.62,
"frac_fav": 0.55,
"d_gull_km": 136.16,
"berg": "Granatglimmerskifer | Glimmerskifer, amfibolitt, kalksilikatskifer, metasandstein, kalkspatmarmor og gneis | Midtre kaledonsk dekkeserie",
"p_raw": 0.22,
"A_km2": 30.75,
"gate": 1.0,
"P": 44.89,
"rank": 13,
"klasse": "C",
"d_vei_m": 97,
"vei_navn": "track",
"d_sti_m": 495,
"d_parkering_m": 813,
"adkomst": "Lett: bilvei 97 m unna (track). Parkering 813 m unna.",
"navn": "Stamphølen (Ytterelva)",
"hvorfor": "Foss/stryk rett oppstrøms (10 m fall på 100 m) – fossekulp og fjell i dagen. Os: Kvernbakkbekken kommer inn her – grus og tyngre materiale legges i osen og bankehodet nedenfor. Berggrunn: Granatglimmerskifer (55 % gunstig oppstrøms).",
"s2_anomali": null,
"s2_feox_z": null,
"satsjekk": "Automatisk bildeanalyse: tett vegetasjon – elva delvis skjult."
}
},
{
"type": "Feature",
"geometry": {
"type": "Point",
"coordinates": [
10.22701,
63.84836
]
},
"properties": {
"elv": "Juvasselva",
"km": 1.4,
"z": 151.33,
"S": 0.01,
"Q": 2.6,
"w": 14.11,
"w_q": 4.83,
"h": 0.2,
"tau": 28.91,
"tau_c": 87.8,
"omega": 26.23,
"M": 0.33,
"D": 0.29,
"R": 0.04,
"sving": 0.76,
"os": 0.83,
"os_navn": "Lunbekken",
"foss": 0.0,
"foss_drop": 0.0,
"juv": 0.0,
"B": 0.7,
"frac_fav": 0.78,
"d_gull_km": 139.19,
"berg": "Grønnstein | Grønnstein med overgang til amfibolitt, stedvis med granat | Midtre kaledonsk dekkeserie",
"p_raw": 0.22,
"A_km2": 21.64,
"gate": 1.0,
"P": 44.33,
"rank": 14,
"klasse": "C",
"d_vei_m": 103,
"vei_navn": "Austdalsveien",
"d_sti_m": 5058,
"d_parkering_m": 4511,
"adkomst": "Lett: bilvei 103 m unna (Austdalsveien).",
"navn": "Østdalslunen (Juvasselva)",
"hvorfor": "Os: Lunbekken kommer inn her – grus og tyngre materiale legges i osen og bankehodet nedenfor. Skarp sving – grav på innersvingen og bak store steiner. Berggrunn: Grønnstein (78 % gunstig oppstrøms).",
"s2_anomali": 3.05,
"s2_feox_z": 3.05,
"satsjekk": "Automatisk bildeanalyse: grus/sandbanke synlig."
}
},
{
"type": "Feature",
"geometry": {
"type": "Point",
"coordinates": [
10.1818,
63.79263
]
},
"properties": {
"elv": "Nordelva",
"km": 0.8,
"z": 59.75,
"S": 0.04,
"Q": 25.07,
"w": 40.0,
"w_q": 15.02,
"h": 0.31,
"tau": 122.63,
"tau_c": 146.32,
"omega": 248.08,
"M": 0.84,
"D": 0.0,
"R": 0.62,
"sving": 0.15,
"os": 0.0,
"os_navn": "",
"foss": 1.0,
"foss_drop": 4.94,
"juv": 0.0,
"B": 0.64,
"frac_fav": 0.35,
"d_gull_km": 144.39,
"berg": "Granodioritt | Granodioritt, forgneiset | Øvre kaledonske dekkeserie",
"p_raw": 0.21,
"A_km2": 208.88,
"gate": 1.0,
"P": 43.67,
"rank": 15,
"klasse": "C",
"d_vei_m": 67,
"vei_navn": "track",
"d_sti_m": 650,
"d_parkering_m": 2508,
"adkomst": "Lett: bilvei 67 m unna (track).",
"navn": "Stegahølen (Nordelva)",
"hvorfor": "Foss/stryk rett oppstrøms (5 m fall på 100 m) – fossekulp og fjell i dagen. τ = 123 Pa ≈ 0.8× terskelen: sand og grus flyttes ved flom, gull blir liggende (retensjon). Berggrunn: Granodioritt (35 % gunstig oppstrøms).",
"s2_anomali": null,
"s2_feox_z": null,
"satsjekk": "Automatisk bildeanalyse: dypt/mørkt vann."
}
},
{
"type": "Feature",
"geometry": {
"type": "Point",
"coordinates": [
10.1588,
63.65745
]
},
"properties": {
"elv": "Kvernhusbekken",
"km": 1.7,
"z": 29.31,
"S": 0.14,
"Q": 10.97,
"w": 20.29,
"w_q": 9.94,
"h": 0.2,
"tau": 263.32,
"tau_c": 268.71,
"omega": 722.09,
"M": 0.98,
"D": 0.0,
"R": 0.78,
"sving": 0.32,
"os": 0.0,
"os_navn": "",
"foss": 0.72,
"foss_drop": 27.44,
"juv": 0.0,
"B": 0.6,
"frac_fav": 0.36,
"d_gull_km": 154.05,
"berg": "Granittisk gneis | Granittisk ortogneis med bånd eller striper, nokre stader migmatittisk, gneis med diorittisk til granittisk samansetjing,nokre stader augegneis | Nær stedeget grunnfjell",
"p_raw": 0.21,
"A_km2": 91.45,
"gate": 1.0,
"P": 43.19,
"rank": 16,
"klasse": "C",
"d_vei_m": 6,
"vei_navn": "Skaugdalsveien",
"d_sti_m": 1000,
"d_parkering_m": 882,
"adkomst": "Lett: bilvei 6 m unna (Skaugdalsveien). Parkering 882 m unna.",
"navn": "Øverskauøya (Kvernhusbekken)",
"hvorfor": "Foss/stryk rett oppstrøms (27 m fall på 100 m) – fossekulp og fjell i dagen. τ = 263 Pa ≈ 1.0× terskelen: sand og grus flyttes ved flom, gull blir liggende (retensjon). Berggrunn: Granittisk gneis (36 % gunstig oppstrøms).",
"s2_anomali": 0.07,
"s2_feox_z": 0.07,
"satsjekk": "Automatisk bildeanalyse: grus/sandbanke synlig."
}
},
{
"type": "Feature",
"geometry": {
"type": "Point",
"coordinates": [
10.38701,
63.8177
]
},
"properties": {
"elv": "Juvvasselva",
"km": 2.0,
"z": 214.52,
"S": 0.01,
"Q": 5.39,
"w": 20.71,
"w_q": 6.96,
"h": 0.27,
"tau": 30.72,
"tau_c": 79.12,
"omega": 30.12,
"M": 0.39,
"D": 0.01,
"R": 0.08,
"sving": 0.68,
"os": 0.12,
"os_navn": "sideelv",
"foss": 1.0,
"foss_drop": 4.27,
"juv": 0.0,
"B": 0.71,
"frac_fav": 0.68,
"d_gull_km": 134.43,
"berg": "Grønnstein | Grønnstein med overgang til amfibolitt, stedvis med granat | Midtre kaledonsk dekkeserie",
"p_raw": 0.21,
"A_km2": 44.92,
"gate": 1.0,
"P": 42.67,
"rank": 17,
"klasse": "C",
"d_vei_m": 3051,
"vei_navn": "Holvassveien",
"d_sti_m": 1324,
"d_parkering_m": 3625,
"adkomst": "Avsides: 3.1 km fra bilvei – planlegg dagstur.",
"navn": "Hølen (Juvvasselva)",
"hvorfor": "Foss/stryk rett oppstrøms (4 m fall på 100 m) – fossekulp og fjell i dagen. Skarp sving – grav på innersvingen og bak store steiner. Berggrunn: Grønnstein (68 % gunstig oppstrøms).",
"s2_anomali": 0.04,
"s2_feox_z": 0.04,
"satsjekk": "Automatisk bildeanalyse: dypt/mørkt vann."
}
},
{
"type": "Feature",
"geometry": {
"type": "Point",
"coordinates": [
10.59698,
63.70814
]
},
"properties": {
"elv": "Innerelva",
"km": 7.5,
"z": 166.52,
"S": 0.08,
"Q": 2.84,
"w": 12.05,
"w_q": 5.06,
"h": 0.14,
"tau": 110.43,
"tau_c": 205.86,
"omega": 184.96,
"M": 0.54,
"D": 0.03,
"R": 0.23,
"sving": 0.51,
"os": 0.0,
"os_navn": "",
"foss": 1.0,
"foss_drop": 30.71,
"juv": 0.0,
"B": 0.7,
"frac_fav": 0.78,
"d_gull_km": 133.67,
"berg": "Granatglimmerskifer | Glimmerskifer, amfibolitt, kalksilikatskifer, metasandstein, kalkspatmarmor og gneis | Midtre kaledonsk dekkeserie",
"p_raw": 0.2,
"A_km2": 23.7,
"gate": 1.0,
"P": 42.06,
"rank": 18,
"klasse": "C",
"d_vei_m": 117,
"vei_navn": "Dalbygdveien",
"d_sti_m": 358,
"d_parkering_m": 451,
"adkomst": "Lett: bilvei 117 m unna (Dalbygdveien). Parkering 451 m unna.",
"navn": "Krukfossen (Innerelva)",
"hvorfor": "Foss/stryk rett oppstrøms (31 m fall på 100 m) – fossekulp og fjell i dagen. Skarp sving – grav på innersvingen og bak store steiner. Berggrunn: Granatglimmerskifer (78 % gunstig oppstrøms).",
"s2_anomali": 2.1,
"s2_feox_z": -0.51,
"satsjekk": "Automatisk bildeanalyse: tett vegetasjon – elva delvis skjult."
}
},
{
"type": "Feature",
"geometry": {
"type": "Point",
"coordinates": [
10.14861,
63.7875
]
},
"properties": {
"elv": "Nordelva",
"km": 2.6,
"z": 17.76,
"S": 0.01,
"Q": 25.42,
"w": 30.0,
"w_q": 15.13,
"h": 0.51,
"tau": 72.08,
"tau_c": 87.51,
"omega": 119.98,
"M": 0.82,
"D": 0.05,
"R": 0.61,
"sving": 0.02,
"os": 0.0,
"os_navn": "",
"foss": 1.0,
"foss_drop": 3.55,
"juv": 0.0,
"B": 0.64,
"frac_fav": 0.35,
"d_gull_km": 146.07,
"berg": "Granodioritt | Granodioritt, forgneiset | Øvre kaledonske dekkeserie",
"p_raw": 0.2,
"A_km2": 211.85,
"gate": 1.0,
"P": 41.96,
"rank": 19,
"klasse": "C",
"d_vei_m": 437,
"vei_navn": "Ramsbakkveien",
"d_sti_m": 114,
"d_parkering_m": 2771,
"adkomst": "Kort gange: bilvei 437 m unna.",
"navn": "Ramsbakktjønna (Nordelva)",
"hvorfor": "Foss/stryk rett oppstrøms (4 m fall på 100 m) – fossekulp og fjell i dagen. τ = 72 Pa ≈ 0.8× terskelen: sand og grus flyttes ved flom, gull blir liggende (retensjon). Berggrunn: Granodioritt (35 % gunstig oppstrøms).",
"s2_anomali": null,
"s2_feox_z": null,
"satsjekk": "Automatisk bildeanalyse: dypt/mørkt vann, tett vegetasjon – elva delvis skjult."
}
},
{
"type": "Feature",
"geometry": {
"type": "Point",
"coordinates": [
10.57398,
63.63929
]
},
"properties": {
"elv": "bekk",
"km": 1.3,
"z": 96.96,
"S": 0.16,
"Q": 1.91,
"w": 12.44,
"w_q": 4.15,
"h": 0.09,
"tau": 138.05,
"tau_c": 291.05,
"omega": 240.52,
"M": 0.47,
"D": 0.0,
"R": 0.16,
"sving": 0.46,
"os": 0.0,
"os_navn": "",
"foss": 1.0,
"foss_drop": 29.09,
"juv": 0.0,
"B": 0.77,
"frac_fav": 1.0,
"d_gull_km": 139.65,
"berg": "Glimmerskifer | Glimmerskifer, stedvis med granat | Midtre kaledonsk dekkeserie",
"p_raw": 0.2,
"A_km2": 15.92,
"gate": 1.0,
"P": 41.1,
"rank": 20,
"klasse": "C",
"d_vei_m": 52,
"vei_navn": "Tømmerdalsveien",
"d_sti_m": 480,
"d_parkering_m": 694,
"adkomst": "Lett: bilvei 52 m unna (Tømmerdalsveien). Parkering 694 m unna.",
"navn": "Johøla (bekk)",
"hvorfor": "Foss/stryk rett oppstrøms (29 m fall på 100 m) – fossekulp og fjell i dagen. Berggrunn: Glimmerskifer (100 % gunstig oppstrøms).",
"s2_anomali": null,
"s2_feox_z": null,
"satsjekk": "Automatisk bildeanalyse: dypt/mørkt vann, tett vegetasjon – elva delvis skjult."
}
}
]
}