{"type": "FeatureCollection", "features": [{"type": "Feature", "geometry": {"type": "Point", "coordinates": [10.63073, 63.80215]}, "properties": {"type": "basemetall", "s2_oh_z": -0.13, "s2_feox_z": -0.1}}, {"type": "Feature", "geometry": {"type": "Point", "coordinates": [10.56429, 63.75755]}, "properties": {"type": "basemetall", "s2_oh_z": null, "s2_feox_z": null}}, {"type": "Feature", "geometry": {"type": "Point", "coordinates": [10.52832, 63.75408]}, "properties": {"type": "basemetall", "s2_oh_z": null, "s2_feox_z": null}}, {"type": "Feature", "geometry": {"type": "Point", "coordinates": [10.28534, 63.6508]}, "properties": {"type": "basemetall", "s2_oh_z": -0.3, "s2_feox_z": -0.2}}, {"type": "Feature", "geometry": {"type": "Point", "coordinates": [10.64068, 63.79876]}, "properties": {"type": "basemetall", "s2_oh_z": null, "s2_feox_z": null}}, {"type": "Feature", "geometry": {"type": "Point", "coordinates": [10.41403, 63.75282]}, "properties": {"type": "basemetall", "s2_oh_z": null, "s2_feox_z": null}}, {"type": "Feature", "geometry": {"type": "Point", "coordinates": [10.25723, 63.691]}, "properties": {"type": "basemetall", "s2_oh_z": null, "s2_feox_z": null}}, {"type": "Feature", "geometry": {"type": "Point", "coordinates": [10.23622, 63.74234]}, "properties": {"type": "basemetall", "s2_oh_z": 0.83, "s2_feox_z": 1.04}}, {"type": "Feature", "geometry": {"type": "Point", "coordinates": [10.47296, 63.77512]}, "properties": {"type": "basemetall", "s2_oh_z": null, "s2_feox_z": null}}, {"type": "Feature", "geometry": {"type": "Point", "coordinates": [10.13465, 63.82664]}, "properties": {"type": "basemetall", "s2_oh_z": null, "s2_feox_z": null}}, {"type": "Feature", "geometry": {"type": "Point", "coordinates": [10.66213, 63.68016]}, "properties": {"type": "basemetall", "s2_oh_z": -0.48, "s2_feox_z": 2.55}}]}