<?xml version="1.0" encoding="UTF-8"?>
<kml xmlns="http://www.opengis.net/kml/2.2"><Document>
<name>GULLØYE – Leksvik</name>
<Style id="kA"><IconStyle><color>ff2b39c0</color><scale>1.1</scale></IconStyle></Style>
<Style id="kB"><IconStyle><color>ff227ee6</color><scale>1.1</scale></IconStyle></Style>
<Style id="kC"><IconStyle><color>ff0fc4f1</color><scale>1.1</scale></IconStyle></Style>
<Placemark><name>1A Hafella (Svartelva)</name><styleUrl>#kA</styleUrl><description>P=100. Foss/stryk rett oppstrøms (11 m fall på 100 m) – fossekulp og fjell i dagen. Os: sideelv kommer inn her – grus og tyngre materiale legges i osen og bankehodet nedenfor. Skarp sving – grav på innersvingen og bak store steiner. Berggrunn: Grønnstein (100 % gunstig oppstrøms). Lett: bilvei 122 m unna (Sliperveien). Parkering 377 m unna.</description><Point><coordinates>10.17149,63.64321,0</coordinates></Point></Placemark>
<Placemark><name>2A Storfossen (Holvasselva)</name><styleUrl>#kA</styleUrl><description>P=90. Foss/stryk rett oppstrøms (24 m fall på 100 m) – fossekulp og fjell i dagen. Skarp sving – grav på innersvingen og bak store steiner. τ = 167 Pa ≈ 0.8× terskelen: sand og grus flyttes ved flom, gull blir liggende (retensjon). Berggrunn: Grønnstein (100 % gunstig oppstrøms). Kort gange: bilvei 195 m unna. Parkering 582 m unna.</description><Point><coordinates>10.28508,63.78971,0</coordinates></Point></Placemark>
<Placemark><name>3A Fosshaugen (Osaelva)</name><styleUrl>#kA</styleUrl><description>P=81. Foss/stryk rett oppstrøms (15 m fall på 100 m) – fossekulp og fjell i dagen. Os: Bubekken kommer inn her – grus og tyngre materiale legges i osen og bankehodet nedenfor. Skarp sving – grav på innersvingen og bak store steiner. Berggrunn: Grønnstein (100 % gunstig oppstrøms). Lett: bilvei 45 m unna (Sagliveien).</description><Point><coordinates>10.15957,63.76117,0</coordinates></Point></Placemark>
<Placemark><name>4A Fossen (Holvasselva)</name><styleUrl>#kA</styleUrl><description>P=80. Foss/stryk rett oppstrøms (12 m fall på 100 m) – fossekulp og fjell i dagen. Os: Olausbekken kommer inn her – grus og tyngre materiale legges i osen og bankehodet nedenfor. Strømeffekten faller 37 % over strekningen – tungt materiale slipper her. Berggrunn: Grønnstein (100 % gunstig oppstrøms). Lett: bilvei 100 m unna (service). Parkering 251 m unna.</description><Point><coordinates>10.25648,63.78646,0</coordinates></Point></Placemark>
<Placemark><name>5A Kvislan (Svartelva)</name><styleUrl>#kA</styleUrl><description>P=78. Foss/stryk rett oppstrøms (11 m fall på 100 m) – fossekulp og fjell i dagen. Skarp sving – grav på innersvingen og bak store steiner. Berggrunn: Grønnstein (100 % gunstig oppstrøms). Lett: bilvei 17 m unna (Øvlandsveien). Parkering 953 m unna.</description><Point><coordinates>10.15208,63.64216,0</coordinates></Point></Placemark>
<Placemark><name>6B Olsøya (bekk)</name><styleUrl>#kB</styleUrl><description>P=69. Foss/stryk rett oppstrøms (36 m fall på 100 m) – fossekulp og fjell i dagen. Skarp sving – grav på innersvingen og bak store steiner. τ = 171 Pa ≈ 0.8× terskelen: sand og grus flyttes ved flom, gull blir liggende (retensjon). Berggrunn: Grønnstein (100 % gunstig oppstrøms). Lett: bilvei 55 m unna (Skaugdalsveien). Parkering 485 m unna.</description><Point><coordinates>10.20361,63.67000,0</coordinates></Point></Placemark>
<Placemark><name>7B Granmo (Svartelva)</name><styleUrl>#kB</styleUrl><description>P=62. Foss/stryk rett oppstrøms (5 m fall på 100 m) – fossekulp og fjell i dagen. Berggrunn: Grønnstein (100 % gunstig oppstrøms). Lett: bilvei 49 m unna (Rotåsveien). Parkering 1361 m unna.</description><Point><coordinates>10.13385,63.64068,0</coordinates></Point></Placemark>
<Placemark><name>8B Tømmerbakken (Osaelva)</name><styleUrl>#kB</styleUrl><description>P=55. Foss/stryk rett oppstrøms (5 m fall på 100 m) – fossekulp og fjell i dagen. Os: Granskardbekken kommer inn her – grus og tyngre materiale legges i osen og bankehodet nedenfor. Berggrunn: Grønnstein (100 % gunstig oppstrøms). Lett: bilvei 131 m unna (Sagliveien).</description><Point><coordinates>10.14611,63.75845,0</coordinates></Point></Placemark>
<Placemark><name>9B Gullgruvefossen (Osaelva)</name><styleUrl>#kB</styleUrl><description>P=54. Foss/stryk rett oppstrøms (6 m fall på 100 m) – fossekulp og fjell i dagen. Skarp sving – grav på innersvingen og bak store steiner. Berggrunn: Grønnstein (100 % gunstig oppstrøms). Lett: bilvei 27 m unna (Osaveien).</description><Point><coordinates>10.16681,63.75567,0</coordinates></Point></Placemark>
<Placemark><name>10B Merratjønna (Ytterelva)</name><styleUrl>#kB</styleUrl><description>P=47. Foss/stryk rett oppstrøms (16 m fall på 100 m) – fossekulp og fjell i dagen. Os: sideelv kommer inn her – grus og tyngre materiale legges i osen og bankehodet nedenfor. Skarp sving – grav på innersvingen og bak store steiner. Berggrunn: Granatglimmerskifer (55 % gunstig oppstrøms). Lett: bilvei 84 m unna (Kråkmoveien).</description><Point><coordinates>10.49081,63.69668,0</coordinates></Point></Placemark>
<Placemark><name>11B Lunfossen (bekk)</name><styleUrl>#kB</styleUrl><description>P=46. Foss/stryk rett oppstrøms (13 m fall på 100 m) – fossekulp og fjell i dagen. Skarp sving – grav på innersvingen og bak store steiner. Berggrunn: Glimmerskifer (100 % gunstig oppstrøms). Kort gange: bilvei 330 m unna.</description><Point><coordinates>10.55727,63.64307,0</coordinates></Point></Placemark>
<Placemark><name>12B Alset (Sørelva)</name><styleUrl>#kB</styleUrl><description>P=45. Foss/stryk rett oppstrøms (4 m fall på 100 m) – fossekulp og fjell i dagen. Os: Dalabekken kommer inn her – grus og tyngre materiale legges i osen og bankehodet nedenfor. Berggrunn: Øyegneis (57 % gunstig oppstrøms). Lett: bilvei 35 m unna (service).</description><Point><coordinates>10.32368,63.71064,0</coordinates></Point></Placemark>
<Placemark><name>13C Stamphølen (Ytterelva)</name><styleUrl>#kC</styleUrl><description>P=45. Foss/stryk rett oppstrøms (10 m fall på 100 m) – fossekulp og fjell i dagen. Os: Kvernbakkbekken kommer inn her – grus og tyngre materiale legges i osen og bankehodet nedenfor. Berggrunn: Granatglimmerskifer (55 % gunstig oppstrøms). Lett: bilvei 97 m unna (track). Parkering 813 m unna.</description><Point><coordinates>10.59540,63.67523,0</coordinates></Point></Placemark>
<Placemark><name>14C Østdalslunen (Juvasselva)</name><styleUrl>#kC</styleUrl><description>P=44. Os: Lunbekken kommer inn her – grus og tyngre materiale legges i osen og bankehodet nedenfor. Skarp sving – grav på innersvingen og bak store steiner. Berggrunn: Grønnstein (78 % gunstig oppstrøms). Lett: bilvei 103 m unna (Austdalsveien).</description><Point><coordinates>10.22701,63.84836,0</coordinates></Point></Placemark>
<Placemark><name>15C Stegahølen (Nordelva)</name><styleUrl>#kC</styleUrl><description>P=44. Foss/stryk rett oppstrøms (5 m fall på 100 m) – fossekulp og fjell i dagen. τ = 123 Pa ≈ 0.8× terskelen: sand og grus flyttes ved flom, gull blir liggende (retensjon). Berggrunn: Granodioritt (35 % gunstig oppstrøms). Lett: bilvei 67 m unna (track).</description><Point><coordinates>10.18180,63.79263,0</coordinates></Point></Placemark>
<Placemark><name>16C Øverskauøya (Kvernhusbekken)</name><styleUrl>#kC</styleUrl><description>P=43. Foss/stryk rett oppstrøms (27 m fall på 100 m) – fossekulp og fjell i dagen. τ = 263 Pa ≈ 1.0× terskelen: sand og grus flyttes ved flom, gull blir liggende (retensjon). Berggrunn: Granittisk gneis (36 % gunstig oppstrøms). Lett: bilvei 6 m unna (Skaugdalsveien). Parkering 882 m unna.</description><Point><coordinates>10.15880,63.65745,0</coordinates></Point></Placemark>
<Placemark><name>17C Hølen (Juvvasselva)</name><styleUrl>#kC</styleUrl><description>P=43. Foss/stryk rett oppstrøms (4 m fall på 100 m) – fossekulp og fjell i dagen. Skarp sving – grav på innersvingen og bak store steiner. Berggrunn: Grønnstein (68 % gunstig oppstrøms). Avsides: 3.1 km fra bilvei – planlegg dagstur.</description><Point><coordinates>10.38701,63.81770,0</coordinates></Point></Placemark>
<Placemark><name>18C Krukfossen (Innerelva)</name><styleUrl>#kC</styleUrl><description>P=42. Foss/stryk rett oppstrøms (31 m fall på 100 m) – fossekulp og fjell i dagen. Skarp sving – grav på innersvingen og bak store steiner. Berggrunn: Granatglimmerskifer (78 % gunstig oppstrøms). Lett: bilvei 117 m unna (Dalbygdveien). Parkering 451 m unna.</description><Point><coordinates>10.59698,63.70814,0</coordinates></Point></Placemark>
<Placemark><name>19C Ramsbakktjønna (Nordelva)</name><styleUrl>#kC</styleUrl><description>P=42. Foss/stryk rett oppstrøms (4 m fall på 100 m) – fossekulp og fjell i dagen. τ = 72 Pa ≈ 0.8× terskelen: sand og grus flyttes ved flom, gull blir liggende (retensjon). Berggrunn: Granodioritt (35 % gunstig oppstrøms). Kort gange: bilvei 437 m unna.</description><Point><coordinates>10.14861,63.78750,0</coordinates></Point></Placemark>
<Placemark><name>20C Johøla (bekk)</name><styleUrl>#kC</styleUrl><description>P=41. Foss/stryk rett oppstrøms (29 m fall på 100 m) – fossekulp og fjell i dagen. Berggrunn: Glimmerskifer (100 % gunstig oppstrøms). Lett: bilvei 52 m unna (Tømmerdalsveien). Parkering 694 m unna.</description><Point><coordinates>10.57398,63.63929,0</coordinates></Point></Placemark>
</Document></kml>