<?xml version="1.0" encoding="UTF-8"?>
<gpx version="1.1" creator="gulloye" xmlns="http://www.topografix.com/GPX/1/1">
  <wpt lat="63.64321" lon="10.17149"><name>1 A – Hafella (Svartelva)</name><desc>Foss/stryk rett oppstrøms (11 m fall på 100 m) – fossekulp og fjell i dagen. Os: sideelv kommer inn her – grus og tyngre materiale legges i osen og bankehodet nedenfor. Skarp sving – grav på innersvingen og bak store steiner. Berggrunn: Grønnstein (100 % gunstig oppstrøms).</desc></wpt>
  <wpt lat="63.78971" lon="10.28508"><name>2 A – Storfossen (Holvasselva)</name><desc>Foss/stryk rett oppstrøms (24 m fall på 100 m) – fossekulp og fjell i dagen. Skarp sving – grav på innersvingen og bak store steiner. τ = 167 Pa ≈ 0.8× terskelen: sand og grus flyttes ved flom, gull blir liggende (retensjon). Berggrunn: Grønnstein (100 % gunstig oppstrøms).</desc></wpt>
  <wpt lat="63.76117" lon="10.15957"><name>3 A – Fosshaugen (Osaelva)</name><desc>Foss/stryk rett oppstrøms (15 m fall på 100 m) – fossekulp og fjell i dagen. Os: Bubekken kommer inn her – grus og tyngre materiale legges i osen og bankehodet nedenfor. Skarp sving – grav på innersvingen og bak store steiner. Berggrunn: Grønnstein (100 % gunstig oppstrøms).</desc></wpt>
  <wpt lat="63.78646" lon="10.25648"><name>4 A – Fossen (Holvasselva)</name><desc>Foss/stryk rett oppstrøms (12 m fall på 100 m) – fossekulp og fjell i dagen. Os: Olausbekken kommer inn her – grus og tyngre materiale legges i osen og bankehodet nedenfor. Strømeffekten faller 37 % over strekningen – tungt materiale slipper her. Berggrunn: Grønnstein (100 % gunstig oppstrøms).</desc></wpt>
  <wpt lat="63.64216" lon="10.15208"><name>5 A – Kvislan (Svartelva)</name><desc>Foss/stryk rett oppstrøms (11 m fall på 100 m) – fossekulp og fjell i dagen. Skarp sving – grav på innersvingen og bak store steiner. Berggrunn: Grønnstein (100 % gunstig oppstrøms).</desc></wpt>
  <wpt lat="63.67000" lon="10.20361"><name>6 B – Olsøya (bekk)</name><desc>Foss/stryk rett oppstrøms (36 m fall på 100 m) – fossekulp og fjell i dagen. Skarp sving – grav på innersvingen og bak store steiner. τ = 171 Pa ≈ 0.8× terskelen: sand og grus flyttes ved flom, gull blir liggende (retensjon). Berggrunn: Grønnstein (100 % gunstig oppstrøms).</desc></wpt>
  <wpt lat="63.64068" lon="10.13385"><name>7 B – Granmo (Svartelva)</name><desc>Foss/stryk rett oppstrøms (5 m fall på 100 m) – fossekulp og fjell i dagen. Berggrunn: Grønnstein (100 % gunstig oppstrøms).</desc></wpt>
  <wpt lat="63.75845" lon="10.14611"><name>8 B – Tømmerbakken (Osaelva)</name><desc>Foss/stryk rett oppstrøms (5 m fall på 100 m) – fossekulp og fjell i dagen. Os: Granskardbekken kommer inn her – grus og tyngre materiale legges i osen og bankehodet nedenfor. Berggrunn: Grønnstein (100 % gunstig oppstrøms).</desc></wpt>
  <wpt lat="63.75567" lon="10.16681"><name>9 B – Gullgruvefossen (Osaelva)</name><desc>Foss/stryk rett oppstrøms (6 m fall på 100 m) – fossekulp og fjell i dagen. Skarp sving – grav på innersvingen og bak store steiner. Berggrunn: Grønnstein (100 % gunstig oppstrøms).</desc></wpt>
  <wpt lat="63.69668" lon="10.49081"><name>10 B – Merratjønna (Ytterelva)</name><desc>Foss/stryk rett oppstrøms (16 m fall på 100 m) – fossekulp og fjell i dagen. Os: sideelv kommer inn her – grus og tyngre materiale legges i osen og bankehodet nedenfor. Skarp sving – grav på innersvingen og bak store steiner. Berggrunn: Granatglimmerskifer (55 % gunstig oppstrøms).</desc></wpt>
  <wpt lat="63.64307" lon="10.55727"><name>11 B – Lunfossen (bekk)</name><desc>Foss/stryk rett oppstrøms (13 m fall på 100 m) – fossekulp og fjell i dagen. Skarp sving – grav på innersvingen og bak store steiner. Berggrunn: Glimmerskifer (100 % gunstig oppstrøms).</desc></wpt>
  <wpt lat="63.71064" lon="10.32368"><name>12 B – Alset (Sørelva)</name><desc>Foss/stryk rett oppstrøms (4 m fall på 100 m) – fossekulp og fjell i dagen. Os: Dalabekken kommer inn her – grus og tyngre materiale legges i osen og bankehodet nedenfor. Berggrunn: Øyegneis (57 % gunstig oppstrøms).</desc></wpt>
  <wpt lat="63.67523" lon="10.59540"><name>13 C – Stamphølen (Ytterelva)</name><desc>Foss/stryk rett oppstrøms (10 m fall på 100 m) – fossekulp og fjell i dagen. Os: Kvernbakkbekken kommer inn her – grus og tyngre materiale legges i osen og bankehodet nedenfor. Berggrunn: Granatglimmerskifer (55 % gunstig oppstrøms).</desc></wpt>
  <wpt lat="63.84836" lon="10.22701"><name>14 C – Østdalslunen (Juvasselva)</name><desc>Os: Lunbekken kommer inn her – grus og tyngre materiale legges i osen og bankehodet nedenfor. Skarp sving – grav på innersvingen og bak store steiner. Berggrunn: Grønnstein (78 % gunstig oppstrøms).</desc></wpt>
  <wpt lat="63.79263" lon="10.18180"><name>15 C – Stegahølen (Nordelva)</name><desc>Foss/stryk rett oppstrøms (5 m fall på 100 m) – fossekulp og fjell i dagen. τ = 123 Pa ≈ 0.8× terskelen: sand og grus flyttes ved flom, gull blir liggende (retensjon). Berggrunn: Granodioritt (35 % gunstig oppstrøms).</desc></wpt>
  <wpt lat="63.65745" lon="10.15880"><name>16 C – Øverskauøya (Kvernhusbekken)</name><desc>Foss/stryk rett oppstrøms (27 m fall på 100 m) – fossekulp og fjell i dagen. τ = 263 Pa ≈ 1.0× terskelen: sand og grus flyttes ved flom, gull blir liggende (retensjon). Berggrunn: Granittisk gneis (36 % gunstig oppstrøms).</desc></wpt>
  <wpt lat="63.81770" lon="10.38701"><name>17 C – Hølen (Juvvasselva)</name><desc>Foss/stryk rett oppstrøms (4 m fall på 100 m) – fossekulp og fjell i dagen. Skarp sving – grav på innersvingen og bak store steiner. Berggrunn: Grønnstein (68 % gunstig oppstrøms).</desc></wpt>
  <wpt lat="63.70814" lon="10.59698"><name>18 C – Krukfossen (Innerelva)</name><desc>Foss/stryk rett oppstrøms (31 m fall på 100 m) – fossekulp og fjell i dagen. Skarp sving – grav på innersvingen og bak store steiner. Berggrunn: Granatglimmerskifer (78 % gunstig oppstrøms).</desc></wpt>
  <wpt lat="63.78750" lon="10.14861"><name>19 C – Ramsbakktjønna (Nordelva)</name><desc>Foss/stryk rett oppstrøms (4 m fall på 100 m) – fossekulp og fjell i dagen. τ = 72 Pa ≈ 0.8× terskelen: sand og grus flyttes ved flom, gull blir liggende (retensjon). Berggrunn: Granodioritt (35 % gunstig oppstrøms).</desc></wpt>
  <wpt lat="63.63929" lon="10.57398"><name>20 C – Johøla (bekk)</name><desc>Foss/stryk rett oppstrøms (29 m fall på 100 m) – fossekulp og fjell i dagen. Berggrunn: Glimmerskifer (100 % gunstig oppstrøms).</desc></wpt>
</gpx>