{
"type": "FeatureCollection",
"features": [
{
"type": "Feature",
"geometry": {
"type": "Point",
"coordinates": [
12.98223,
64.47279
]
},
"properties": {
"elv": "Sanddøla - Sovvene",
"km": 3.2,
"z": 202.12,
"S": 0.01,
"Q": 125.12,
"w": 50.0,
"w_q": 33.56,
"h": 1.05,
"tau": 118.28,
"tau_c": 78.2,
"omega": 282.96,
"M": 1.51,
"D": 0.07,
"R": 1.0,
"sving": 0.29,
"os": 0.9,
"os_navn": "Langtjønnelva",
"foss": 0.6,
"foss_drop": 5.23,
"juv": 0.0,
"B": 0.9,
"frac_fav": 0.45,
"d_gull_km": 3.07,
"berg": "Granittisk gneis | Migmatittgneis, uinndelt. Granittisk til granodiorittisk sammensetning | Nær stedeget grunnfjell",
"p_raw": 0.48,
"A_km2": 695.13,
"gate": 1.0,
"P": 100.0,
"rank": 1,
"klasse": "A",
"d_vei_m": 115,
"vei_navn": "Sanddøldalsvegen",
"d_sti_m": 2617,
"d_parkering_m": 12360,
"adkomst": "Lett: bilvei 115 m unna (Sanddøldalsvegen).",
"navn": "Bergfossen (Sanddøla - Sovvene)",
"hvorfor": "Foss/stryk rett oppstrøms (5 m fall på 100 m) – fossekulp og fjell i dagen. Os: Langtjønnelva kommer inn her – grus og tyngre materiale legges i osen og bankehodet nedenfor. τ = 118 Pa ≈ 1.5× terskelen: sand og grus flyttes ved flom, gull blir liggende (retensjon). Berggrunn: Granittisk gneis (45 % gunstig oppstrøms). NGU-registrert gullforekomst 3.1 km unna.",
"s2_anomali": 3.51,
"s2_feox_z": -0.63,
"satsjekk": "Automatisk bildeanalyse: dypt/mørkt vann."
}
},
{
"type": "Feature",
"geometry": {
"type": "Point",
"coordinates": [
12.88702,
64.4694
]
},
"properties": {
"elv": "Fremsttjønnbekken",
"km": 1.6,
"z": 191.54,
"S": 0.3,
"Q": 131.35,
"w": 65.55,
"w_q": 34.38,
"h": 0.34,
"tau": 997.64,
"tau_c": 364.2,
"omega": 5867.87,
"M": 2.74,
"D": 0.0,
"R": 0.6,
"sving": 0.59,
"os": 0.11,
"os_navn": "Bergmobekken",
"foss": 1.0,
"foss_drop": 56.43,
"juv": 0.0,
"B": 1.17,
"frac_fav": 1.0,
"d_gull_km": 7.56,
"berg": "Grønnstein | Grønnstein og grønnskifer (Devikgrønnsteinen) | Øvre kaledonske dekkeserie",
"p_raw": 0.47,
"A_km2": 729.71,
"gate": 1.0,
"P": 99.22,
"rank": 2,
"klasse": "A",
"d_vei_m": 156,
"vei_navn": "Sanddøldalsvegen",
"d_sti_m": 1194,
"d_parkering_m": 7770,
"adkomst": "Kort gange: bilvei 156 m unna.",
"navn": "Bergmoen (Fremsttjønnbekken)",
"hvorfor": "Foss/stryk rett oppstrøms (56 m fall på 100 m) – fossekulp og fjell i dagen. Skarp sving – grav på innersvingen og bak store steiner. τ = 998 Pa ≈ 2.7× terskelen: sand og grus flyttes ved flom, gull blir liggende (retensjon). Berggrunn: Grønnstein (100 % gunstig oppstrøms). NGU-registrert gullforekomst 7.6 km unna.",
"s2_anomali": 3.16,
"s2_feox_z": 0.01,
"satsjekk": "Automatisk bildeanalyse: tett vegetasjon – elva delvis skjult."
}
},
{
"type": "Feature",
"geometry": {
"type": "Point",
"coordinates": [
12.61086,
64.56019
]
},
"properties": {
"elv": "Nesåa",
"km": 19.4,
"z": 110.62,
"S": 0.03,
"Q": 44.85,
"w": 36.0,
"w_q": 20.09,
"h": 0.53,
"tau": 143.72,
"tau_c": 121.62,
"omega": 340.67,
"M": 1.18,
"D": 0.12,
"R": 0.92,
"sving": 0.01,
"os": 0.91,
"os_navn": "Storbekken",
"foss": 0.78,
"foss_drop": 7.35,
"juv": 0.0,
"B": 0.89,
"frac_fav": 0.7,
"d_gull_km": 9.95,
"berg": "Granodioritt | Granodioritt, kvartsdioritt, tonalitt og trondhjemitt | Øvre kaledonske dekkeserie",
"p_raw": 0.46,
"A_km2": 249.14,
"gate": 1.0,
"P": 95.71,
"rank": 3,
"klasse": "A",
"d_vei_m": 51,
"vei_navn": "service",
"d_sti_m": 3744,
"d_parkering_m": 4765,
"adkomst": "Lett: bilvei 51 m unna (service).",
"navn": "Iskvennfossan (Nesåa)",
"hvorfor": "Foss/stryk rett oppstrøms (7 m fall på 100 m) – fossekulp og fjell i dagen. Os: Storbekken kommer inn her – grus og tyngre materiale legges i osen og bankehodet nedenfor. τ = 144 Pa ≈ 1.2× terskelen: sand og grus flyttes ved flom, gull blir liggende (retensjon). Berggrunn: Granodioritt (70 % gunstig oppstrøms).",
"s2_anomali": 1.89,
"s2_feox_z": -0.83,
"satsjekk": "Automatisk bildeanalyse: dypt/mørkt vann."
}
},
{
"type": "Feature",
"geometry": {
"type": "Point",
"coordinates": [
12.67915,
64.54662
]
},
"properties": {
"elv": "Nesåa",
"km": 15.1,
"z": 173.19,
"S": 0.07,
"Q": 36.53,
"w": 26.0,
"w_q": 18.13,
"h": 0.44,
"tau": 284.34,
"tau_c": 187.81,
"omega": 916.39,
"M": 1.51,
"D": 0.13,
"R": 1.0,
"sving": 0.14,
"os": 0.16,
"os_navn": "sideelv",
"foss": 1.0,
"foss_drop": 12.1,
"juv": 0.09,
"B": 0.89,
"frac_fav": 0.7,
"d_gull_km": 7.59,
"berg": "Granodioritt | Granodioritt, kvartsdioritt, tonalitt og trondhjemitt | Øvre kaledonske dekkeserie",
"p_raw": 0.43,
"A_km2": 202.96,
"gate": 1.0,
"P": 89.44,
"rank": 4,
"klasse": "A",
"d_vei_m": 608,
"vei_navn": "service",
"d_sti_m": 2877,
"d_parkering_m": 1662,
"adkomst": "Gange 0.6 km fra nærmeste bilvei.",
"navn": "Mortenfossan (Nesåa)",
"hvorfor": "Foss/stryk rett oppstrøms (12 m fall på 100 m) – fossekulp og fjell i dagen. τ = 284 Pa ≈ 1.5× terskelen: sand og grus flyttes ved flom, gull blir liggende (retensjon). Berggrunn: Granodioritt (70 % gunstig oppstrøms). NGU-registrert gullforekomst 7.6 km unna.",
"s2_anomali": 2.23,
"s2_feox_z": -1.6,
"satsjekk": "Automatisk bildeanalyse: dypt/mørkt vann, tett vegetasjon – elva delvis skjult."
}
},
{
"type": "Feature",
"geometry": {
"type": "Point",
"coordinates": [
13.00736,
64.47812
]
},
"properties": {
"elv": "Sanddøla - Sovvene",
"km": 1.7,
"z": 211.6,
"S": 0.01,
"Q": 122.55,
"w": 46.0,
"w_q": 33.21,
"h": 1.38,
"tau": 71.81,
"tau_c": 53.04,
"omega": 138.57,
"M": 1.35,
"D": 0.19,
"R": 0.99,
"sving": 0.2,
"os": 0.81,
"os_navn": "sideelv",
"foss": 0.0,
"foss_drop": 0.0,
"juv": 0.04,
"B": 0.93,
"frac_fav": 0.45,
"d_gull_km": 1.72,
"berg": "Granittisk gneis | Migmatittgneis, uinndelt. Granittisk til granodiorittisk sammensetning | Nær stedeget grunnfjell",
"p_raw": 0.41,
"A_km2": 680.86,
"gate": 1.0,
"P": 85.46,
"rank": 5,
"klasse": "A",
"d_vei_m": 226,
"vei_navn": "Sanddøldalsvegen",
"d_sti_m": 2969,
"d_parkering_m": 13637,
"adkomst": "Kort gange: bilvei 226 m unna.",
"navn": "Sanddøla - Sovvene, km 1.7",
"hvorfor": "Os: sideelv kommer inn her – grus og tyngre materiale legges i osen og bankehodet nedenfor. τ = 72 Pa ≈ 1.4× terskelen: sand og grus flyttes ved flom, gull blir liggende (retensjon). Berggrunn: Granittisk gneis (45 % gunstig oppstrøms). NGU-registrert gullforekomst 1.7 km unna.",
"s2_anomali": 3.72,
"s2_feox_z": 0.58,
"satsjekk": "Automatisk bildeanalyse: dypt/mørkt vann."
}
},
{
"type": "Feature",
"geometry": {
"type": "Point",
"coordinates": [
12.66019,
64.55124
]
},
"properties": {
"elv": "Olabekken",
"km": 2.2,
"z": 140.42,
"S": 0.03,
"Q": 37.27,
"w": 44.19,
"w_q": 18.32,
"h": 0.43,
"tau": 105.51,
"tau_c": 115.58,
"omega": 208.34,
"M": 0.91,
"D": 0.07,
"R": 0.71,
"sving": 0.59,
"os": 0.09,
"os_navn": "Gressbekken",
"foss": 1.0,
"foss_drop": 3.41,
"juv": 0.0,
"B": 0.91,
"frac_fav": 0.74,
"d_gull_km": 8.24,
"berg": "Gabbro | Gabbro, hornblendegabbro | Øvre kaledonske dekkeserie",
"p_raw": 0.4,
"A_km2": 207.08,
"gate": 1.0,
"P": 84.69,
"rank": 6,
"klasse": "A",
"d_vei_m": 145,
"vei_navn": "service",
"d_sti_m": 3371,
"d_parkering_m": 2468,
"adkomst": "Lett: bilvei 145 m unna (service).",
"navn": "Gressbekkmoen (Olabekken)",
"hvorfor": "Foss/stryk rett oppstrøms (3 m fall på 100 m) – fossekulp og fjell i dagen. Skarp sving – grav på innersvingen og bak store steiner. τ = 106 Pa ≈ 0.9× terskelen: sand og grus flyttes ved flom, gull blir liggende (retensjon). Berggrunn: Gabbro (74 % gunstig oppstrøms).",
"s2_anomali": 4.0,
"s2_feox_z": 4.94,
"satsjekk": "Automatisk bildeanalyse: dypt/mørkt vann, tett vegetasjon – elva delvis skjult."
}
},
{
"type": "Feature",
"geometry": {
"type": "Point",
"coordinates": [
12.51563,
64.48129
]
},
"properties": {
"elv": "bekk",
"km": 0.2,
"z": 129.61,
"S": 0.05,
"Q": 14.68,
"w": 23.09,
"w_q": 11.49,
"h": 0.29,
"tau": 144.24,
"tau_c": 162.85,
"omega": 311.71,
"M": 0.89,
"D": 0.0,
"R": 0.68,
"sving": 0.13,
"os": 0.78,
"os_navn": "sideelv",
"foss": 1.0,
"foss_drop": 6.65,
"juv": 0.0,
"B": 0.87,
"frac_fav": 0.83,
"d_gull_km": 8.72,
"berg": "Gabbro | Gabbro, hornblendegabbro | Øvre kaledonske dekkeserie",
"p_raw": 0.4,
"A_km2": 81.54,
"gate": 1.0,
"P": 83.61,
"rank": 7,
"klasse": "A",
"d_vei_m": 475,
"vei_navn": "Møkkelvassvegen",
"d_sti_m": 6016,
"d_parkering_m": 9408,
"adkomst": "Kort gange: bilvei 475 m unna.",
"navn": "Litlmyra (bekk)",
"hvorfor": "Foss/stryk rett oppstrøms (7 m fall på 100 m) – fossekulp og fjell i dagen. Os: sideelv kommer inn her – grus og tyngre materiale legges i osen og bankehodet nedenfor. τ = 144 Pa ≈ 0.9× terskelen: sand og grus flyttes ved flom, gull blir liggende (retensjon). Berggrunn: Gabbro (83 % gunstig oppstrøms).",
"s2_anomali": null,
"s2_feox_z": null,
"satsjekk": "Automatisk bildeanalyse: dypt/mørkt vann, tett vegetasjon – elva delvis skjult."
}
},
{
"type": "Feature",
"geometry": {
"type": "Point",
"coordinates": [
12.56119,
64.5658
]
},
"properties": {
"elv": "Nesåa",
"km": 22.2,
"z": 76.68,
"S": 0.02,
"Q": 46.19,
"w": 46.23,
"w_q": 20.39,
"h": 0.51,
"tau": 96.88,
"tau_c": 101.06,
"omega": 188.64,
"M": 0.96,
"D": 0.04,
"R": 0.76,
"sving": 0.24,
"os": 0.74,
"os_navn": "Urdalsbekken",
"foss": 0.63,
"foss_drop": 0.0,
"juv": 0.0,
"B": 0.89,
"frac_fav": 0.7,
"d_gull_km": 11.66,
"berg": "Granodioritt | Granodioritt, kvartsdioritt, tonalitt og trondhjemitt | Øvre kaledonske dekkeserie",
"p_raw": 0.39,
"A_km2": 256.58,
"gate": 1.0,
"P": 81.84,
"rank": 8,
"klasse": "A",
"d_vei_m": 64,
"vei_navn": "service",
"d_sti_m": 1782,
"d_parkering_m": 7053,
"adkomst": "Lett: bilvei 64 m unna (service).",
"navn": "Grønstrandfossan (Nesåa)",
"hvorfor": "Bratt stryk like oppstrøms – kulper og fjellsprekker. Os: Urdalsbekken kommer inn her – grus og tyngre materiale legges i osen og bankehodet nedenfor. τ = 97 Pa ≈ 1.0× terskelen: sand og grus flyttes ved flom, gull blir liggende (retensjon). Berggrunn: Granodioritt (70 % gunstig oppstrøms).",
"s2_anomali": 3.98,
"s2_feox_z": 3.98,
"satsjekk": "Automatisk bildeanalyse: dypt/mørkt vann."
}
},
{
"type": "Feature",
"geometry": {
"type": "Point",
"coordinates": [
12.51587,
64.38614
]
},
"properties": {
"elv": "Medalåa",
"km": 19.6,
"z": 185.05,
"S": 0.02,
"Q": 102.34,
"w": 46.21,
"w_q": 30.35,
"h": 0.89,
"tau": 134.48,
"tau_c": 90.4,
"omega": 334.64,
"M": 1.49,
"D": 0.0,
"R": 1.0,
"sving": 0.78,
"os": 0.0,
"os_navn": "",
"foss": 0.71,
"foss_drop": 0.0,
"juv": 0.14,
"B": 0.79,
"frac_fav": 0.45,
"d_gull_km": 13.53,
"berg": "Granittisk gneis | Migmatittgneis, uinndelt. Granittisk til granodiorittisk sammensetning | Nær stedeget grunnfjell",
"p_raw": 0.38,
"A_km2": 568.57,
"gate": 1.0,
"P": 80.15,
"rank": 9,
"klasse": "A",
"d_vei_m": 922,
"vei_navn": "Leirsjøvegen",
"d_sti_m": 14070,
"d_parkering_m": 12067,
"adkomst": "Gange 0.9 km fra nærmeste bilvei.",
"navn": "Blautdalfossen (Medalåa)",
"hvorfor": "Bratt stryk like oppstrøms – kulper og fjellsprekker. Skarp sving – grav på innersvingen og bak store steiner. τ = 134 Pa ≈ 1.5× terskelen: sand og grus flyttes ved flom, gull blir liggende (retensjon). Berggrunn: Granittisk gneis (45 % gunstig oppstrøms).",
"s2_anomali": 3.57,
"s2_feox_z": 3.57,
"satsjekk": "Automatisk bildeanalyse: dypt/mørkt vann, tett vegetasjon – elva delvis skjult."
}
},
{
"type": "Feature",
"geometry": {
"type": "Point",
"coordinates": [
12.69949,
64.45682
]
},
"properties": {
"elv": "Sanddøla - Sovvene",
"km": 17.6,
"z": 158.28,
"S": 0.0,
"Q": 144.72,
"w": 52.0,
"w_q": 36.09,
"h": 1.65,
"tau": 51.61,
"tau_c": 41.08,
"omega": 86.83,
"M": 1.26,
"D": 0.0,
"R": 0.96,
"sving": 0.3,
"os": 0.82,
"os_navn": "sideelv",
"foss": 0.0,
"foss_drop": 0.0,
"juv": 0.0,
"B": 0.92,
"frac_fav": 0.45,
"d_gull_km": 2.47,
"berg": "Granittisk gneis | Migmatittgneis, uinndelt. Granittisk til granodiorittisk sammensetning | Nær stedeget grunnfjell",
"p_raw": 0.37,
"A_km2": 804.0,
"gate": 1.0,
"P": 78.39,
"rank": 10,
"klasse": "B",
"d_vei_m": 54,
"vei_navn": "track",
"d_sti_m": 5950,
"d_parkering_m": 225,
"adkomst": "Lett: bilvei 54 m unna (track). Parkering 225 m unna.",
"navn": "Nyneset (Sanddøla - Sovvene)",
"hvorfor": "Os: sideelv kommer inn her – grus og tyngre materiale legges i osen og bankehodet nedenfor. τ = 52 Pa ≈ 1.3× terskelen: sand og grus flyttes ved flom, gull blir liggende (retensjon). Berggrunn: Granittisk gneis (45 % gunstig oppstrøms). NGU-registrert gullforekomst 2.5 km unna.",
"s2_anomali": 3.97,
"s2_feox_z": 1.18,
"satsjekk": "Automatisk bildeanalyse: dypt/mørkt vann."
}
},
{
"type": "Feature",
"geometry": {
"type": "Point",
"coordinates": [
12.72393,
64.45972
]
},
"properties": {
"elv": "Sanddøla - Sovvene",
"km": 16.3,
"z": 161.38,
"S": 0.0,
"Q": 143.6,
"w": 38.0,
"w_q": 35.95,
"h": 2.01,
"tau": 63.87,
"tau_c": 41.49,
"omega": 120.28,
"M": 1.54,
"D": -0.0,
"R": 1.0,
"sving": 0.02,
"os": 0.88,
"os_navn": "Børbekken",
"foss": 0.0,
"foss_drop": 0.0,
"juv": 0.07,
"B": 0.92,
"frac_fav": 0.45,
"d_gull_km": 2.51,
"berg": "Granittisk gneis | Migmatittgneis, uinndelt. Granittisk til granodiorittisk sammensetning | Nær stedeget grunnfjell",
"p_raw": 0.36,
"A_km2": 797.79,
"gate": 1.0,
"P": 75.29,
"rank": 11,
"klasse": "B",
"d_vei_m": 63,
"vei_navn": "Sanddøldalsvegen",
"d_sti_m": 5293,
"d_parkering_m": 165,
"adkomst": "Lett: bilvei 63 m unna (Sanddøldalsvegen). Parkering 165 m unna.",
"navn": "Sanddøla - Sovvene, km 16.3",
"hvorfor": "Os: Børbekken kommer inn her – grus og tyngre materiale legges i osen og bankehodet nedenfor. τ = 64 Pa ≈ 1.5× terskelen: sand og grus flyttes ved flom, gull blir liggende (retensjon). Berggrunn: Granittisk gneis (45 % gunstig oppstrøms). NGU-registrert gullforekomst 2.5 km unna.",
"s2_anomali": 2.91,
"s2_feox_z": 0.55,
"satsjekk": "Automatisk bildeanalyse: dypt/mørkt vann."
}
},
{
"type": "Feature",
"geometry": {
"type": "Point",
"coordinates": [
12.85976,
64.58074
]
},
"properties": {
"elv": "Nesåa",
"km": 0.2,
"z": 362.55,
"S": 0.07,
"Q": 22.99,
"w": 37.26,
"w_q": 14.38,
"h": 0.26,
"tau": 185.91,
"tau_c": 198.38,
"omega": 448.96,
"M": 0.94,
"D": 0.03,
"R": 0.74,
"sving": 0.48,
"os": 0.12,
"os_navn": "sideelv",
"foss": 1.0,
"foss_drop": 17.43,
"juv": 0.0,
"B": 0.82,
"frac_fav": 0.7,
"d_gull_km": 13.77,
"berg": "Granodioritt | Granodioritt, kvartsdioritt, tonalitt og trondhjemitt | Øvre kaledonske dekkeserie",
"p_raw": 0.35,
"A_km2": 127.72,
"gate": 1.0,
"P": 74.12,
"rank": 12,
"klasse": "B",
"d_vei_m": 6333,
"vei_navn": "Nesådalsvegen",
"d_sti_m": 6798,
"d_parkering_m": 9969,
"adkomst": "Avsides: 6.3 km fra bilvei – planlegg dagstur.",
"navn": "Nesåa, km 0.2",
"hvorfor": "Foss/stryk rett oppstrøms (17 m fall på 100 m) – fossekulp og fjell i dagen. τ = 186 Pa ≈ 0.9× terskelen: sand og grus flyttes ved flom, gull blir liggende (retensjon). Berggrunn: Granodioritt (70 % gunstig oppstrøms).",
"s2_anomali": 2.26,
"s2_feox_z": 0.37,
"satsjekk": "Automatisk bildeanalyse: dypt/mørkt vann, tett vegetasjon – elva delvis skjult."
}
},
{
"type": "Feature",
"geometry": {
"type": "Point",
"coordinates": [
12.58506,
64.56716
]
},
"properties": {
"elv": "Hyllbekkåa",
"km": 3.0,
"z": 88.56,
"S": 0.02,
"Q": 45.51,
"w": 40.83,
"w_q": 20.24,
"h": 0.58,
"tau": 93.0,
"tau_c": 93.49,
"omega": 180.16,
"M": 0.99,
"D": 0.0,
"R": 0.79,
"sving": 0.33,
"os": 0.28,
"os_navn": "Bjørbekken",
"foss": 0.37,
"foss_drop": 4.42,
"juv": 0.0,
"B": 1.03,
"frac_fav": 0.92,
"d_gull_km": 11.2,
"berg": "Gabbro | Gabbro, hornblendegabbro | Øvre kaledonske dekkeserie",
"p_raw": 0.35,
"A_km2": 252.86,
"gate": 1.0,
"P": 73.99,
"rank": 13,
"klasse": "B",
"d_vei_m": 233,
"vei_navn": "Nesådalsvegen",
"d_sti_m": 2297,
"d_parkering_m": 6211,
"adkomst": "Kort gange: bilvei 233 m unna.",
"navn": "Myrvang (Hyllbekkåa)",
"hvorfor": "Foss/stryk rett oppstrøms (4 m fall på 100 m) – fossekulp og fjell i dagen. τ = 93 Pa ≈ 1.0× terskelen: sand og grus flyttes ved flom, gull blir liggende (retensjon). Berggrunn: Gabbro (92 % gunstig oppstrøms).",
"s2_anomali": 4.0,
"s2_feox_z": 5.95,
"satsjekk": "Automatisk bildeanalyse: dypt/mørkt vann, tett vegetasjon – elva delvis skjult."
}
},
{
"type": "Feature",
"geometry": {
"type": "Point",
"coordinates": [
12.77261,
64.53377
]
},
"properties": {
"elv": "Nesåa",
"km": 8.3,
"z": 228.29,
"S": 0.03,
"Q": 33.06,
"w": 38.35,
"w_q": 17.25,
"h": 0.43,
"tau": 111.22,
"tau_c": 118.8,
"omega": 224.97,
"M": 0.94,
"D": 0.11,
"R": 0.73,
"sving": 0.07,
"os": 0.16,
"os_navn": "sideelv",
"foss": 1.0,
"foss_drop": 4.57,
"juv": 0.0,
"B": 0.89,
"frac_fav": 0.7,
"d_gull_km": 7.11,
"berg": "Granodioritt | Granodioritt, kvartsdioritt, tonalitt og trondhjemitt | Øvre kaledonske dekkeserie",
"p_raw": 0.34,
"A_km2": 183.68,
"gate": 1.0,
"P": 72.19,
"rank": 14,
"klasse": "B",
"d_vei_m": 744,
"vei_navn": "Nesådalsvegen",
"d_sti_m": 2542,
"d_parkering_m": 4187,
"adkomst": "Gange 0.7 km fra nærmeste bilvei.",
"navn": "Solemsmosetran (Nesåa)",
"hvorfor": "Foss/stryk rett oppstrøms (5 m fall på 100 m) – fossekulp og fjell i dagen. τ = 111 Pa ≈ 0.9× terskelen: sand og grus flyttes ved flom, gull blir liggende (retensjon). Berggrunn: Granodioritt (70 % gunstig oppstrøms). NGU-registrert gullforekomst 7.1 km unna.",
"s2_anomali": 4.0,
"s2_feox_z": 5.39,
"satsjekk": "Automatisk bildeanalyse: grus/sandbanke synlig."
}
},
{
"type": "Feature",
"geometry": {
"type": "Point",
"coordinates": [
12.76595,
64.4616
]
},
"properties": {
"elv": "Sanddøla - Sovvene",
"km": 14.2,
"z": 167.78,
"S": 0.0,
"Q": 142.86,
"w": 66.0,
"w_q": 35.86,
"h": 1.39,
"tau": 45.46,
"tau_c": 42.03,
"omega": 70.7,
"M": 1.08,
"D": -0.0,
"R": 0.86,
"sving": 0.29,
"os": 0.82,
"os_navn": "Toremobekken",
"foss": 0.0,
"foss_drop": 0.0,
"juv": 0.03,
"B": 0.89,
"frac_fav": 0.45,
"d_gull_km": 3.84,
"berg": "Granittisk gneis | Migmatittgneis, uinndelt. Granittisk til granodiorittisk sammensetning | Nær stedeget grunnfjell",
"p_raw": 0.34,
"A_km2": 793.65,
"gate": 1.0,
"P": 72.08,
"rank": 15,
"klasse": "B",
"d_vei_m": 77,
"vei_navn": "Sanddøldalsvegen",
"d_sti_m": 3280,
"d_parkering_m": 1882,
"adkomst": "Lett: bilvei 77 m unna (Sanddøldalsvegen).",
"navn": "Mikalplassen (Sanddøla - Sovvene)",
"hvorfor": "Os: Toremobekken kommer inn her – grus og tyngre materiale legges i osen og bankehodet nedenfor. τ = 45 Pa ≈ 1.1× terskelen: sand og grus flyttes ved flom, gull blir liggende (retensjon). Berggrunn: Granittisk gneis (45 % gunstig oppstrøms). NGU-registrert gullforekomst 3.8 km unna.",
"s2_anomali": 3.8,
"s2_feox_z": 1.69,
"satsjekk": "Automatisk bildeanalyse: ingen tydelige trekk."
}
},
{
"type": "Feature",
"geometry": {
"type": "Point",
"coordinates": [
12.81506,
64.54945
]
},
"properties": {
"elv": "Nesåa",
"km": 5.2,
"z": 281.26,
"S": 0.02,
"Q": 28.16,
"w": 47.8,
"w_q": 15.92,
"h": 0.38,
"tau": 67.22,
"tau_c": 97.77,
"omega": 104.15,
"M": 0.69,
"D": 0.02,
"R": 0.43,
"sving": 0.17,
"os": 0.96,
"os_navn": "sideelv",
"foss": 0.72,
"foss_drop": 3.58,
"juv": 0.0,
"B": 0.85,
"frac_fav": 0.7,
"d_gull_km": 9.69,
"berg": "Granodioritt | Granodioritt, kvartsdioritt, tonalitt og trondhjemitt | Øvre kaledonske dekkeserie",
"p_raw": 0.33,
"A_km2": 156.46,
"gate": 1.0,
"P": 69.37,
"rank": 16,
"klasse": "B",
"d_vei_m": 3389,
"vei_navn": "Nesådalsvegen",
"d_sti_m": 5073,
"d_parkering_m": 6515,
"adkomst": "Avsides: 3.4 km fra bilvei – planlegg dagstur.",
"navn": "Nesåa, km 5.2",
"hvorfor": "Foss/stryk rett oppstrøms (4 m fall på 100 m) – fossekulp og fjell i dagen. Os: sideelv kommer inn her – grus og tyngre materiale legges i osen og bankehodet nedenfor. Berggrunn: Granodioritt (70 % gunstig oppstrøms).",
"s2_anomali": 3.56,
"s2_feox_z": 3.08,
"satsjekk": "Automatisk bildeanalyse: ingen tydelige trekk."
}
},
{
"type": "Feature",
"geometry": {
"type": "Point",
"coordinates": [
12.82192,
64.46548
]
},
"properties": {
"elv": "Sanddøla - Sovvene",
"km": 11.4,
"z": 174.16,
"S": 0.0,
"Q": 137.05,
"w": 60.0,
"w_q": 35.12,
"h": 1.46,
"tau": 45.78,
"tau_c": 41.2,
"omega": 71.7,
"M": 1.11,
"D": 0.03,
"R": 0.88,
"sving": 0.27,
"os": 0.77,
"os_navn": "Hansmobekken",
"foss": 0.0,
"foss_drop": 0.0,
"juv": 0.03,
"B": 0.85,
"frac_fav": 0.45,
"d_gull_km": 6.2,
"berg": "Granittisk gneis | Migmatittgneis, uinndelt. Granittisk til granodiorittisk sammensetning | Nær stedeget grunnfjell",
"p_raw": 0.33,
"A_km2": 761.37,
"gate": 1.0,
"P": 69.13,
"rank": 17,
"klasse": "B",
"d_vei_m": 105,
"vei_navn": "Sanddøldalsvegen",
"d_sti_m": 656,
"d_parkering_m": 4609,
"adkomst": "Lett: bilvei 105 m unna (Sanddøldalsvegen).",
"navn": "Gammel Hansmoen (Sanddøla - Sovvene)",
"hvorfor": "Os: Hansmobekken kommer inn her – grus og tyngre materiale legges i osen og bankehodet nedenfor. τ = 46 Pa ≈ 1.1× terskelen: sand og grus flyttes ved flom, gull blir liggende (retensjon). Berggrunn: Granittisk gneis (45 % gunstig oppstrøms). NGU-registrert gullforekomst 6.2 km unna.",
"s2_anomali": 4.0,
"s2_feox_z": -0.05,
"satsjekk": "Automatisk bildeanalyse: dypt/mørkt vann."
}
},
{
"type": "Feature",
"geometry": {
"type": "Point",
"coordinates": [
12.88837,
64.39851
]
},
"properties": {
"elv": "bekk",
"km": 2.1,
"z": 366.18,
"S": 0.08,
"Q": 24.18,
"w": 28.95,
"w_q": 14.75,
"h": 0.3,
"tau": 229.27,
"tau_c": 201.98,
"omega": 629.89,
"M": 1.14,
"D": 0.0,
"R": 0.9,
"sving": 0.73,
"os": 0.06,
"os_navn": "sideelv",
"foss": 1.0,
"foss_drop": 15.05,
"juv": 0.0,
"B": 0.66,
"frac_fav": 0.4,
"d_gull_km": 12.02,
"berg": "Ryodacitt | Ryodacitt, porfyrisk til finkornet (leptitt). Delvis sterkt forskifret | Nær stedeget grunnfjell",
"p_raw": 0.32,
"A_km2": 134.32,
"gate": 1.0,
"P": 67.88,
"rank": 18,
"klasse": "B",
"d_vei_m": 6626,
"vei_navn": "Lurudalsvegen",
"d_sti_m": 8273,
"d_parkering_m": 10303,
"adkomst": "Avsides: 6.6 km fra bilvei – planlegg dagstur.",
"navn": "bekk, km 2.1",
"hvorfor": "Foss/stryk rett oppstrøms (15 m fall på 100 m) – fossekulp og fjell i dagen. Skarp sving – grav på innersvingen og bak store steiner. τ = 229 Pa ≈ 1.1× terskelen: sand og grus flyttes ved flom, gull blir liggende (retensjon). Berggrunn: Ryodacitt (40 % gunstig oppstrøms).",
"s2_anomali": 4.0,
"s2_feox_z": 5.91,
"satsjekk": "Automatisk bildeanalyse: ingen tydelige trekk."
}
},
{
"type": "Feature",
"geometry": {
"type": "Point",
"coordinates": [
12.87152,
64.46796
]
},
"properties": {
"elv": "Sanddøla - Sovvene",
"km": 8.9,
"z": 185.71,
"S": 0.0,
"Q": 135.08,
"w": 48.0,
"w_q": 34.87,
"h": 1.76,
"tau": 46.0,
"tau_c": 37.56,
"omega": 73.39,
"M": 1.22,
"D": -0.0,
"R": 0.94,
"sving": 0.14,
"os": 0.8,
"os_navn": "Tverrelva",
"foss": 0.0,
"foss_drop": 0.0,
"juv": 0.0,
"B": 0.83,
"frac_fav": 0.45,
"d_gull_km": 8.32,
"berg": "Granittisk gneis | Migmatittgneis, uinndelt. Granittisk til granodiorittisk sammensetning | Nær stedeget grunnfjell",
"p_raw": 0.31,
"A_km2": 750.45,
"gate": 1.0,
"P": 65.94,
"rank": 19,
"klasse": "B",
"d_vei_m": 56,
"vei_navn": "Sanddøldalsvegen",
"d_sti_m": 978,
"d_parkering_m": 7010,
"adkomst": "Lett: bilvei 56 m unna (Sanddøldalsvegen).",
"navn": "Sanddøla - Sovvene, km 8.9",
"hvorfor": "Os: Tverrelva kommer inn her – grus og tyngre materiale legges i osen og bankehodet nedenfor. τ = 46 Pa ≈ 1.2× terskelen: sand og grus flyttes ved flom, gull blir liggende (retensjon). Berggrunn: Granittisk gneis (45 % gunstig oppstrøms).",
"s2_anomali": 4.0,
"s2_feox_z": 0.28,
"satsjekk": "Automatisk bildeanalyse: tett vegetasjon – elva delvis skjult."
}
},
{
"type": "Feature",
"geometry": {
"type": "Point",
"coordinates": [
12.63486,
64.45152
]
},
"properties": {
"elv": "Sanddøla - Sovvene",
"km": 20.9,
"z": 150.45,
"S": 0.0,
"Q": 146.79,
"w": 70.0,
"w_q": 36.35,
"h": 1.43,
"tau": 40.3,
"tau_c": 39.1,
"omega": 59.29,
"M": 1.03,
"D": 0.0,
"R": 0.82,
"sving": 0.27,
"os": 0.72,
"os_navn": "sideelv",
"foss": 0.0,
"foss_drop": 0.0,
"juv": 0.0,
"B": 0.89,
"frac_fav": 0.45,
"d_gull_km": 4.28,
"berg": "Granittisk gneis | Migmatittgneis, uinndelt. Granittisk til granodiorittisk sammensetning | Nær stedeget grunnfjell",
"p_raw": 0.31,
"A_km2": 815.53,
"gate": 1.0,
"P": 65.79,
"rank": 20,
"klasse": "B",
"d_vei_m": 218,
"vei_navn": "Sanddøldalsvegen",
"d_sti_m": 5631,
"d_parkering_m": 3379,
"adkomst": "Kort gange: bilvei 218 m unna.",
"navn": "Brenna (Sanddøla - Sovvene)",
"hvorfor": "Os: sideelv kommer inn her – grus og tyngre materiale legges i osen og bankehodet nedenfor. τ = 40 Pa ≈ 1.0× terskelen: sand og grus flyttes ved flom, gull blir liggende (retensjon). Berggrunn: Granittisk gneis (45 % gunstig oppstrøms). NGU-registrert gullforekomst 4.3 km unna.",
"s2_anomali": 4.0,
"s2_feox_z": 2.74,
"satsjekk": "Automatisk bildeanalyse: dypt/mørkt vann."
}
}
]
}