{"type": "FeatureCollection", "features": [{"type": "Feature", "geometry": {"type": "Point", "coordinates": [12.69691, 64.47899]}, "properties": {"type": "gull", "okey": "10313", "name": "Storliseter", "objtype": "MalmRegistrering", "websub_ntext": "Gull", "sted_verif": "Y", "faktaark": "https://aps.ngu.no/pls/oradb/minres_deposit_fakta.Main?p_objid=10313&p_spraak=N", "s2_oh_z": null, "s2_feox_z": null}}, {"type": "Feature", "geometry": {"type": "Point", "coordinates": [12.92703, 64.47963]}, "properties": {"type": "basemetall", "s2_oh_z": 2.17, "s2_feox_z": 1.81}}, {"type": "Feature", "geometry": {"type": "Point", "coordinates": [12.58997, 64.46435]}, "properties": {"type": "basemetall", "s2_oh_z": null, "s2_feox_z": null}}, {"type": "Feature", "geometry": {"type": "Point", "coordinates": [12.60669, 64.47971]}, "properties": {"type": "basemetall", "s2_oh_z": null, "s2_feox_z": null}}, {"type": "Feature", "geometry": {"type": "Point", "coordinates": [12.7833, 64.47098]}, "properties": {"type": "basemetall", "s2_oh_z": null, "s2_feox_z": null}}, {"type": "Feature", "geometry": {"type": "Point", "coordinates": [13.01667, 64.52063]}, "properties": {"type": "basemetall", "s2_oh_z": 1.8, "s2_feox_z": 2.31}}, {"type": "Feature", "geometry": {"type": "Point", "coordinates": [12.76503, 64.49351]}, "properties": {"type": "basemetall", "s2_oh_z": 2.36, "s2_feox_z": 4.19}}, {"type": "Feature", "geometry": {"type": "Point", "coordinates": [12.65573, 64.46891]}, "properties": {"type": "basemetall", "s2_oh_z": null, "s2_feox_z": null}}, {"type": "Feature", "geometry": {"type": "Point", "coordinates": [12.94934, 64.48187]}, "properties": {"type": "basemetall", "s2_oh_z": 3.28, "s2_feox_z": 1.64}}, {"type": "Feature", "geometry": {"type": "Point", "coordinates": [12.60853, 64.46142]}, "properties": {"type": "basemetall", "s2_oh_z": 5.7, "s2_feox_z": -2.05}}, {"type": "Feature", "geometry": {"type": "Point", "coordinates": [12.54434, 64.45471]}, "properties": {"type": "basemetall", "s2_oh_z": null, "s2_feox_z": null}}, {"type": "Feature", "geometry": {"type": "Point", "coordinates": [13.01142, 64.50535]}, "properties": {"type": "basemetall", "s2_oh_z": 2.06, "s2_feox_z": 3.79}}, {"type": "Feature", "geometry": {"type": "Point", "coordinates": [12.61768, 64.49501]}, "properties": {"type": "basemetall", "s2_oh_z": null, "s2_feox_z": null}}, {"type": "Feature", "geometry": {"type": "Point", "coordinates": [12.73929, 64.47736]}, "properties": {"type": "basemetall", "s2_oh_z": null, "s2_feox_z": null}}, {"type": "Feature", "geometry": {"type": "Point", "coordinates": [12.59292, 64.48056]}, "properties": {"type": "basemetall", "s2_oh_z": null, "s2_feox_z": null}}]}