<?xml version="1.0" encoding="UTF-8"?>
<gpx version="1.1" creator="gulloye" xmlns="http://www.topografix.com/GPX/1/1">
  <wpt lat="64.47279" lon="12.98223"><name>1 A – Bergfossen (Sanddøla - Sovvene)</name><desc>Foss/stryk rett oppstrøms (5 m fall på 100 m) – fossekulp og fjell i dagen. Os: Langtjønnelva kommer inn her – grus og tyngre materiale legges i osen og bankehodet nedenfor. τ = 118 Pa ≈ 1.5× terskelen: sand og grus flyttes ved flom, gull blir liggende (retensjon). Berggrunn: Granittisk gneis (45 % gunstig oppstrøms). NGU-registrert gullforekomst 3.1 km unna.</desc></wpt>
  <wpt lat="64.46940" lon="12.88702"><name>2 A – Bergmoen (Fremsttjønnbekken)</name><desc>Foss/stryk rett oppstrøms (56 m fall på 100 m) – fossekulp og fjell i dagen. Skarp sving – grav på innersvingen og bak store steiner. τ = 998 Pa ≈ 2.7× terskelen: sand og grus flyttes ved flom, gull blir liggende (retensjon). Berggrunn: Grønnstein (100 % gunstig oppstrøms). NGU-registrert gullforekomst 7.6 km unna.</desc></wpt>
  <wpt lat="64.56019" lon="12.61086"><name>3 A – Iskvennfossan (Nesåa)</name><desc>Foss/stryk rett oppstrøms (7 m fall på 100 m) – fossekulp og fjell i dagen. Os: Storbekken kommer inn her – grus og tyngre materiale legges i osen og bankehodet nedenfor. τ = 144 Pa ≈ 1.2× terskelen: sand og grus flyttes ved flom, gull blir liggende (retensjon). Berggrunn: Granodioritt (70 % gunstig oppstrøms).</desc></wpt>
  <wpt lat="64.54662" lon="12.67915"><name>4 A – Mortenfossan (Nesåa)</name><desc>Foss/stryk rett oppstrøms (12 m fall på 100 m) – fossekulp og fjell i dagen. τ = 284 Pa ≈ 1.5× terskelen: sand og grus flyttes ved flom, gull blir liggende (retensjon). Berggrunn: Granodioritt (70 % gunstig oppstrøms). NGU-registrert gullforekomst 7.6 km unna.</desc></wpt>
  <wpt lat="64.47812" lon="13.00736"><name>5 A – Sanddøla - Sovvene, km 1.7</name><desc>Os: sideelv kommer inn her – grus og tyngre materiale legges i osen og bankehodet nedenfor. τ = 72 Pa ≈ 1.4× terskelen: sand og grus flyttes ved flom, gull blir liggende (retensjon). Berggrunn: Granittisk gneis (45 % gunstig oppstrøms). NGU-registrert gullforekomst 1.7 km unna.</desc></wpt>
  <wpt lat="64.55124" lon="12.66019"><name>6 A – Gressbekkmoen (Olabekken)</name><desc>Foss/stryk rett oppstrøms (3 m fall på 100 m) – fossekulp og fjell i dagen. Skarp sving – grav på innersvingen og bak store steiner. τ = 106 Pa ≈ 0.9× terskelen: sand og grus flyttes ved flom, gull blir liggende (retensjon). Berggrunn: Gabbro (74 % gunstig oppstrøms).</desc></wpt>
  <wpt lat="64.48129" lon="12.51563"><name>7 A – Litlmyra (bekk)</name><desc>Foss/stryk rett oppstrøms (7 m fall på 100 m) – fossekulp og fjell i dagen. Os: sideelv kommer inn her – grus og tyngre materiale legges i osen og bankehodet nedenfor. τ = 144 Pa ≈ 0.9× terskelen: sand og grus flyttes ved flom, gull blir liggende (retensjon). Berggrunn: Gabbro (83 % gunstig oppstrøms).</desc></wpt>
  <wpt lat="64.56580" lon="12.56119"><name>8 A – Grønstrandfossan (Nesåa)</name><desc>Bratt stryk like oppstrøms – kulper og fjellsprekker. Os: Urdalsbekken kommer inn her – grus og tyngre materiale legges i osen og bankehodet nedenfor. τ = 97 Pa ≈ 1.0× terskelen: sand og grus flyttes ved flom, gull blir liggende (retensjon). Berggrunn: Granodioritt (70 % gunstig oppstrøms).</desc></wpt>
  <wpt lat="64.38614" lon="12.51587"><name>9 A – Blautdalfossen (Medalåa)</name><desc>Bratt stryk like oppstrøms – kulper og fjellsprekker. Skarp sving – grav på innersvingen og bak store steiner. τ = 134 Pa ≈ 1.5× terskelen: sand og grus flyttes ved flom, gull blir liggende (retensjon). Berggrunn: Granittisk gneis (45 % gunstig oppstrøms).</desc></wpt>
  <wpt lat="64.45682" lon="12.69949"><name>10 B – Nyneset (Sanddøla - Sovvene)</name><desc>Os: sideelv kommer inn her – grus og tyngre materiale legges i osen og bankehodet nedenfor. τ = 52 Pa ≈ 1.3× terskelen: sand og grus flyttes ved flom, gull blir liggende (retensjon). Berggrunn: Granittisk gneis (45 % gunstig oppstrøms). NGU-registrert gullforekomst 2.5 km unna.</desc></wpt>
  <wpt lat="64.45972" lon="12.72393"><name>11 B – Sanddøla - Sovvene, km 16.3</name><desc>Os: Børbekken kommer inn her – grus og tyngre materiale legges i osen og bankehodet nedenfor. τ = 64 Pa ≈ 1.5× terskelen: sand og grus flyttes ved flom, gull blir liggende (retensjon). Berggrunn: Granittisk gneis (45 % gunstig oppstrøms). NGU-registrert gullforekomst 2.5 km unna.</desc></wpt>
  <wpt lat="64.58074" lon="12.85976"><name>12 B – Nesåa, km 0.2</name><desc>Foss/stryk rett oppstrøms (17 m fall på 100 m) – fossekulp og fjell i dagen. τ = 186 Pa ≈ 0.9× terskelen: sand og grus flyttes ved flom, gull blir liggende (retensjon). Berggrunn: Granodioritt (70 % gunstig oppstrøms).</desc></wpt>
  <wpt lat="64.56716" lon="12.58506"><name>13 B – Myrvang (Hyllbekkåa)</name><desc>Foss/stryk rett oppstrøms (4 m fall på 100 m) – fossekulp og fjell i dagen. τ = 93 Pa ≈ 1.0× terskelen: sand og grus flyttes ved flom, gull blir liggende (retensjon). Berggrunn: Gabbro (92 % gunstig oppstrøms).</desc></wpt>
  <wpt lat="64.53377" lon="12.77261"><name>14 B – Solemsmosetran (Nesåa)</name><desc>Foss/stryk rett oppstrøms (5 m fall på 100 m) – fossekulp og fjell i dagen. τ = 111 Pa ≈ 0.9× terskelen: sand og grus flyttes ved flom, gull blir liggende (retensjon). Berggrunn: Granodioritt (70 % gunstig oppstrøms). NGU-registrert gullforekomst 7.1 km unna.</desc></wpt>
  <wpt lat="64.46160" lon="12.76595"><name>15 B – Mikalplassen (Sanddøla - Sovvene)</name><desc>Os: Toremobekken kommer inn her – grus og tyngre materiale legges i osen og bankehodet nedenfor. τ = 45 Pa ≈ 1.1× terskelen: sand og grus flyttes ved flom, gull blir liggende (retensjon). Berggrunn: Granittisk gneis (45 % gunstig oppstrøms). NGU-registrert gullforekomst 3.8 km unna.</desc></wpt>
  <wpt lat="64.54945" lon="12.81506"><name>16 B – Nesåa, km 5.2</name><desc>Foss/stryk rett oppstrøms (4 m fall på 100 m) – fossekulp og fjell i dagen. Os: sideelv kommer inn her – grus og tyngre materiale legges i osen og bankehodet nedenfor. Berggrunn: Granodioritt (70 % gunstig oppstrøms).</desc></wpt>
  <wpt lat="64.46548" lon="12.82192"><name>17 B – Gammel Hansmoen (Sanddøla - Sovvene)</name><desc>Os: Hansmobekken kommer inn her – grus og tyngre materiale legges i osen og bankehodet nedenfor. τ = 46 Pa ≈ 1.1× terskelen: sand og grus flyttes ved flom, gull blir liggende (retensjon). Berggrunn: Granittisk gneis (45 % gunstig oppstrøms). NGU-registrert gullforekomst 6.2 km unna.</desc></wpt>
  <wpt lat="64.39851" lon="12.88837"><name>18 B – bekk, km 2.1</name><desc>Foss/stryk rett oppstrøms (15 m fall på 100 m) – fossekulp og fjell i dagen. Skarp sving – grav på innersvingen og bak store steiner. τ = 229 Pa ≈ 1.1× terskelen: sand og grus flyttes ved flom, gull blir liggende (retensjon). Berggrunn: Ryodacitt (40 % gunstig oppstrøms).</desc></wpt>
  <wpt lat="64.46796" lon="12.87152"><name>19 B – Sanddøla - Sovvene, km 8.9</name><desc>Os: Tverrelva kommer inn her – grus og tyngre materiale legges i osen og bankehodet nedenfor. τ = 46 Pa ≈ 1.2× terskelen: sand og grus flyttes ved flom, gull blir liggende (retensjon). Berggrunn: Granittisk gneis (45 % gunstig oppstrøms).</desc></wpt>
  <wpt lat="64.45152" lon="12.63486"><name>20 B – Brenna (Sanddøla - Sovvene)</name><desc>Os: sideelv kommer inn her – grus og tyngre materiale legges i osen og bankehodet nedenfor. τ = 40 Pa ≈ 1.0× terskelen: sand og grus flyttes ved flom, gull blir liggende (retensjon). Berggrunn: Granittisk gneis (45 % gunstig oppstrøms). NGU-registrert gullforekomst 4.3 km unna.</desc></wpt>
</gpx>