<?xml version="1.0" encoding="UTF-8"?>
<kml xmlns="http://www.opengis.net/kml/2.2"><Document>
<name>GULLØYE – Berg</name>
<Style id="kA"><IconStyle><color>ff2b39c0</color><scale>1.1</scale></IconStyle></Style>
<Style id="kB"><IconStyle><color>ff227ee6</color><scale>1.1</scale></IconStyle></Style>
<Style id="kC"><IconStyle><color>ff0fc4f1</color><scale>1.1</scale></IconStyle></Style>
<Placemark><name>1A Bergfossen (Sanddøla - Sovvene)</name><styleUrl>#kA</styleUrl><description>P=100. Foss/stryk rett oppstrøms (5 m fall på 100 m) – fossekulp og fjell i dagen. Os: Langtjønnelva kommer inn her – grus og tyngre materiale legges i osen og bankehodet nedenfor. τ = 118 Pa ≈ 1.5× terskelen: sand og grus flyttes ved flom, gull blir liggende (retensjon). Berggrunn: Granittisk gneis (45 % gunstig oppstrøms). NGU-registrert gullforekomst 3.1 km unna. Lett: bilvei 115 m unna (Sanddøldalsvegen).</description><Point><coordinates>12.98223,64.47279,0</coordinates></Point></Placemark>
<Placemark><name>2A Bergmoen (Fremsttjønnbekken)</name><styleUrl>#kA</styleUrl><description>P=99. Foss/stryk rett oppstrøms (56 m fall på 100 m) – fossekulp og fjell i dagen. Skarp sving – grav på innersvingen og bak store steiner. τ = 998 Pa ≈ 2.7× terskelen: sand og grus flyttes ved flom, gull blir liggende (retensjon). Berggrunn: Grønnstein (100 % gunstig oppstrøms). NGU-registrert gullforekomst 7.6 km unna. Kort gange: bilvei 156 m unna.</description><Point><coordinates>12.88702,64.46940,0</coordinates></Point></Placemark>
<Placemark><name>3A Iskvennfossan (Nesåa)</name><styleUrl>#kA</styleUrl><description>P=96. Foss/stryk rett oppstrøms (7 m fall på 100 m) – fossekulp og fjell i dagen. Os: Storbekken kommer inn her – grus og tyngre materiale legges i osen og bankehodet nedenfor. τ = 144 Pa ≈ 1.2× terskelen: sand og grus flyttes ved flom, gull blir liggende (retensjon). Berggrunn: Granodioritt (70 % gunstig oppstrøms). Lett: bilvei 51 m unna (service).</description><Point><coordinates>12.61086,64.56019,0</coordinates></Point></Placemark>
<Placemark><name>4A Mortenfossan (Nesåa)</name><styleUrl>#kA</styleUrl><description>P=89. Foss/stryk rett oppstrøms (12 m fall på 100 m) – fossekulp og fjell i dagen. τ = 284 Pa ≈ 1.5× terskelen: sand og grus flyttes ved flom, gull blir liggende (retensjon). Berggrunn: Granodioritt (70 % gunstig oppstrøms). NGU-registrert gullforekomst 7.6 km unna. Gange 0.6 km fra nærmeste bilvei.</description><Point><coordinates>12.67915,64.54662,0</coordinates></Point></Placemark>
<Placemark><name>5A Sanddøla - Sovvene, km 1.7</name><styleUrl>#kA</styleUrl><description>P=85. Os: sideelv kommer inn her – grus og tyngre materiale legges i osen og bankehodet nedenfor. τ = 72 Pa ≈ 1.4× terskelen: sand og grus flyttes ved flom, gull blir liggende (retensjon). Berggrunn: Granittisk gneis (45 % gunstig oppstrøms). NGU-registrert gullforekomst 1.7 km unna. Kort gange: bilvei 226 m unna.</description><Point><coordinates>13.00736,64.47812,0</coordinates></Point></Placemark>
<Placemark><name>6A Gressbekkmoen (Olabekken)</name><styleUrl>#kA</styleUrl><description>P=85. Foss/stryk rett oppstrøms (3 m fall på 100 m) – fossekulp og fjell i dagen. Skarp sving – grav på innersvingen og bak store steiner. τ = 106 Pa ≈ 0.9× terskelen: sand og grus flyttes ved flom, gull blir liggende (retensjon). Berggrunn: Gabbro (74 % gunstig oppstrøms). Lett: bilvei 145 m unna (service).</description><Point><coordinates>12.66019,64.55124,0</coordinates></Point></Placemark>
<Placemark><name>7A Litlmyra (bekk)</name><styleUrl>#kA</styleUrl><description>P=84. Foss/stryk rett oppstrøms (7 m fall på 100 m) – fossekulp og fjell i dagen. Os: sideelv kommer inn her – grus og tyngre materiale legges i osen og bankehodet nedenfor. τ = 144 Pa ≈ 0.9× terskelen: sand og grus flyttes ved flom, gull blir liggende (retensjon). Berggrunn: Gabbro (83 % gunstig oppstrøms). Kort gange: bilvei 475 m unna.</description><Point><coordinates>12.51563,64.48129,0</coordinates></Point></Placemark>
<Placemark><name>8A Grønstrandfossan (Nesåa)</name><styleUrl>#kA</styleUrl><description>P=82. Bratt stryk like oppstrøms – kulper og fjellsprekker. Os: Urdalsbekken kommer inn her – grus og tyngre materiale legges i osen og bankehodet nedenfor. τ = 97 Pa ≈ 1.0× terskelen: sand og grus flyttes ved flom, gull blir liggende (retensjon). Berggrunn: Granodioritt (70 % gunstig oppstrøms). Lett: bilvei 64 m unna (service).</description><Point><coordinates>12.56119,64.56580,0</coordinates></Point></Placemark>
<Placemark><name>9A Blautdalfossen (Medalåa)</name><styleUrl>#kA</styleUrl><description>P=80. Bratt stryk like oppstrøms – kulper og fjellsprekker. Skarp sving – grav på innersvingen og bak store steiner. τ = 134 Pa ≈ 1.5× terskelen: sand og grus flyttes ved flom, gull blir liggende (retensjon). Berggrunn: Granittisk gneis (45 % gunstig oppstrøms). Gange 0.9 km fra nærmeste bilvei.</description><Point><coordinates>12.51587,64.38614,0</coordinates></Point></Placemark>
<Placemark><name>10B Nyneset (Sanddøla - Sovvene)</name><styleUrl>#kB</styleUrl><description>P=78. Os: sideelv kommer inn her – grus og tyngre materiale legges i osen og bankehodet nedenfor. τ = 52 Pa ≈ 1.3× terskelen: sand og grus flyttes ved flom, gull blir liggende (retensjon). Berggrunn: Granittisk gneis (45 % gunstig oppstrøms). NGU-registrert gullforekomst 2.5 km unna. Lett: bilvei 54 m unna (track). Parkering 225 m unna.</description><Point><coordinates>12.69949,64.45682,0</coordinates></Point></Placemark>
<Placemark><name>11B Sanddøla - Sovvene, km 16.3</name><styleUrl>#kB</styleUrl><description>P=75. Os: Børbekken kommer inn her – grus og tyngre materiale legges i osen og bankehodet nedenfor. τ = 64 Pa ≈ 1.5× terskelen: sand og grus flyttes ved flom, gull blir liggende (retensjon). Berggrunn: Granittisk gneis (45 % gunstig oppstrøms). NGU-registrert gullforekomst 2.5 km unna. Lett: bilvei 63 m unna (Sanddøldalsvegen). Parkering 165 m unna.</description><Point><coordinates>12.72393,64.45972,0</coordinates></Point></Placemark>
<Placemark><name>12B Nesåa, km 0.2</name><styleUrl>#kB</styleUrl><description>P=74. Foss/stryk rett oppstrøms (17 m fall på 100 m) – fossekulp og fjell i dagen. τ = 186 Pa ≈ 0.9× terskelen: sand og grus flyttes ved flom, gull blir liggende (retensjon). Berggrunn: Granodioritt (70 % gunstig oppstrøms). Avsides: 6.3 km fra bilvei – planlegg dagstur.</description><Point><coordinates>12.85976,64.58074,0</coordinates></Point></Placemark>
<Placemark><name>13B Myrvang (Hyllbekkåa)</name><styleUrl>#kB</styleUrl><description>P=74. Foss/stryk rett oppstrøms (4 m fall på 100 m) – fossekulp og fjell i dagen. τ = 93 Pa ≈ 1.0× terskelen: sand og grus flyttes ved flom, gull blir liggende (retensjon). Berggrunn: Gabbro (92 % gunstig oppstrøms). Kort gange: bilvei 233 m unna.</description><Point><coordinates>12.58506,64.56716,0</coordinates></Point></Placemark>
<Placemark><name>14B Solemsmosetran (Nesåa)</name><styleUrl>#kB</styleUrl><description>P=72. Foss/stryk rett oppstrøms (5 m fall på 100 m) – fossekulp og fjell i dagen. τ = 111 Pa ≈ 0.9× terskelen: sand og grus flyttes ved flom, gull blir liggende (retensjon). Berggrunn: Granodioritt (70 % gunstig oppstrøms). NGU-registrert gullforekomst 7.1 km unna. Gange 0.7 km fra nærmeste bilvei.</description><Point><coordinates>12.77261,64.53377,0</coordinates></Point></Placemark>
<Placemark><name>15B Mikalplassen (Sanddøla - Sovvene)</name><styleUrl>#kB</styleUrl><description>P=72. Os: Toremobekken kommer inn her – grus og tyngre materiale legges i osen og bankehodet nedenfor. τ = 45 Pa ≈ 1.1× terskelen: sand og grus flyttes ved flom, gull blir liggende (retensjon). Berggrunn: Granittisk gneis (45 % gunstig oppstrøms). NGU-registrert gullforekomst 3.8 km unna. Lett: bilvei 77 m unna (Sanddøldalsvegen).</description><Point><coordinates>12.76595,64.46160,0</coordinates></Point></Placemark>
<Placemark><name>16B Nesåa, km 5.2</name><styleUrl>#kB</styleUrl><description>P=69. Foss/stryk rett oppstrøms (4 m fall på 100 m) – fossekulp og fjell i dagen. Os: sideelv kommer inn her – grus og tyngre materiale legges i osen og bankehodet nedenfor. Berggrunn: Granodioritt (70 % gunstig oppstrøms). Avsides: 3.4 km fra bilvei – planlegg dagstur.</description><Point><coordinates>12.81506,64.54945,0</coordinates></Point></Placemark>
<Placemark><name>17B Gammel Hansmoen (Sanddøla - Sovvene)</name><styleUrl>#kB</styleUrl><description>P=69. Os: Hansmobekken kommer inn her – grus og tyngre materiale legges i osen og bankehodet nedenfor. τ = 46 Pa ≈ 1.1× terskelen: sand og grus flyttes ved flom, gull blir liggende (retensjon). Berggrunn: Granittisk gneis (45 % gunstig oppstrøms). NGU-registrert gullforekomst 6.2 km unna. Lett: bilvei 105 m unna (Sanddøldalsvegen).</description><Point><coordinates>12.82192,64.46548,0</coordinates></Point></Placemark>
<Placemark><name>18B bekk, km 2.1</name><styleUrl>#kB</styleUrl><description>P=68. Foss/stryk rett oppstrøms (15 m fall på 100 m) – fossekulp og fjell i dagen. Skarp sving – grav på innersvingen og bak store steiner. τ = 229 Pa ≈ 1.1× terskelen: sand og grus flyttes ved flom, gull blir liggende (retensjon). Berggrunn: Ryodacitt (40 % gunstig oppstrøms). Avsides: 6.6 km fra bilvei – planlegg dagstur.</description><Point><coordinates>12.88837,64.39851,0</coordinates></Point></Placemark>
<Placemark><name>19B Sanddøla - Sovvene, km 8.9</name><styleUrl>#kB</styleUrl><description>P=66. Os: Tverrelva kommer inn her – grus og tyngre materiale legges i osen og bankehodet nedenfor. τ = 46 Pa ≈ 1.2× terskelen: sand og grus flyttes ved flom, gull blir liggende (retensjon). Berggrunn: Granittisk gneis (45 % gunstig oppstrøms). Lett: bilvei 56 m unna (Sanddøldalsvegen).</description><Point><coordinates>12.87152,64.46796,0</coordinates></Point></Placemark>
<Placemark><name>20B Brenna (Sanddøla - Sovvene)</name><styleUrl>#kB</styleUrl><description>P=66. Os: sideelv kommer inn her – grus og tyngre materiale legges i osen og bankehodet nedenfor. τ = 40 Pa ≈ 1.0× terskelen: sand og grus flyttes ved flom, gull blir liggende (retensjon). Berggrunn: Granittisk gneis (45 % gunstig oppstrøms). NGU-registrert gullforekomst 4.3 km unna. Kort gange: bilvei 218 m unna.</description><Point><coordinates>12.63486,64.45152,0</coordinates></Point></Placemark>
</Document></kml>