{
"type": "FeatureCollection",
"features": [
{
"type": "Feature",
"geometry": {
"type": "Point",
"coordinates": [
9.97353,
62.73902
]
},
"properties": {
"elv": "Orkla",
"km": 13.9,
"z": 340.65,
"S": 0.02,
"Q": 169.96,
"w": 44.0,
"w_q": 39.11,
"h": 1.22,
"tau": 200.55,
"tau_c": 94.32,
"omega": 635.36,
"M": 2.13,
"D": 0.02,
"R": 0.84,
"sving": 0.27,
"os": 0.87,
"os_navn": "Merrabekken",
"foss": 1.0,
"foss_drop": 3.21,
"juv": 0.05,
"B": 0.96,
"frac_fav": 0.62,
"d_gull_km": 236.34,
"berg": "Granatglimmerskifer | Glimmerskifer, amfibolitt, kalksilikatskifer, metasandstein, kalkspatmarmor og gneis | Midtre kaledonsk dekkeserie",
"p_raw": 0.52,
"A_km2": 1416.31,
"gate": 1.0,
"P": 100.0,
"rank": 1,
"klasse": "A",
"d_vei_m": 160,
"vei_navn": "Rennebuskogen",
"d_sti_m": 1070,
"d_parkering_m": 806,
"adkomst": "Kort gange: bilvei 160 m unna. Parkering 806 m unna.",
"navn": "Gullikstad (Orkla)",
"hvorfor": "Foss/stryk rett oppstrøms (3 m fall på 100 m) – fossekulp og fjell i dagen. Os: Merrabekken kommer inn her – grus og tyngre materiale legges i osen og bankehodet nedenfor. τ = 201 Pa ≈ 2.1× terskelen: sand og grus flyttes ved flom, gull blir liggende (retensjon). Berggrunn: Granatglimmerskifer (62 % gunstig oppstrøms).",
"s2_anomali": 3.47,
"s2_feox_z": 0.06,
"satsjekk": "Automatisk bildeanalyse: dypt/mørkt vann."
}
},
{
"type": "Feature",
"geometry": {
"type": "Point",
"coordinates": [
10.0102,
62.71977
]
},
"properties": {
"elv": "Orkla",
"km": 10.9,
"z": 381.71,
"S": 0.02,
"Q": 133.65,
"w": 34.0,
"w_q": 34.68,
"h": 1.18,
"tau": 227.08,
"tau_c": 101.91,
"omega": 754.89,
"M": 2.23,
"D": 0.17,
"R": 0.8,
"sving": 0.47,
"os": 0.82,
"os_navn": "sideelv",
"foss": 0.51,
"foss_drop": 3.82,
"juv": 0.22,
"B": 0.94,
"frac_fav": 0.62,
"d_gull_km": 237.11,
"berg": "Granatglimmerskifer | Glimmerskifer, amfibolitt, kalksilikatskifer, metasandstein, kalkspatmarmor og gneis | Midtre kaledonsk dekkeserie",
"p_raw": 0.5,
"A_km2": 1113.78,
"gate": 1.0,
"P": 95.74,
"rank": 2,
"klasse": "A",
"d_vei_m": 373,
"vei_navn": "service",
"d_sti_m": 339,
"d_parkering_m": 890,
"adkomst": "Kort gange: bilvei 373 m unna. Parkering 890 m unna.",
"navn": "Pålsmoen (Orkla)",
"hvorfor": "Foss/stryk rett oppstrøms (4 m fall på 100 m) – fossekulp og fjell i dagen. Os: sideelv kommer inn her – grus og tyngre materiale legges i osen og bankehodet nedenfor. τ = 227 Pa ≈ 2.2× terskelen: sand og grus flyttes ved flom, gull blir liggende (retensjon). Berggrunn: Granatglimmerskifer (62 % gunstig oppstrøms).",
"s2_anomali": 3.77,
"s2_feox_z": -0.61,
"satsjekk": "Automatisk bildeanalyse: dypt/mørkt vann."
}
},
{
"type": "Feature",
"geometry": {
"type": "Point",
"coordinates": [
10.09449,
62.70547
]
},
"properties": {
"elv": "Orkla",
"km": 5.9,
"z": 459.12,
"S": 0.01,
"Q": 104.35,
"w": 30.0,
"w_q": 30.65,
"h": 1.21,
"tau": 169.83,
"tau_c": 87.01,
"omega": 486.9,
"M": 1.95,
"D": 0.0,
"R": 0.91,
"sving": 0.06,
"os": 0.92,
"os_navn": "Gruvbekken",
"foss": 1.0,
"foss_drop": 4.11,
"juv": 0.08,
"B": 0.92,
"frac_fav": 0.62,
"d_gull_km": 236.13,
"berg": "Granatglimmerskifer | Glimmerskifer, amfibolitt, kalksilikatskifer, metasandstein, kalkspatmarmor og gneis | Midtre kaledonsk dekkeserie",
"p_raw": 0.49,
"A_km2": 869.59,
"gate": 1.0,
"P": 94.56,
"rank": 3,
"klasse": "A",
"d_vei_m": 112,
"vei_navn": "Østerdalsveien",
"d_sti_m": 1878,
"d_parkering_m": 1850,
"adkomst": "Lett: bilvei 112 m unna (Østerdalsveien).",
"navn": "Nyberget (Orkla)",
"hvorfor": "Foss/stryk rett oppstrøms (4 m fall på 100 m) – fossekulp og fjell i dagen. Os: Gruvbekken kommer inn her – grus og tyngre materiale legges i osen og bankehodet nedenfor. τ = 170 Pa ≈ 2.0× terskelen: sand og grus flyttes ved flom, gull blir liggende (retensjon). Berggrunn: Granatglimmerskifer (62 % gunstig oppstrøms).",
"s2_anomali": 4.0,
"s2_feox_z": 0.16,
"satsjekk": "Automatisk bildeanalyse: grus/sandbanke synlig, dypt/mørkt vann."
}
},
{
"type": "Feature",
"geometry": {
"type": "Point",
"coordinates": [
9.98714,
62.76163
]
},
"properties": {
"elv": "Orkla",
"km": 16.9,
"z": 286.87,
"S": 0.01,
"Q": 173.19,
"w": 36.0,
"w_q": 39.48,
"h": 1.58,
"tau": 176.7,
"tau_c": 77.75,
"omega": 537.74,
"M": 2.27,
"D": 0.2,
"R": 0.79,
"sving": 0.07,
"os": 0.66,
"os_navn": "sideelv",
"foss": 1.0,
"foss_drop": 3.85,
"juv": 0.15,
"B": 0.97,
"frac_fav": 0.62,
"d_gull_km": 233.86,
"berg": "Granatglimmerskifer | Glimmerskifer, amfibolitt, kalksilikatskifer, metasandstein, kalkspatmarmor og gneis | Midtre kaledonsk dekkeserie",
"p_raw": 0.49,
"A_km2": 1443.29,
"gate": 1.0,
"P": 94.49,
"rank": 4,
"klasse": "A",
"d_vei_m": 258,
"vei_navn": "service",
"d_sti_m": 964,
"d_parkering_m": 1803,
"adkomst": "Kort gange: bilvei 258 m unna.",
"navn": "Søndre Tosetbakken (Orkla)",
"hvorfor": "Foss/stryk rett oppstrøms (4 m fall på 100 m) – fossekulp og fjell i dagen. Os: sideelv kommer inn her – grus og tyngre materiale legges i osen og bankehodet nedenfor. τ = 177 Pa ≈ 2.3× terskelen: sand og grus flyttes ved flom, gull blir liggende (retensjon). Berggrunn: Granatglimmerskifer (62 % gunstig oppstrøms).",
"s2_anomali": 2.36,
"s2_feox_z": -0.59,
"satsjekk": "Automatisk bildeanalyse: dypt/mørkt vann."
}
},
{
"type": "Feature",
"geometry": {
"type": "Point",
"coordinates": [
9.99483,
62.79203
]
},
"properties": {
"elv": "Orkla",
"km": 20.6,
"z": 254.36,
"S": 0.01,
"Q": 175.26,
"w": 58.0,
"w_q": 39.72,
"h": 1.36,
"tau": 94.36,
"tau_c": 61.3,
"omega": 209.92,
"M": 1.54,
"D": -0.0,
"R": 1.0,
"sving": 0.15,
"os": 0.58,
"os_navn": "Langvella",
"foss": 1.0,
"foss_drop": 4.24,
"juv": 0.0,
"B": 0.97,
"frac_fav": 0.62,
"d_gull_km": 230.84,
"berg": "Granatglimmerskifer | Glimmerskifer, amfibolitt, kalksilikatskifer, metasandstein, kalkspatmarmor og gneis | Midtre kaledonsk dekkeserie",
"p_raw": 0.49,
"A_km2": 1460.51,
"gate": 1.0,
"P": 94.43,
"rank": 5,
"klasse": "A",
"d_vei_m": 412,
"vei_navn": "service",
"d_sti_m": 793,
"d_parkering_m": 3649,
"adkomst": "Kort gange: bilvei 412 m unna.",
"navn": "Nylenfossen (Orkla)",
"hvorfor": "Foss/stryk rett oppstrøms (4 m fall på 100 m) – fossekulp og fjell i dagen. Os: Langvella kommer inn her – grus og tyngre materiale legges i osen og bankehodet nedenfor. τ = 94 Pa ≈ 1.5× terskelen: sand og grus flyttes ved flom, gull blir liggende (retensjon). Berggrunn: Granatglimmerskifer (62 % gunstig oppstrøms).",
"s2_anomali": 4.0,
"s2_feox_z": -0.97,
"satsjekk": "Automatisk bildeanalyse: dypt/mørkt vann."
}
},
{
"type": "Feature",
"geometry": {
"type": "Point",
"coordinates": [
9.97733,
62.75284
]
},
"properties": {
"elv": "Orkla",
"km": 15.5,
"z": 305.98,
"S": 0.01,
"Q": 172.44,
"w": 56.0,
"w_q": 39.4,
"h": 1.32,
"tau": 105.11,
"tau_c": 65.67,
"omega": 245.53,
"M": 1.6,
"D": 0.56,
"R": 0.99,
"sving": 0.36,
"os": 0.12,
"os_navn": "Hevra",
"foss": 0.37,
"foss_drop": 4.88,
"juv": 0.05,
"B": 0.97,
"frac_fav": 0.62,
"d_gull_km": 234.96,
"berg": "Granatglimmerskifer | Glimmerskifer, amfibolitt, kalksilikatskifer, metasandstein, kalkspatmarmor og gneis | Midtre kaledonsk dekkeserie",
"p_raw": 0.48,
"A_km2": 1437.01,
"gate": 1.0,
"P": 91.34,
"rank": 6,
"klasse": "A",
"d_vei_m": 213,
"vei_navn": "track",
"d_sti_m": 863,
"d_parkering_m": 755,
"adkomst": "Kort gange: bilvei 213 m unna. Parkering 755 m unna.",
"navn": "Ulsberg (Orkla)",
"hvorfor": "Foss/stryk rett oppstrøms (5 m fall på 100 m) – fossekulp og fjell i dagen. Strømeffekten faller 56 % over strekningen – tungt materiale slipper her. τ = 105 Pa ≈ 1.6× terskelen: sand og grus flyttes ved flom, gull blir liggende (retensjon). Berggrunn: Granatglimmerskifer (62 % gunstig oppstrøms).",
"s2_anomali": 3.42,
"s2_feox_z": 0.85,
"satsjekk": "Automatisk bildeanalyse: dypt/mørkt vann."
}
},
{
"type": "Feature",
"geometry": {
"type": "Point",
"coordinates": [
9.86937,
62.84326
]
},
"properties": {
"elv": "Orkla",
"km": 32.8,
"z": 212.81,
"S": 0.0,
"Q": 193.2,
"w": 64.0,
"w_q": 41.7,
"h": 2.16,
"tau": 32.64,
"tau_c": 28.57,
"omega": 45.56,
"M": 1.14,
"D": 0.05,
"R": 0.9,
"sving": 0.52,
"os": 0.99,
"os_navn": "Gautvella",
"foss": 0.0,
"foss_drop": 0.0,
"juv": 0.01,
"B": 0.97,
"frac_fav": 0.62,
"d_gull_km": 229.87,
"berg": "Granatglimmerskifer | Glimmerskifer, amfibolitt, kalksilikatskifer, metasandstein, kalkspatmarmor og gneis | Midtre kaledonsk dekkeserie",
"p_raw": 0.45,
"A_km2": 1609.99,
"gate": 1.0,
"P": 86.61,
"rank": 7,
"klasse": "A",
"d_vei_m": 110,
"vei_navn": "Gunnesveien",
"d_sti_m": 1246,
"d_parkering_m": 3925,
"adkomst": "Lett: bilvei 110 m unna (Gunnesveien).",
"navn": "Ærhølen (Orkla)",
"hvorfor": "Os: Gautvella kommer inn her – grus og tyngre materiale legges i osen og bankehodet nedenfor. Skarp sving – grav på innersvingen og bak store steiner. τ = 33 Pa ≈ 1.1× terskelen: sand og grus flyttes ved flom, gull blir liggende (retensjon). Berggrunn: Granatglimmerskifer (62 % gunstig oppstrøms).",
"s2_anomali": 4.0,
"s2_feox_z": 2.53,
"satsjekk": "Automatisk bildeanalyse: grus/sandbanke synlig, dypt/mørkt vann."
}
},
{
"type": "Feature",
"geometry": {
"type": "Point",
"coordinates": [
10.0081,
62.7981
]
},
"properties": {
"elv": "Orkla",
"km": 21.6,
"z": 244.79,
"S": 0.0,
"Q": 175.57,
"w": 54.0,
"w_q": 39.75,
"h": 2.21,
"tau": 36.77,
"tau_c": 30.02,
"omega": 54.17,
"M": 1.22,
"D": 0.3,
"R": 0.94,
"sving": 0.13,
"os": 0.97,
"os_navn": "Sæterbekken",
"foss": 0.0,
"foss_drop": 0.0,
"juv": 0.0,
"B": 0.97,
"frac_fav": 0.62,
"d_gull_km": 229.89,
"berg": "Granatglimmerskifer | Glimmerskifer, amfibolitt, kalksilikatskifer, metasandstein, kalkspatmarmor og gneis | Midtre kaledonsk dekkeserie",
"p_raw": 0.45,
"A_km2": 1463.07,
"gate": 1.0,
"P": 85.69,
"rank": 8,
"klasse": "A",
"d_vei_m": 79,
"vei_navn": "service",
"d_sti_m": 939,
"d_parkering_m": 2857,
"adkomst": "Lett: bilvei 79 m unna (service).",
"navn": "Ytterhus (Orkla)",
"hvorfor": "Os: Sæterbekken kommer inn her – grus og tyngre materiale legges i osen og bankehodet nedenfor. τ = 37 Pa ≈ 1.2× terskelen: sand og grus flyttes ved flom, gull blir liggende (retensjon). Berggrunn: Granatglimmerskifer (62 % gunstig oppstrøms).",
"s2_anomali": null,
"s2_feox_z": null,
"satsjekk": "Automatisk bildeanalyse: dypt/mørkt vann."
}
},
{
"type": "Feature",
"geometry": {
"type": "Point",
"coordinates": [
9.8389,
62.85583
]
},
"properties": {
"elv": "Orkla",
"km": 35.6,
"z": 206.62,
"S": 0.0,
"Q": 197.31,
"w": 69.29,
"w_q": 42.14,
"h": 2.22,
"tau": 27.13,
"tau_c": 25.69,
"omega": 34.75,
"M": 1.06,
"D": 0.25,
"R": 0.84,
"sving": 0.32,
"os": 0.98,
"os_navn": "sideelv",
"foss": 0.0,
"foss_drop": 0.0,
"juv": 0.0,
"B": 0.98,
"frac_fav": 0.62,
"d_gull_km": 229.67,
"berg": "Granatglimmerskifer | Glimmerskifer, amfibolitt, kalksilikatskifer, metasandstein, kalkspatmarmor og gneis | Midtre kaledonsk dekkeserie",
"p_raw": 0.45,
"A_km2": 1644.26,
"gate": 1.0,
"P": 85.52,
"rank": 9,
"klasse": "A",
"d_vei_m": 159,
"vei_navn": "service",
"d_sti_m": 501,
"d_parkering_m": 5822,
"adkomst": "Kort gange: bilvei 159 m unna.",
"navn": "Nørigard (Orkla)",
"hvorfor": "Os: sideelv kommer inn her – grus og tyngre materiale legges i osen og bankehodet nedenfor. τ = 27 Pa ≈ 1.1× terskelen: sand og grus flyttes ved flom, gull blir liggende (retensjon). Berggrunn: Granatglimmerskifer (62 % gunstig oppstrøms).",
"s2_anomali": 3.79,
"s2_feox_z": 2.52,
"satsjekk": "Automatisk bildeanalyse: dypt/mørkt vann, tett vegetasjon – elva delvis skjult."
}
},
{
"type": "Feature",
"geometry": {
"type": "Point",
"coordinates": [
9.83692,
62.84897
]
},
"properties": {
"elv": "Orkla",
"km": 34.8,
"z": 208.69,
"S": 0.0,
"Q": 196.89,
"w": 74.0,
"w_q": 42.09,
"h": 1.47,
"tau": 59.85,
"tau_c": 46.85,
"omega": 107.98,
"M": 1.28,
"D": -0.0,
"R": 0.96,
"sving": 0.42,
"os": 0.97,
"os_navn": "Høka",
"foss": 0.0,
"foss_drop": 0.0,
"juv": 0.0,
"B": 0.98,
"frac_fav": 0.62,
"d_gull_km": 230.34,
"berg": "Granatglimmerskifer | Glimmerskifer, amfibolitt, kalksilikatskifer, metasandstein, kalkspatmarmor og gneis | Midtre kaledonsk dekkeserie",
"p_raw": 0.44,
"A_km2": 1640.73,
"gate": 1.0,
"P": 84.15,
"rank": 10,
"klasse": "B",
"d_vei_m": 218,
"vei_navn": "service",
"d_sti_m": 377,
"d_parkering_m": 5680,
"adkomst": "Kort gange: bilvei 218 m unna.",
"navn": "Stamneshåggån (Orkla)",
"hvorfor": "Os: Høka kommer inn her – grus og tyngre materiale legges i osen og bankehodet nedenfor. τ = 60 Pa ≈ 1.3× terskelen: sand og grus flyttes ved flom, gull blir liggende (retensjon). Berggrunn: Granatglimmerskifer (62 % gunstig oppstrøms).",
"s2_anomali": 4.0,
"s2_feox_z": 4.88,
"satsjekk": "Automatisk bildeanalyse: grus/sandbanke synlig, dypt/mørkt vann."
}
},
{
"type": "Feature",
"geometry": {
"type": "Point",
"coordinates": [
9.95712,
62.83584
]
},
"properties": {
"elv": "Orkla",
"km": 27.5,
"z": 225.28,
"S": 0.0,
"Q": 186.49,
"w": 88.62,
"w_q": 40.97,
"h": 1.44,
"tau": 39.35,
"tau_c": 38.47,
"omega": 57.59,
"M": 1.02,
"D": 0.14,
"R": 0.82,
"sving": 0.58,
"os": 0.88,
"os_navn": "Brea",
"foss": 0.0,
"foss_drop": 0.0,
"juv": 0.0,
"B": 0.97,
"frac_fav": 0.62,
"d_gull_km": 227.92,
"berg": "Granatglimmerskifer | Glimmerskifer, amfibolitt, kalksilikatskifer, metasandstein, kalkspatmarmor og gneis | Midtre kaledonsk dekkeserie",
"p_raw": 0.44,
"A_km2": 1554.09,
"gate": 1.0,
"P": 84.14,
"rank": 11,
"klasse": "B",
"d_vei_m": 76,
"vei_navn": "Orkdalsveien",
"d_sti_m": 105,
"d_parkering_m": 627,
"adkomst": "Lett: bilvei 76 m unna (Orkdalsveien). Parkering 627 m unna.",
"navn": "Sliperhølen (Orkla)",
"hvorfor": "Os: Brea kommer inn her – grus og tyngre materiale legges i osen og bankehodet nedenfor. Skarp sving – grav på innersvingen og bak store steiner. τ = 39 Pa ≈ 1.0× terskelen: sand og grus flyttes ved flom, gull blir liggende (retensjon). Berggrunn: Granatglimmerskifer (62 % gunstig oppstrøms).",
"s2_anomali": 4.0,
"s2_feox_z": 0.39,
"satsjekk": "Automatisk bildeanalyse: dypt/mørkt vann."
}
},
{
"type": "Feature",
"geometry": {
"type": "Point",
"coordinates": [
9.97764,
62.83059
]
},
"properties": {
"elv": "Orkla",
"km": 26.0,
"z": 231.41,
"S": 0.0,
"Q": 185.66,
"w": 60.0,
"w_q": 40.88,
"h": 1.68,
"tau": 60.77,
"tau_c": 44.2,
"omega": 111.77,
"M": 1.37,
"D": 0.12,
"R": 0.99,
"sving": 0.32,
"os": 0.86,
"os_navn": "Eggjåa",
"foss": 0.0,
"foss_drop": 0.0,
"juv": 0.0,
"B": 0.97,
"frac_fav": 0.62,
"d_gull_km": 227.8,
"berg": "Granatglimmerskifer | Glimmerskifer, amfibolitt, kalksilikatskifer, metasandstein, kalkspatmarmor og gneis | Midtre kaledonsk dekkeserie",
"p_raw": 0.44,
"A_km2": 1547.18,
"gate": 1.0,
"P": 83.71,
"rank": 12,
"klasse": "B",
"d_vei_m": 101,
"vei_navn": "unclassified",
"d_sti_m": 281,
"d_parkering_m": 1244,
"adkomst": "Lett: bilvei 101 m unna (unclassified). Parkering 1244 m unna.",
"navn": "Bruahølen (Orkla)",
"hvorfor": "Os: Eggjåa kommer inn her – grus og tyngre materiale legges i osen og bankehodet nedenfor. τ = 61 Pa ≈ 1.4× terskelen: sand og grus flyttes ved flom, gull blir liggende (retensjon). Berggrunn: Granatglimmerskifer (62 % gunstig oppstrøms).",
"s2_anomali": 1.82,
"s2_feox_z": -2.07,
"satsjekk": "Automatisk bildeanalyse: dypt/mørkt vann."
}
},
{
"type": "Feature",
"geometry": {
"type": "Point",
"coordinates": [
10.12989,
62.70106
]
},
"properties": {
"elv": "Orkla",
"km": 3.9,
"z": 474.2,
"S": 0.0,
"Q": 103.37,
"w": 54.3,
"w_q": 30.5,
"h": 1.17,
"tau": 52.56,
"tau_c": 49.24,
"omega": 85.36,
"M": 1.07,
"D": 0.0,
"R": 0.85,
"sving": 0.25,
"os": 0.82,
"os_navn": "Grytbekken",
"foss": 0.63,
"foss_drop": 0.0,
"juv": 0.0,
"B": 0.92,
"frac_fav": 0.62,
"d_gull_km": 235.59,
"berg": "Granatglimmerskifer | Glimmerskifer, amfibolitt, kalksilikatskifer, metasandstein, kalkspatmarmor og gneis | Midtre kaledonsk dekkeserie",
"p_raw": 0.43,
"A_km2": 861.45,
"gate": 1.0,
"P": 82.95,
"rank": 13,
"klasse": "B",
"d_vei_m": 99,
"vei_navn": "Østerdalsveien",
"d_sti_m": 21,
"d_parkering_m": 455,
"adkomst": "Lett: bilvei 99 m unna (Østerdalsveien). Parkering 455 m unna.",
"navn": "Østre Nåverdalen (Orkla)",
"hvorfor": "Bratt stryk like oppstrøms – kulper og fjellsprekker. Os: Grytbekken kommer inn her – grus og tyngre materiale legges i osen og bankehodet nedenfor. τ = 53 Pa ≈ 1.1× terskelen: sand og grus flyttes ved flom, gull blir liggende (retensjon). Berggrunn: Granatglimmerskifer (62 % gunstig oppstrøms).",
"s2_anomali": 4.0,
"s2_feox_z": 0.4,
"satsjekk": "Automatisk bildeanalyse: dypt/mørkt vann, tett vegetasjon – elva delvis skjult."
}
},
{
"type": "Feature",
"geometry": {
"type": "Point",
"coordinates": [
9.98382,
62.78041
]
},
"properties": {
"elv": "Orkla",
"km": 19.1,
"z": 261.46,
"S": 0.01,
"Q": 174.18,
"w": 36.0,
"w_q": 39.59,
"h": 1.7,
"tau": 151.26,
"tau_c": 69.29,
"omega": 429.47,
"M": 2.18,
"D": 0.21,
"R": 0.82,
"sving": 0.09,
"os": 0.09,
"os_navn": "Kalsåa",
"foss": 0.98,
"foss_drop": 0.0,
"juv": 0.15,
"B": 0.97,
"frac_fav": 0.62,
"d_gull_km": 232.22,
"berg": "Granatglimmerskifer | Glimmerskifer, amfibolitt, kalksilikatskifer, metasandstein, kalkspatmarmor og gneis | Midtre kaledonsk dekkeserie",
"p_raw": 0.42,
"A_km2": 1451.49,
"gate": 1.0,
"P": 81.0,
"rank": 14,
"klasse": "B",
"d_vei_m": 289,
"vei_navn": "Trondheimsveien",
"d_sti_m": 634,
"d_parkering_m": 3633,
"adkomst": "Kort gange: bilvei 289 m unna.",
"navn": "Kvernhusfossen (Orkla)",
"hvorfor": "Bratt stryk like oppstrøms – kulper og fjellsprekker. τ = 151 Pa ≈ 2.2× terskelen: sand og grus flyttes ved flom, gull blir liggende (retensjon). Berggrunn: Granatglimmerskifer (62 % gunstig oppstrøms).",
"s2_anomali": 3.09,
"s2_feox_z": -1.07,
"satsjekk": "Automatisk bildeanalyse: dypt/mørkt vann."
}
},
{
"type": "Feature",
"geometry": {
"type": "Point",
"coordinates": [
10.00013,
62.81934
]
},
"properties": {
"elv": "Orkla",
"km": 24.2,
"z": 237.21,
"S": 0.01,
"Q": 185.19,
"w": 58.0,
"w_q": 40.83,
"h": 1.37,
"tau": 103.12,
"tau_c": 63.77,
"omega": 240.12,
"M": 1.62,
"D": 0.05,
"R": 0.99,
"sving": 0.27,
"os": 0.86,
"os_navn": "Jaklabekken",
"foss": 0.0,
"foss_drop": 0.0,
"juv": 0.0,
"B": 0.97,
"frac_fav": 0.62,
"d_gull_km": 228.17,
"berg": "Granatglimmerskifer | Glimmerskifer, amfibolitt, kalksilikatskifer, metasandstein, kalkspatmarmor og gneis | Midtre kaledonsk dekkeserie",
"p_raw": 0.41,
"A_km2": 1543.27,
"gate": 1.0,
"P": 79.5,
"rank": 15,
"klasse": "B",
"d_vei_m": 129,
"vei_navn": "unclassified",
"d_sti_m": 709,
"d_parkering_m": 835,
"adkomst": "Lett: bilvei 129 m unna (unclassified). Parkering 835 m unna.",
"navn": "Uvsøya (Orkla)",
"hvorfor": "Os: Jaklabekken kommer inn her – grus og tyngre materiale legges i osen og bankehodet nedenfor. τ = 103 Pa ≈ 1.6× terskelen: sand og grus flyttes ved flom, gull blir liggende (retensjon). Berggrunn: Granatglimmerskifer (62 % gunstig oppstrøms).",
"s2_anomali": 2.26,
"s2_feox_z": -1.03,
"satsjekk": "Automatisk bildeanalyse: dypt/mørkt vann."
}
},
{
"type": "Feature",
"geometry": {
"type": "Point",
"coordinates": [
10.02348,
62.71663
]
},
"properties": {
"elv": "Orkla",
"km": 10.1,
"z": 404.66,
"S": 0.02,
"Q": 133.28,
"w": 26.0,
"w_q": 34.63,
"h": 1.32,
"tau": 310.82,
"tau_c": 112.86,
"omega": 1207.24,
"M": 2.75,
"D": 0.0,
"R": 0.6,
"sving": 0.07,
"os": 0.54,
"os_navn": "Nyhusbekken",
"foss": 1.0,
"foss_drop": 3.14,
"juv": 0.25,
"B": 0.94,
"frac_fav": 0.62,
"d_gull_km": 237.03,
"berg": "Granatglimmerskifer | Glimmerskifer, amfibolitt, kalksilikatskifer, metasandstein, kalkspatmarmor og gneis | Midtre kaledonsk dekkeserie",
"p_raw": 0.39,
"A_km2": 1110.67,
"gate": 1.0,
"P": 75.3,
"rank": 16,
"klasse": "B",
"d_vei_m": 245,
"vei_navn": "service",
"d_sti_m": 402,
"d_parkering_m": 417,
"adkomst": "Kort gange: bilvei 245 m unna. Parkering 417 m unna.",
"navn": "Sigstad (Orkla)",
"hvorfor": "Foss/stryk rett oppstrøms (3 m fall på 100 m) – fossekulp og fjell i dagen. Os: Nyhusbekken kommer inn her – grus og tyngre materiale legges i osen og bankehodet nedenfor. τ = 311 Pa ≈ 2.8× terskelen: sand og grus flyttes ved flom, gull blir liggende (retensjon). Berggrunn: Granatglimmerskifer (62 % gunstig oppstrøms).",
"s2_anomali": 0.0,
"s2_feox_z": -2.39,
"satsjekk": "Automatisk bildeanalyse: dypt/mørkt vann."
}
},
{
"type": "Feature",
"geometry": {
"type": "Point",
"coordinates": [
10.14445,
62.70379
]
},
"properties": {
"elv": "Nova",
"km": 3.9,
"z": 544.71,
"S": 0.09,
"Q": 7.14,
"w": 21.63,
"w_q": 8.02,
"h": 0.17,
"tau": 141.58,
"tau_c": 213.4,
"omega": 277.94,
"M": 0.66,
"D": 0.01,
"R": 0.4,
"sving": 0.25,
"os": 0.92,
"os_navn": "sideelv",
"foss": 1.0,
"foss_drop": 11.47,
"juv": 0.0,
"B": 0.91,
"frac_fav": 1.0,
"d_gull_km": 234.94,
"berg": "Glimmerskifer | Hornblendeførende glimmerskifer | Øvre kaledonske dekkeserie",
"p_raw": 0.39,
"A_km2": 59.49,
"gate": 1.0,
"P": 74.35,
"rank": 17,
"klasse": "B",
"d_vei_m": 159,
"vei_navn": "service",
"d_sti_m": 721,
"d_parkering_m": 724,
"adkomst": "Kort gange: bilvei 159 m unna. Parkering 724 m unna.",
"navn": "Nåverdalen (Nova)",
"hvorfor": "Foss/stryk rett oppstrøms (11 m fall på 100 m) – fossekulp og fjell i dagen. Os: sideelv kommer inn her – grus og tyngre materiale legges i osen og bankehodet nedenfor. Berggrunn: Glimmerskifer (100 % gunstig oppstrøms).",
"s2_anomali": null,
"s2_feox_z": null,
"satsjekk": "Automatisk bildeanalyse: dypt/mørkt vann."
}
},
{
"type": "Feature",
"geometry": {
"type": "Point",
"coordinates": [
9.99496,
62.72574
]
},
"properties": {
"elv": "Orkla",
"km": 12.0,
"z": 364.73,
"S": 0.01,
"Q": 134.6,
"w": 32.78,
"w_q": 34.8,
"h": 1.43,
"tau": 161.51,
"tau_c": 78.05,
"omega": 462.46,
"M": 2.07,
"D": 0.13,
"R": 0.87,
"sving": 0.07,
"os": 0.86,
"os_navn": "sideelv",
"foss": 0.0,
"foss_drop": 0.0,
"juv": 0.28,
"B": 0.95,
"frac_fav": 0.62,
"d_gull_km": 236.98,
"berg": "Granatglimmerskifer | Glimmerskifer, amfibolitt, kalksilikatskifer, metasandstein, kalkspatmarmor og gneis | Midtre kaledonsk dekkeserie",
"p_raw": 0.39,
"A_km2": 1121.64,
"gate": 1.0,
"P": 74.15,
"rank": 18,
"klasse": "B",
"d_vei_m": 313,
"vei_navn": "service",
"d_sti_m": 147,
"d_parkering_m": 1793,
"adkomst": "Kort gange: bilvei 313 m unna.",
"navn": "Bakken (Orkla)",
"hvorfor": "Os: sideelv kommer inn her – grus og tyngre materiale legges i osen og bankehodet nedenfor. τ = 162 Pa ≈ 2.1× terskelen: sand og grus flyttes ved flom, gull blir liggende (retensjon). Berggrunn: Granatglimmerskifer (62 % gunstig oppstrøms).",
"s2_anomali": 4.0,
"s2_feox_z": -2.35,
"satsjekk": "Automatisk bildeanalyse: dypt/mørkt vann."
}
},
{
"type": "Feature",
"geometry": {
"type": "Point",
"coordinates": [
9.97582,
62.74585
]
},
"properties": {
"elv": "Orkla",
"km": 14.7,
"z": 330.74,
"S": 0.02,
"Q": 172.11,
"w": 44.0,
"w_q": 39.36,
"h": 1.22,
"tau": 205.19,
"tau_c": 95.35,
"omega": 657.62,
"M": 2.15,
"D": 0.0,
"R": 0.83,
"sving": 0.03,
"os": 0.16,
"os_navn": "Hevra",
"foss": 1.0,
"foss_drop": 3.02,
"juv": 0.1,
"B": 0.97,
"frac_fav": 0.62,
"d_gull_km": 235.65,
"berg": "Granatglimmerskifer | Glimmerskifer, amfibolitt, kalksilikatskifer, metasandstein, kalkspatmarmor og gneis | Midtre kaledonsk dekkeserie",
"p_raw": 0.38,
"A_km2": 1434.29,
"gate": 1.0,
"P": 73.67,
"rank": 19,
"klasse": "B",
"d_vei_m": 243,
"vei_navn": "Trondheimsveien",
"d_sti_m": 638,
"d_parkering_m": 644,
"adkomst": "Kort gange: bilvei 243 m unna. Parkering 644 m unna.",
"navn": "Buddenget (Orkla)",
"hvorfor": "Foss/stryk rett oppstrøms (3 m fall på 100 m) – fossekulp og fjell i dagen. τ = 205 Pa ≈ 2.2× terskelen: sand og grus flyttes ved flom, gull blir liggende (retensjon). Berggrunn: Granatglimmerskifer (62 % gunstig oppstrøms).",
"s2_anomali": 3.65,
"s2_feox_z": 1.69,
"satsjekk": "Automatisk bildeanalyse: grus/sandbanke synlig, dypt/mørkt vann."
}
},
{
"type": "Feature",
"geometry": {
"type": "Point",
"coordinates": [
9.83892,
62.86571
]
},
"properties": {
"elv": "Orkla",
"km": 36.9,
"z": 205.08,
"S": 0.0,
"Q": 197.85,
"w": 54.0,
"w_q": 42.2,
"h": 4.34,
"tau": 10.61,
"tau_c": 11.65,
"omega": 8.97,
"M": 0.91,
"D": 0.35,
"R": 0.71,
"sving": 0.27,
"os": 0.65,
"os_navn": "Rukku",
"foss": 0.0,
"foss_drop": 0.0,
"juv": 0.02,
"B": 0.98,
"frac_fav": 0.62,
"d_gull_km": 228.78,
"berg": "Granatglimmerskifer | Glimmerskifer, amfibolitt, kalksilikatskifer, metasandstein, kalkspatmarmor og gneis | Midtre kaledonsk dekkeserie",
"p_raw": 0.38,
"A_km2": 1648.74,
"gate": 1.0,
"P": 72.91,
"rank": 20,
"klasse": "B",
"d_vei_m": 143,
"vei_navn": "service",
"d_sti_m": 658,
"d_parkering_m": 6316,
"adkomst": "Lett: bilvei 143 m unna (service).",
"navn": "Rokkogjerdet (Orkla)",
"hvorfor": "Os: Rukku kommer inn her – grus og tyngre materiale legges i osen og bankehodet nedenfor. Strømeffekten faller 35 % over strekningen – tungt materiale slipper her. τ = 11 Pa ≈ 0.9× terskelen: sand og grus flyttes ved flom, gull blir liggende (retensjon). Berggrunn: Granatglimmerskifer (62 % gunstig oppstrøms).",
"s2_anomali": 4.0,
"s2_feox_z": 8.52,
"satsjekk": "Automatisk bildeanalyse: grus/sandbanke synlig, dypt/mørkt vann."
}
}
]
}