{"type": "FeatureCollection", "features": [{"type": "Feature", "geometry": {"type": "Point", "coordinates": [10.09964, 62.69483]}, "properties": {"type": "basemetall", "s2_oh_z": 6.25, "s2_feox_z": -3.74}}, {"type": "Feature", "geometry": {"type": "Point", "coordinates": [10.05076, 62.83164]}, "properties": {"type": "basemetall", "s2_oh_z": null, "s2_feox_z": null}}, {"type": "Feature", "geometry": {"type": "Point", "coordinates": [10.0857, 62.85821]}, "properties": {"type": "basemetall", "s2_oh_z": null, "s2_feox_z": null}}, {"type": "Feature", "geometry": {"type": "Point", "coordinates": [10.11183, 62.73804]}, "properties": {"type": "basemetall", "s2_oh_z": null, "s2_feox_z": null}}, {"type": "Feature", "geometry": {"type": "Point", "coordinates": [10.09417, 62.70537]}, "properties": {"type": "basemetall", "s2_oh_z": -1.2, "s2_feox_z": 0.16}}, {"type": "Feature", "geometry": {"type": "Point", "coordinates": [10.09577, 62.67466]}, "properties": {"type": "basemetall", "s2_oh_z": 1.52, "s2_feox_z": 0.7}}, {"type": "Feature", "geometry": {"type": "Point", "coordinates": [10.10112, 62.68198]}, "properties": {"type": "basemetall", "s2_oh_z": 1.68, "s2_feox_z": -0.24}}, {"type": "Feature", "geometry": {"type": "Point", "coordinates": [10.08835, 62.69617]}, "properties": {"type": "basemetall", "s2_oh_z": null, "s2_feox_z": null}}, {"type": "Feature", "geometry": {"type": "Point", "coordinates": [10.16329, 62.65365]}, "properties": {"type": "basemetall", "s2_oh_z": null, "s2_feox_z": null}}, {"type": "Feature", "geometry": {"type": "Point", "coordinates": [10.09769, 62.69484]}, "properties": {"type": "basemetall", "s2_oh_z": 6.25, "s2_feox_z": -3.74}}, {"type": "Feature", "geometry": {"type": "Point", "coordinates": [10.11088, 62.78082]}, "properties": {"type": "basemetall", "s2_oh_z": -0.22, "s2_feox_z": 2.36}}, {"type": "Feature", "geometry": {"type": "Point", "coordinates": [10.08288, 62.6534]}, "properties": {"type": "basemetall", "s2_oh_z": 2.75, "s2_feox_z": 2.32}}, {"type": "Feature", "geometry": {"type": "Point", "coordinates": [9.95792, 62.81973]}, "properties": {"type": "basemetall", "s2_oh_z": null, "s2_feox_z": null}}, {"type": "Feature", "geometry": {"type": "Point", "coordinates": [10.03424, 62.76929]}, "properties": {"type": "basemetall", "s2_oh_z": 1.82, "s2_feox_z": 0.92}}, {"type": "Feature", "geometry": {"type": "Point", "coordinates": [10.09639, 62.70701]}, "properties": {"type": "basemetall", "s2_oh_z": -1.2, "s2_feox_z": 0.16}}, {"type": "Feature", "geometry": {"type": "Point", "coordinates": [10.07505, 62.72216]}, "properties": {"type": "basemetall", "s2_oh_z": 2.24, "s2_feox_z": 1.88}}, {"type": "Feature", "geometry": {"type": "Point", "coordinates": [10.04964, 62.82008]}, "properties": {"type": "basemetall", "s2_oh_z": -0.12, "s2_feox_z": 1.07}}]}