<?xml version="1.0" encoding="UTF-8"?>
<gpx version="1.1" creator="gulloye" xmlns="http://www.topografix.com/GPX/1/1">
  <wpt lat="62.73902" lon="9.97353"><name>1 A – Gullikstad (Orkla)</name><desc>Foss/stryk rett oppstrøms (3 m fall på 100 m) – fossekulp og fjell i dagen. Os: Merrabekken kommer inn her – grus og tyngre materiale legges i osen og bankehodet nedenfor. τ = 201 Pa ≈ 2.1× terskelen: sand og grus flyttes ved flom, gull blir liggende (retensjon). Berggrunn: Granatglimmerskifer (62 % gunstig oppstrøms).</desc></wpt>
  <wpt lat="62.71977" lon="10.01020"><name>2 A – Pålsmoen (Orkla)</name><desc>Foss/stryk rett oppstrøms (4 m fall på 100 m) – fossekulp og fjell i dagen. Os: sideelv kommer inn her – grus og tyngre materiale legges i osen og bankehodet nedenfor. τ = 227 Pa ≈ 2.2× terskelen: sand og grus flyttes ved flom, gull blir liggende (retensjon). Berggrunn: Granatglimmerskifer (62 % gunstig oppstrøms).</desc></wpt>
  <wpt lat="62.70547" lon="10.09449"><name>3 A – Nyberget (Orkla)</name><desc>Foss/stryk rett oppstrøms (4 m fall på 100 m) – fossekulp og fjell i dagen. Os: Gruvbekken kommer inn her – grus og tyngre materiale legges i osen og bankehodet nedenfor. τ = 170 Pa ≈ 2.0× terskelen: sand og grus flyttes ved flom, gull blir liggende (retensjon). Berggrunn: Granatglimmerskifer (62 % gunstig oppstrøms).</desc></wpt>
  <wpt lat="62.76163" lon="9.98714"><name>4 A – Søndre Tosetbakken (Orkla)</name><desc>Foss/stryk rett oppstrøms (4 m fall på 100 m) – fossekulp og fjell i dagen. Os: sideelv kommer inn her – grus og tyngre materiale legges i osen og bankehodet nedenfor. τ = 177 Pa ≈ 2.3× terskelen: sand og grus flyttes ved flom, gull blir liggende (retensjon). Berggrunn: Granatglimmerskifer (62 % gunstig oppstrøms).</desc></wpt>
  <wpt lat="62.79203" lon="9.99483"><name>5 A – Nylenfossen (Orkla)</name><desc>Foss/stryk rett oppstrøms (4 m fall på 100 m) – fossekulp og fjell i dagen. Os: Langvella kommer inn her – grus og tyngre materiale legges i osen og bankehodet nedenfor. τ = 94 Pa ≈ 1.5× terskelen: sand og grus flyttes ved flom, gull blir liggende (retensjon). Berggrunn: Granatglimmerskifer (62 % gunstig oppstrøms).</desc></wpt>
  <wpt lat="62.75284" lon="9.97733"><name>6 A – Ulsberg (Orkla)</name><desc>Foss/stryk rett oppstrøms (5 m fall på 100 m) – fossekulp og fjell i dagen. Strømeffekten faller 56 % over strekningen – tungt materiale slipper her. τ = 105 Pa ≈ 1.6× terskelen: sand og grus flyttes ved flom, gull blir liggende (retensjon). Berggrunn: Granatglimmerskifer (62 % gunstig oppstrøms).</desc></wpt>
  <wpt lat="62.84326" lon="9.86937"><name>7 A – Ærhølen (Orkla)</name><desc>Os: Gautvella kommer inn her – grus og tyngre materiale legges i osen og bankehodet nedenfor. Skarp sving – grav på innersvingen og bak store steiner. τ = 33 Pa ≈ 1.1× terskelen: sand og grus flyttes ved flom, gull blir liggende (retensjon). Berggrunn: Granatglimmerskifer (62 % gunstig oppstrøms).</desc></wpt>
  <wpt lat="62.79810" lon="10.00810"><name>8 A – Ytterhus (Orkla)</name><desc>Os: Sæterbekken kommer inn her – grus og tyngre materiale legges i osen og bankehodet nedenfor. τ = 37 Pa ≈ 1.2× terskelen: sand og grus flyttes ved flom, gull blir liggende (retensjon). Berggrunn: Granatglimmerskifer (62 % gunstig oppstrøms).</desc></wpt>
  <wpt lat="62.85583" lon="9.83890"><name>9 A – Nørigard (Orkla)</name><desc>Os: sideelv kommer inn her – grus og tyngre materiale legges i osen og bankehodet nedenfor. τ = 27 Pa ≈ 1.1× terskelen: sand og grus flyttes ved flom, gull blir liggende (retensjon). Berggrunn: Granatglimmerskifer (62 % gunstig oppstrøms).</desc></wpt>
  <wpt lat="62.84897" lon="9.83692"><name>10 B – Stamneshåggån (Orkla)</name><desc>Os: Høka kommer inn her – grus og tyngre materiale legges i osen og bankehodet nedenfor. τ = 60 Pa ≈ 1.3× terskelen: sand og grus flyttes ved flom, gull blir liggende (retensjon). Berggrunn: Granatglimmerskifer (62 % gunstig oppstrøms).</desc></wpt>
  <wpt lat="62.83584" lon="9.95712"><name>11 B – Sliperhølen (Orkla)</name><desc>Os: Brea kommer inn her – grus og tyngre materiale legges i osen og bankehodet nedenfor. Skarp sving – grav på innersvingen og bak store steiner. τ = 39 Pa ≈ 1.0× terskelen: sand og grus flyttes ved flom, gull blir liggende (retensjon). Berggrunn: Granatglimmerskifer (62 % gunstig oppstrøms).</desc></wpt>
  <wpt lat="62.83059" lon="9.97764"><name>12 B – Bruahølen (Orkla)</name><desc>Os: Eggjåa kommer inn her – grus og tyngre materiale legges i osen og bankehodet nedenfor. τ = 61 Pa ≈ 1.4× terskelen: sand og grus flyttes ved flom, gull blir liggende (retensjon). Berggrunn: Granatglimmerskifer (62 % gunstig oppstrøms).</desc></wpt>
  <wpt lat="62.70106" lon="10.12989"><name>13 B – Østre Nåverdalen (Orkla)</name><desc>Bratt stryk like oppstrøms – kulper og fjellsprekker. Os: Grytbekken kommer inn her – grus og tyngre materiale legges i osen og bankehodet nedenfor. τ = 53 Pa ≈ 1.1× terskelen: sand og grus flyttes ved flom, gull blir liggende (retensjon). Berggrunn: Granatglimmerskifer (62 % gunstig oppstrøms).</desc></wpt>
  <wpt lat="62.78041" lon="9.98382"><name>14 B – Kvernhusfossen (Orkla)</name><desc>Bratt stryk like oppstrøms – kulper og fjellsprekker. τ = 151 Pa ≈ 2.2× terskelen: sand og grus flyttes ved flom, gull blir liggende (retensjon). Berggrunn: Granatglimmerskifer (62 % gunstig oppstrøms).</desc></wpt>
  <wpt lat="62.81934" lon="10.00013"><name>15 B – Uvsøya (Orkla)</name><desc>Os: Jaklabekken kommer inn her – grus og tyngre materiale legges i osen og bankehodet nedenfor. τ = 103 Pa ≈ 1.6× terskelen: sand og grus flyttes ved flom, gull blir liggende (retensjon). Berggrunn: Granatglimmerskifer (62 % gunstig oppstrøms).</desc></wpt>
  <wpt lat="62.71663" lon="10.02348"><name>16 B – Sigstad (Orkla)</name><desc>Foss/stryk rett oppstrøms (3 m fall på 100 m) – fossekulp og fjell i dagen. Os: Nyhusbekken kommer inn her – grus og tyngre materiale legges i osen og bankehodet nedenfor. τ = 311 Pa ≈ 2.8× terskelen: sand og grus flyttes ved flom, gull blir liggende (retensjon). Berggrunn: Granatglimmerskifer (62 % gunstig oppstrøms).</desc></wpt>
  <wpt lat="62.70379" lon="10.14445"><name>17 B – Nåverdalen (Nova)</name><desc>Foss/stryk rett oppstrøms (11 m fall på 100 m) – fossekulp og fjell i dagen. Os: sideelv kommer inn her – grus og tyngre materiale legges i osen og bankehodet nedenfor. Berggrunn: Glimmerskifer (100 % gunstig oppstrøms).</desc></wpt>
  <wpt lat="62.72574" lon="9.99496"><name>18 B – Bakken (Orkla)</name><desc>Os: sideelv kommer inn her – grus og tyngre materiale legges i osen og bankehodet nedenfor. τ = 162 Pa ≈ 2.1× terskelen: sand og grus flyttes ved flom, gull blir liggende (retensjon). Berggrunn: Granatglimmerskifer (62 % gunstig oppstrøms).</desc></wpt>
  <wpt lat="62.74585" lon="9.97582"><name>19 B – Buddenget (Orkla)</name><desc>Foss/stryk rett oppstrøms (3 m fall på 100 m) – fossekulp og fjell i dagen. τ = 205 Pa ≈ 2.2× terskelen: sand og grus flyttes ved flom, gull blir liggende (retensjon). Berggrunn: Granatglimmerskifer (62 % gunstig oppstrøms).</desc></wpt>
  <wpt lat="62.86571" lon="9.83892"><name>20 B – Rokkogjerdet (Orkla)</name><desc>Os: Rukku kommer inn her – grus og tyngre materiale legges i osen og bankehodet nedenfor. Strømeffekten faller 35 % over strekningen – tungt materiale slipper her. τ = 11 Pa ≈ 0.9× terskelen: sand og grus flyttes ved flom, gull blir liggende (retensjon). Berggrunn: Granatglimmerskifer (62 % gunstig oppstrøms).</desc></wpt>
</gpx>