<?xml version="1.0" encoding="UTF-8"?>
<kml xmlns="http://www.opengis.net/kml/2.2"><Document>
<name>GULLØYE – Berkåk</name>
<Style id="kA"><IconStyle><color>ff2b39c0</color><scale>1.1</scale></IconStyle></Style>
<Style id="kB"><IconStyle><color>ff227ee6</color><scale>1.1</scale></IconStyle></Style>
<Style id="kC"><IconStyle><color>ff0fc4f1</color><scale>1.1</scale></IconStyle></Style>
<Placemark><name>1A Gullikstad (Orkla)</name><styleUrl>#kA</styleUrl><description>P=100. Foss/stryk rett oppstrøms (3 m fall på 100 m) – fossekulp og fjell i dagen. Os: Merrabekken kommer inn her – grus og tyngre materiale legges i osen og bankehodet nedenfor. τ = 201 Pa ≈ 2.1× terskelen: sand og grus flyttes ved flom, gull blir liggende (retensjon). Berggrunn: Granatglimmerskifer (62 % gunstig oppstrøms). Kort gange: bilvei 160 m unna. Parkering 806 m unna.</description><Point><coordinates>9.97353,62.73902,0</coordinates></Point></Placemark>
<Placemark><name>2A Pålsmoen (Orkla)</name><styleUrl>#kA</styleUrl><description>P=96. Foss/stryk rett oppstrøms (4 m fall på 100 m) – fossekulp og fjell i dagen. Os: sideelv kommer inn her – grus og tyngre materiale legges i osen og bankehodet nedenfor. τ = 227 Pa ≈ 2.2× terskelen: sand og grus flyttes ved flom, gull blir liggende (retensjon). Berggrunn: Granatglimmerskifer (62 % gunstig oppstrøms). Kort gange: bilvei 373 m unna. Parkering 890 m unna.</description><Point><coordinates>10.01020,62.71977,0</coordinates></Point></Placemark>
<Placemark><name>3A Nyberget (Orkla)</name><styleUrl>#kA</styleUrl><description>P=95. Foss/stryk rett oppstrøms (4 m fall på 100 m) – fossekulp og fjell i dagen. Os: Gruvbekken kommer inn her – grus og tyngre materiale legges i osen og bankehodet nedenfor. τ = 170 Pa ≈ 2.0× terskelen: sand og grus flyttes ved flom, gull blir liggende (retensjon). Berggrunn: Granatglimmerskifer (62 % gunstig oppstrøms). Lett: bilvei 112 m unna (Østerdalsveien).</description><Point><coordinates>10.09449,62.70547,0</coordinates></Point></Placemark>
<Placemark><name>4A Søndre Tosetbakken (Orkla)</name><styleUrl>#kA</styleUrl><description>P=94. Foss/stryk rett oppstrøms (4 m fall på 100 m) – fossekulp og fjell i dagen. Os: sideelv kommer inn her – grus og tyngre materiale legges i osen og bankehodet nedenfor. τ = 177 Pa ≈ 2.3× terskelen: sand og grus flyttes ved flom, gull blir liggende (retensjon). Berggrunn: Granatglimmerskifer (62 % gunstig oppstrøms). Kort gange: bilvei 258 m unna.</description><Point><coordinates>9.98714,62.76163,0</coordinates></Point></Placemark>
<Placemark><name>5A Nylenfossen (Orkla)</name><styleUrl>#kA</styleUrl><description>P=94. Foss/stryk rett oppstrøms (4 m fall på 100 m) – fossekulp og fjell i dagen. Os: Langvella kommer inn her – grus og tyngre materiale legges i osen og bankehodet nedenfor. τ = 94 Pa ≈ 1.5× terskelen: sand og grus flyttes ved flom, gull blir liggende (retensjon). Berggrunn: Granatglimmerskifer (62 % gunstig oppstrøms). Kort gange: bilvei 412 m unna.</description><Point><coordinates>9.99483,62.79203,0</coordinates></Point></Placemark>
<Placemark><name>6A Ulsberg (Orkla)</name><styleUrl>#kA</styleUrl><description>P=91. Foss/stryk rett oppstrøms (5 m fall på 100 m) – fossekulp og fjell i dagen. Strømeffekten faller 56 % over strekningen – tungt materiale slipper her. τ = 105 Pa ≈ 1.6× terskelen: sand og grus flyttes ved flom, gull blir liggende (retensjon). Berggrunn: Granatglimmerskifer (62 % gunstig oppstrøms). Kort gange: bilvei 213 m unna. Parkering 755 m unna.</description><Point><coordinates>9.97733,62.75284,0</coordinates></Point></Placemark>
<Placemark><name>7A Ærhølen (Orkla)</name><styleUrl>#kA</styleUrl><description>P=87. Os: Gautvella kommer inn her – grus og tyngre materiale legges i osen og bankehodet nedenfor. Skarp sving – grav på innersvingen og bak store steiner. τ = 33 Pa ≈ 1.1× terskelen: sand og grus flyttes ved flom, gull blir liggende (retensjon). Berggrunn: Granatglimmerskifer (62 % gunstig oppstrøms). Lett: bilvei 110 m unna (Gunnesveien).</description><Point><coordinates>9.86937,62.84326,0</coordinates></Point></Placemark>
<Placemark><name>8A Ytterhus (Orkla)</name><styleUrl>#kA</styleUrl><description>P=86. Os: Sæterbekken kommer inn her – grus og tyngre materiale legges i osen og bankehodet nedenfor. τ = 37 Pa ≈ 1.2× terskelen: sand og grus flyttes ved flom, gull blir liggende (retensjon). Berggrunn: Granatglimmerskifer (62 % gunstig oppstrøms). Lett: bilvei 79 m unna (service).</description><Point><coordinates>10.00810,62.79810,0</coordinates></Point></Placemark>
<Placemark><name>9A Nørigard (Orkla)</name><styleUrl>#kA</styleUrl><description>P=86. Os: sideelv kommer inn her – grus og tyngre materiale legges i osen og bankehodet nedenfor. τ = 27 Pa ≈ 1.1× terskelen: sand og grus flyttes ved flom, gull blir liggende (retensjon). Berggrunn: Granatglimmerskifer (62 % gunstig oppstrøms). Kort gange: bilvei 159 m unna.</description><Point><coordinates>9.83890,62.85583,0</coordinates></Point></Placemark>
<Placemark><name>10B Stamneshåggån (Orkla)</name><styleUrl>#kB</styleUrl><description>P=84. Os: Høka kommer inn her – grus og tyngre materiale legges i osen og bankehodet nedenfor. τ = 60 Pa ≈ 1.3× terskelen: sand og grus flyttes ved flom, gull blir liggende (retensjon). Berggrunn: Granatglimmerskifer (62 % gunstig oppstrøms). Kort gange: bilvei 218 m unna.</description><Point><coordinates>9.83692,62.84897,0</coordinates></Point></Placemark>
<Placemark><name>11B Sliperhølen (Orkla)</name><styleUrl>#kB</styleUrl><description>P=84. Os: Brea kommer inn her – grus og tyngre materiale legges i osen og bankehodet nedenfor. Skarp sving – grav på innersvingen og bak store steiner. τ = 39 Pa ≈ 1.0× terskelen: sand og grus flyttes ved flom, gull blir liggende (retensjon). Berggrunn: Granatglimmerskifer (62 % gunstig oppstrøms). Lett: bilvei 76 m unna (Orkdalsveien). Parkering 627 m unna.</description><Point><coordinates>9.95712,62.83584,0</coordinates></Point></Placemark>
<Placemark><name>12B Bruahølen (Orkla)</name><styleUrl>#kB</styleUrl><description>P=84. Os: Eggjåa kommer inn her – grus og tyngre materiale legges i osen og bankehodet nedenfor. τ = 61 Pa ≈ 1.4× terskelen: sand og grus flyttes ved flom, gull blir liggende (retensjon). Berggrunn: Granatglimmerskifer (62 % gunstig oppstrøms). Lett: bilvei 101 m unna (unclassified). Parkering 1244 m unna.</description><Point><coordinates>9.97764,62.83059,0</coordinates></Point></Placemark>
<Placemark><name>13B Østre Nåverdalen (Orkla)</name><styleUrl>#kB</styleUrl><description>P=83. Bratt stryk like oppstrøms – kulper og fjellsprekker. Os: Grytbekken kommer inn her – grus og tyngre materiale legges i osen og bankehodet nedenfor. τ = 53 Pa ≈ 1.1× terskelen: sand og grus flyttes ved flom, gull blir liggende (retensjon). Berggrunn: Granatglimmerskifer (62 % gunstig oppstrøms). Lett: bilvei 99 m unna (Østerdalsveien). Parkering 455 m unna.</description><Point><coordinates>10.12989,62.70106,0</coordinates></Point></Placemark>
<Placemark><name>14B Kvernhusfossen (Orkla)</name><styleUrl>#kB</styleUrl><description>P=81. Bratt stryk like oppstrøms – kulper og fjellsprekker. τ = 151 Pa ≈ 2.2× terskelen: sand og grus flyttes ved flom, gull blir liggende (retensjon). Berggrunn: Granatglimmerskifer (62 % gunstig oppstrøms). Kort gange: bilvei 289 m unna.</description><Point><coordinates>9.98382,62.78041,0</coordinates></Point></Placemark>
<Placemark><name>15B Uvsøya (Orkla)</name><styleUrl>#kB</styleUrl><description>P=79. Os: Jaklabekken kommer inn her – grus og tyngre materiale legges i osen og bankehodet nedenfor. τ = 103 Pa ≈ 1.6× terskelen: sand og grus flyttes ved flom, gull blir liggende (retensjon). Berggrunn: Granatglimmerskifer (62 % gunstig oppstrøms). Lett: bilvei 129 m unna (unclassified). Parkering 835 m unna.</description><Point><coordinates>10.00013,62.81934,0</coordinates></Point></Placemark>
<Placemark><name>16B Sigstad (Orkla)</name><styleUrl>#kB</styleUrl><description>P=75. Foss/stryk rett oppstrøms (3 m fall på 100 m) – fossekulp og fjell i dagen. Os: Nyhusbekken kommer inn her – grus og tyngre materiale legges i osen og bankehodet nedenfor. τ = 311 Pa ≈ 2.8× terskelen: sand og grus flyttes ved flom, gull blir liggende (retensjon). Berggrunn: Granatglimmerskifer (62 % gunstig oppstrøms). Kort gange: bilvei 245 m unna. Parkering 417 m unna.</description><Point><coordinates>10.02348,62.71663,0</coordinates></Point></Placemark>
<Placemark><name>17B Nåverdalen (Nova)</name><styleUrl>#kB</styleUrl><description>P=74. Foss/stryk rett oppstrøms (11 m fall på 100 m) – fossekulp og fjell i dagen. Os: sideelv kommer inn her – grus og tyngre materiale legges i osen og bankehodet nedenfor. Berggrunn: Glimmerskifer (100 % gunstig oppstrøms). Kort gange: bilvei 159 m unna. Parkering 724 m unna.</description><Point><coordinates>10.14445,62.70379,0</coordinates></Point></Placemark>
<Placemark><name>18B Bakken (Orkla)</name><styleUrl>#kB</styleUrl><description>P=74. Os: sideelv kommer inn her – grus og tyngre materiale legges i osen og bankehodet nedenfor. τ = 162 Pa ≈ 2.1× terskelen: sand og grus flyttes ved flom, gull blir liggende (retensjon). Berggrunn: Granatglimmerskifer (62 % gunstig oppstrøms). Kort gange: bilvei 313 m unna.</description><Point><coordinates>9.99496,62.72574,0</coordinates></Point></Placemark>
<Placemark><name>19B Buddenget (Orkla)</name><styleUrl>#kB</styleUrl><description>P=74. Foss/stryk rett oppstrøms (3 m fall på 100 m) – fossekulp og fjell i dagen. τ = 205 Pa ≈ 2.2× terskelen: sand og grus flyttes ved flom, gull blir liggende (retensjon). Berggrunn: Granatglimmerskifer (62 % gunstig oppstrøms). Kort gange: bilvei 243 m unna. Parkering 644 m unna.</description><Point><coordinates>9.97582,62.74585,0</coordinates></Point></Placemark>
<Placemark><name>20B Rokkogjerdet (Orkla)</name><styleUrl>#kB</styleUrl><description>P=73. Os: Rukku kommer inn her – grus og tyngre materiale legges i osen og bankehodet nedenfor. Strømeffekten faller 35 % over strekningen – tungt materiale slipper her. τ = 11 Pa ≈ 0.9× terskelen: sand og grus flyttes ved flom, gull blir liggende (retensjon). Berggrunn: Granatglimmerskifer (62 % gunstig oppstrøms). Lett: bilvei 143 m unna (service).</description><Point><coordinates>9.83892,62.86571,0</coordinates></Point></Placemark>
</Document></kml>