{"type": "FeatureCollection", "features": [{"type": "Feature", "geometry": {"type": "Point", "coordinates": [25.70223, 69.23631]}, "properties": {"name": "Is", "objtype": "MalmRegistrering", "okey": "693", "faktaark": "https://aps.ngu.no/pls/oradb/minres_deposit_fakta.Main?p_objid=693&p_spraak=N", "score": 0.23}}, {"type": "Feature", "geometry": {"type": "Point", "coordinates": [24.85059, 69.30838]}, "properties": {"name": "Storfossen", "objtype": "MalmRegistrering", "okey": "749", "faktaark": "https://aps.ngu.no/pls/oradb/minres_deposit_fakta.Main?p_objid=749&p_spraak=N", "score": 0.53}}, {"type": "Feature", "geometry": {"type": "Point", "coordinates": [25.39918, 69.10437]}, "properties": {"name": "Jentoftstuen", "objtype": "MalmRegistrering", "okey": "15938", "faktaark": "https://aps.ngu.no/pls/oradb/minres_deposit_fakta.Main?p_objid=15938&p_spraak=N", "score": 0.28}}, {"type": "Feature", "geometry": {"type": "Point", "coordinates": [24.72068, 69.03052]}, "properties": {"name": "Gullelven", "objtype": "MalmRegistrering", "okey": "753", "faktaark": "https://aps.ngu.no/pls/oradb/minres_deposit_fakta.Main?p_objid=753&p_spraak=N", "score": 0.08}}, {"type": "Feature", "geometry": {"type": "Point", "coordinates": [19.48236, 69.9893]}, "properties": {"name": "Brennfjellet", "objtype": "MalmRegistrering", "okey": "1133", "faktaark": "https://aps.ngu.no/pls/oradb/minres_deposit_fakta.Main?p_objid=1133&p_spraak=N", "score": 0.51}}, {"type": "Feature", "geometry": {"type": "Point", "coordinates": [25.62398, 68.91939]}, "properties": {"name": "Helligdalen", "objtype": "MalmRegistrering", "okey": "694", "faktaark": "https://aps.ngu.no/pls/oradb/minres_deposit_fakta.Main?p_objid=694&p_spraak=N", "score": 0.08}}, {"type": "Feature", "geometry": {"type": "Point", "coordinates": [22.49164, 69.28089]}, "properties": {"name": "Bidjovagge", "objtype": "MalmForekomst", "okey": "892", "faktaark": "https://aps.ngu.no/pls/oradb/minres_deposit_fakta.Main?p_objid=892&p_spraak=N", "score": 0.32}}, {"type": "Feature", "geometry": {"type": "Point", "coordinates": [29.34772, 69.37368]}, "properties": {"name": "Gjeddevann", "objtype": "MalmRegistrering", "okey": "914", "faktaark": "https://aps.ngu.no/pls/oradb/minres_deposit_fakta.Main?p_objid=914&p_spraak=N", "score": 0.0}}, {"type": "Feature", "geometry": {"type": "Point", "coordinates": [12.67774, 65.21306]}, "properties": {"name": "Søbergsli", "objtype": "MalmRegistrering", "okey": "2181", "faktaark": "https://aps.ngu.no/pls/oradb/minres_deposit_fakta.Main?p_objid=2181&p_spraak=N", "score": 0.4}}, {"type": "Feature", "geometry": {"type": "Point", "coordinates": [12.91543, 65.27722]}, "properties": {"name": "Kalklavtind", "objtype": "MalmRegistrering", "okey": "2192", "faktaark": "https://aps.ngu.no/pls/oradb/minres_deposit_fakta.Main?p_objid=2192&p_spraak=N", "score": 0.61}}, {"type": "Feature", "geometry": {"type": "Point", "coordinates": [12.67321, 65.16236]}, "properties": {"name": "Reppen", "objtype": "MalmRegistrering", "okey": "2194", "faktaark": "https://aps.ngu.no/pls/oradb/minres_deposit_fakta.Main?p_objid=2194&p_spraak=N", "score": 0.42}}, {"type": "Feature", "geometry": {"type": "Point", "coordinates": [12.80932, 65.13227]}, "properties": {"name": "Bogadalsdelet", "objtype": "MalmRegistrering", "okey": "2195", "faktaark": "https://aps.ngu.no/pls/oradb/minres_deposit_fakta.Main?p_objid=2195&p_spraak=N", "score": 0.38}}, {"type": "Feature", "geometry": {"type": "Point", "coordinates": [12.37131, 65.59741]}, "properties": {"name": "Vottvika", "objtype": "MalmRegistrering", "okey": "2201", "faktaark": "https://aps.ngu.no/pls/oradb/minres_deposit_fakta.Main?p_objid=2201&p_spraak=N", "score": 0.49}}, {"type": "Feature", "geometry": {"type": "Point", "coordinates": [12.77605, 65.25979]}, "properties": {"name": "Lande", "objtype": "MalmRegistrering", "okey": "2273", "faktaark": "https://aps.ngu.no/pls/oradb/minres_deposit_fakta.Main?p_objid=2273&p_spraak=N", "score": 0.43}}, {"type": "Feature", "geometry": {"type": "Point", "coordinates": [12.88364, 65.24052]}, "properties": {"name": "Langfonna", "objtype": "MalmRegistrering", "okey": "2915", "faktaark": "https://aps.ngu.no/pls/oradb/minres_deposit_fakta.Main?p_objid=2915&p_spraak=N", "score": 0.85}}, {"type": "Feature", "geometry": {"type": "Point", "coordinates": [12.86807, 65.24775]}, "properties": {"name": "Finnlifjelldalen", "objtype": "MalmRegistrering", "okey": "2916", "faktaark": "https://aps.ngu.no/pls/oradb/minres_deposit_fakta.Main?p_objid=2916&p_spraak=N", "score": 0.86}}, {"type": "Feature", "geometry": {"type": "Point", "coordinates": [12.92111, 65.2431]}, "properties": {"name": "Storspalten", "objtype": "MalmRegistrering", "okey": "2921", "faktaark": "https://aps.ngu.no/pls/oradb/minres_deposit_fakta.Main?p_objid=2921&p_spraak=N", "score": 0.36}}, {"type": "Feature", "geometry": {"type": "Point", "coordinates": [12.96783, 65.2397]}, "properties": {"name": "Kalklavdalsvatn", "objtype": "MalmRegistrering", "okey": "2924", "faktaark": "https://aps.ngu.no/pls/oradb/minres_deposit_fakta.Main?p_objid=2924&p_spraak=N", "score": 0.76}}, {"type": "Feature", "geometry": {"type": "Point", "coordinates": [12.93901, 65.2552]}, "properties": {"name": "Kalklavdalslia", "objtype": "MalmRegistrering", "okey": "2925", "faktaark": "https://aps.ngu.no/pls/oradb/minres_deposit_fakta.Main?p_objid=2925&p_spraak=N", "score": 0.78}}, {"type": "Feature", "geometry": {"type": "Point", "coordinates": [12.76316, 65.28545]}, "properties": {"name": "Landgrunnvatn", "objtype": "MalmRegistrering", "okey": "2927", "faktaark": "https://aps.ngu.no/pls/oradb/minres_deposit_fakta.Main?p_objid=2927&p_spraak=N", "score": 0.49}}, {"type": "Feature", "geometry": {"type": "Point", "coordinates": [12.82016, 65.15092]}, "properties": {"name": "Nye Oksen", "objtype": "MalmRegistrering", "okey": "2929", "faktaark": "https://aps.ngu.no/pls/oradb/minres_deposit_fakta.Main?p_objid=2929&p_spraak=N", "score": 0.46}}, {"type": "Feature", "geometry": {"type": "Point", "coordinates": [12.82308, 65.16999]}, "properties": {"name": "Gamle Oksen", "objtype": "MalmRegistrering", "okey": "2930", "faktaark": "https://aps.ngu.no/pls/oradb/minres_deposit_fakta.Main?p_objid=2930&p_spraak=N", "score": 0.35}}, {"type": "Feature", "geometry": {"type": "Point", "coordinates": [12.42683, 65.40461]}, "properties": {"name": "Sørlielva", "objtype": "MalmRegistrering", "okey": "2939", "faktaark": "https://aps.ngu.no/pls/oradb/minres_deposit_fakta.Main?p_objid=2939&p_spraak=N", "score": 0.48}}, {"type": "Feature", "geometry": {"type": "Point", "coordinates": [13.35065, 65.50564]}, "properties": {"name": "Stavassdalskroken", "objtype": "MalmRegistrering", "okey": "2944", "faktaark": "https://aps.ngu.no/pls/oradb/minres_deposit_fakta.Main?p_objid=2944&p_spraak=N", "score": 0.82}}, {"type": "Feature", "geometry": {"type": "Point", "coordinates": [14.02714, 65.47577]}, "properties": {"name": "Mikkeljord", "objtype": "MalmRegistrering", "okey": "2832", "faktaark": "https://aps.ngu.no/pls/oradb/minres_deposit_fakta.Main?p_objid=2832&p_spraak=N", "score": 0.54}}, {"type": "Feature", "geometry": {"type": "Point", "coordinates": [5.23288, 59.7258]}, "properties": {"name": "Moane", "objtype": "MalmRegistrering", "okey": "4843", "faktaark": "https://aps.ngu.no/pls/oradb/minres_deposit_fakta.Main?p_objid=4843&p_spraak=N", "score": 0.93}}, {"type": "Feature", "geometry": {"type": "Point", "coordinates": [5.17923, 59.69684]}, "properties": {"name": "Sele", "objtype": "MalmRegistrering", "okey": "4846", "faktaark": "https://aps.ngu.no/pls/oradb/minres_deposit_fakta.Main?p_objid=4846&p_spraak=N", "score": 0.94}}, {"type": "Feature", "geometry": {"type": "Point", "coordinates": [5.25711, 59.7638]}, "properties": {"name": "Oldereid", "objtype": "MalmRegistrering", "okey": "4854", "faktaark": "https://aps.ngu.no/pls/oradb/minres_deposit_fakta.Main?p_objid=4854&p_spraak=N", "score": 0.94}}, {"type": "Feature", "geometry": {"type": "Point", "coordinates": [5.22092, 59.72142]}, "properties": {"name": "Bjørnavika", "objtype": "MalmRegistrering", "okey": "4863", "faktaark": "https://aps.ngu.no/pls/oradb/minres_deposit_fakta.Main?p_objid=4863&p_spraak=N", "score": 0.93}}, {"type": "Feature", "geometry": {"type": "Point", "coordinates": [5.19253, 59.7206]}, "properties": {"name": "Furevatnet", "objtype": "MalmRegistrering", "okey": "4866", "faktaark": "https://aps.ngu.no/pls/oradb/minres_deposit_fakta.Main?p_objid=4866&p_spraak=N", "score": 0.91}}, {"type": "Feature", "geometry": {"type": "Point", "coordinates": [5.44017, 60.07719]}, "properties": {"name": "Vernøya", "objtype": "MalmRegistrering", "okey": "4696", "faktaark": "https://aps.ngu.no/pls/oradb/minres_deposit_fakta.Main?p_objid=4696&p_spraak=N", "score": 0.55}}, {"type": "Feature", "geometry": {"type": "Point", "coordinates": [5.29076, 59.58902]}, "properties": {"name": "Hovdaneset", "objtype": "MalmRegistrering", "okey": "4726", "faktaark": "https://aps.ngu.no/pls/oradb/minres_deposit_fakta.Main?p_objid=4726&p_spraak=N", "score": 0.58}}, {"type": "Feature", "geometry": {"type": "Point", "coordinates": [5.1767, 59.71276]}, "properties": {"name": "Bømlo", "objtype": "MalmRegistrering", "okey": "4731", "faktaark": "https://aps.ngu.no/pls/oradb/minres_deposit_fakta.Main?p_objid=4731&p_spraak=N", "score": 0.93}}, {"type": "Feature", "geometry": {"type": "Point", "coordinates": [5.20464, 59.73937]}, "properties": {"name": "NORDNESET", "objtype": "MalmRegistrering", "okey": "4745", "faktaark": "https://aps.ngu.no/pls/oradb/minres_deposit_fakta.Main?p_objid=4745&p_spraak=N", "score": 0.92}}, {"type": "Feature", "geometry": {"type": "Point", "coordinates": [5.12827, 59.72995]}, "properties": {"name": "HISKJO", "objtype": "MalmRegistrering", "okey": "4751", "faktaark": "https://aps.ngu.no/pls/oradb/minres_deposit_fakta.Main?p_objid=4751&p_spraak=N", "score": 0.16}}, {"type": "Feature", "geometry": {"type": "Point", "coordinates": [8.74836, 58.61055]}, "properties": {"name": "Våland", "objtype": "MalmRegistrering", "okey": "5319", "faktaark": "https://aps.ngu.no/pls/oradb/minres_deposit_fakta.Main?p_objid=5319&p_spraak=N", "score": 0.86}}, {"type": "Feature", "geometry": {"type": "Point", "coordinates": [5.30549, 59.60022]}, "properties": {"name": "Kvitaneset", "objtype": "MalmRegistrering", "okey": "4869", "faktaark": "https://aps.ngu.no/pls/oradb/minres_deposit_fakta.Main?p_objid=4869&p_spraak=N", "score": 0.55}}, {"type": "Feature", "geometry": {"type": "Point", "coordinates": [5.69638, 59.03998]}, "properties": {"name": "Åmøy", "objtype": "MalmRegistrering", "okey": "4941", "faktaark": "https://aps.ngu.no/pls/oradb/minres_deposit_fakta.Main?p_objid=4941&p_spraak=N", "score": 0.01}}, {"type": "Feature", "geometry": {"type": "Point", "coordinates": [25.16855, 69.06999]}, "properties": {"name": "Øvre Gorzzejohka", "objtype": "MalmRegistrering", "okey": "15933", "faktaark": "https://aps.ngu.no/pls/oradb/minres_deposit_fakta.Main?p_objid=15933&p_spraak=N", "score": 0.0}}, {"type": "Feature", "geometry": {"type": "Point", "coordinates": [11.40769, 60.34176]}, "properties": {"name": "Vinterstøa", "objtype": "MalmRegistrering", "okey": "6594", "faktaark": "https://aps.ngu.no/pls/oradb/minres_deposit_fakta.Main?p_objid=6594&p_spraak=N", "score": 0.95}}, {"type": "Feature", "geometry": {"type": "Point", "coordinates": [12.10621, 65.08164]}, "properties": {"name": "Hornelvbotn", "objtype": "MalmRegistrering", "okey": "2934", "faktaark": "https://aps.ngu.no/pls/oradb/minres_deposit_fakta.Main?p_objid=2934&p_spraak=N", "score": 0.51}}, {"type": "Feature", "geometry": {"type": "Point", "coordinates": [11.39657, 60.37768]}, "properties": {"name": "Græsli, hovedbrudd, no. 1", "objtype": "MalmRegistrering", "okey": "6488", "faktaark": "https://aps.ngu.no/pls/oradb/minres_deposit_fakta.Main?p_objid=6488&p_spraak=N", "score": 0.6}}, {"type": "Feature", "geometry": {"type": "Point", "coordinates": [11.36089, 60.38907]}, "properties": {"name": "Gullkis", "objtype": "MalmRegistrering", "okey": "6490", "faktaark": "https://aps.ngu.no/pls/oradb/minres_deposit_fakta.Main?p_objid=6490&p_spraak=N", "score": 0.55}}, {"type": "Feature", "geometry": {"type": "Point", "coordinates": [11.35839, 60.39506]}, "properties": {"name": "Lesja", "objtype": "MalmRegistrering", "okey": "6491", "faktaark": "https://aps.ngu.no/pls/oradb/minres_deposit_fakta.Main?p_objid=6491&p_spraak=N", "score": 0.53}}, {"type": "Feature", "geometry": {"type": "Point", "coordinates": [11.349, 60.43302]}, "properties": {"name": "Brustad", "objtype": "MalmRegistrering", "okey": "6492", "faktaark": "https://aps.ngu.no/pls/oradb/minres_deposit_fakta.Main?p_objid=6492&p_spraak=N", "score": 0.45}}, {"type": "Feature", "geometry": {"type": "Point", "coordinates": [11.34697, 60.43484]}, "properties": {"name": "Eidsvoll", "objtype": "MalmRegistrering", "okey": "6493", "faktaark": "https://aps.ngu.no/pls/oradb/minres_deposit_fakta.Main?p_objid=6493&p_spraak=N", "score": 0.58}}, {"type": "Feature", "geometry": {"type": "Point", "coordinates": [11.58213, 60.45922]}, "properties": {"name": "Antoinette gruve", "objtype": "MalmRegistrering", "okey": "6344", "faktaark": "https://aps.ngu.no/pls/oradb/minres_deposit_fakta.Main?p_objid=6344&p_spraak=N", "score": 0.55}}, {"type": "Feature", "geometry": {"type": "Point", "coordinates": [7.47757, 59.24118]}, "properties": {"name": "Rotemo", "objtype": "MalmRegistrering", "okey": "14802", "faktaark": "https://aps.ngu.no/pls/oradb/minres_deposit_fakta.Main?p_objid=14802&p_spraak=N", "score": 0.47}}, {"type": "Feature", "geometry": {"type": "Point", "coordinates": [24.76741, 69.19965]}, "properties": {"name": "Bavtajohka", "objtype": "MalmRegistrering", "okey": "752", "faktaark": "https://aps.ngu.no/pls/oradb/minres_deposit_fakta.Main?p_objid=752&p_spraak=N", "score": 0.31}}, {"type": "Feature", "geometry": {"type": "Point", "coordinates": [11.33135, 60.42866]}, "properties": {"name": "Fremmingvangen gruve no. 5", "objtype": "MalmRegistrering", "okey": "15863", "faktaark": "https://aps.ngu.no/pls/oradb/minres_deposit_fakta.Main?p_objid=15863&p_spraak=N", "score": 0.51}}, {"type": "Feature", "geometry": {"type": "Point", "coordinates": [11.36274, 60.39983]}, "properties": {"name": "Røysivangen gruve no. 3", "objtype": "MalmRegistrering", "okey": "15869", "faktaark": "https://aps.ngu.no/pls/oradb/minres_deposit_fakta.Main?p_objid=15869&p_spraak=N", "score": 0.45}}, {"type": "Feature", "geometry": {"type": "Point", "coordinates": [11.3652, 60.37321]}, "properties": {"name": "Botshaugdalen gruve", "objtype": "MalmRegistrering", "okey": "15875", "faktaark": "https://aps.ngu.no/pls/oradb/minres_deposit_fakta.Main?p_objid=15875&p_spraak=N", "score": 0.61}}, {"type": "Feature", "geometry": {"type": "Point", "coordinates": [11.28679, 60.36167]}, "properties": {"name": "Sander", "objtype": "MalmRegistrering", "okey": "6489", "faktaark": "https://aps.ngu.no/pls/oradb/minres_deposit_fakta.Main?p_objid=6489&p_spraak=N", "score": 0.51}}, {"type": "Feature", "geometry": {"type": "Point", "coordinates": [24.93158, 69.30551]}, "properties": {"name": "Noai", "objtype": "MalmRegistrering", "okey": "743", "faktaark": "https://aps.ngu.no/pls/oradb/minres_deposit_fakta.Main?p_objid=743&p_spraak=N", "score": 0.37}}, {"type": "Feature", "geometry": {"type": "Point", "coordinates": [24.69411, 68.99562]}, "properties": {"name": "Giednjujohka", "objtype": "MalmRegistrering", "okey": "15953", "faktaark": "https://aps.ngu.no/pls/oradb/minres_deposit_fakta.Main?p_objid=15953&p_spraak=N", "score": 0.08}}, {"type": "Feature", "geometry": {"type": "Point", "coordinates": [24.72847, 69.06248]}, "properties": {"name": "Øvre Bavtajohka", "objtype": "MalmRegistrering", "okey": "15957", "faktaark": "https://aps.ngu.no/pls/oradb/minres_deposit_fakta.Main?p_objid=15957&p_spraak=N", "score": 0.08}}, {"type": "Feature", "geometry": {"type": "Point", "coordinates": [13.04055, 64.48397]}, "properties": {"name": "Sibirien", "objtype": "MalmRegistrering", "okey": "315", "faktaark": "https://aps.ngu.no/pls/oradb/minres_deposit_fakta.Main?p_objid=315&p_spraak=N", "score": 0.82}}, {"type": "Feature", "geometry": {"type": "Point", "coordinates": [19.37336, 69.94769]}, "properties": {"name": "Sørdalshøgda", "objtype": "MalmRegistrering", "okey": "1128", "faktaark": "https://aps.ngu.no/pls/oradb/minres_deposit_fakta.Main?p_objid=1128&p_spraak=N", "score": 0.5}}, {"type": "Feature", "geometry": {"type": "Point", "coordinates": [5.48138, 59.4098]}, "properties": {"name": "Fuglavatnet", "objtype": "MalmRegistrering", "okey": "5010", "faktaark": "https://aps.ngu.no/pls/oradb/minres_deposit_fakta.Main?p_objid=5010&p_spraak=N", "score": 0.37}}, {"type": "Feature", "geometry": {"type": "Point", "coordinates": [25.45658, 69.12451]}, "properties": {"name": "Gorrzejohka", "objtype": "MalmRegistrering", "okey": "698", "faktaark": "https://aps.ngu.no/pls/oradb/minres_deposit_fakta.Main?p_objid=698&p_spraak=N", "score": 0.38}}, {"type": "Feature", "geometry": {"type": "Point", "coordinates": [5.2211, 59.72771]}, "properties": {"name": "Hovdahalla", "objtype": "MalmRegistrering", "okey": "4845", "faktaark": "https://aps.ngu.no/pls/oradb/minres_deposit_fakta.Main?p_objid=4845&p_spraak=N", "score": 0.93}}, {"type": "Feature", "geometry": {"type": "Point", "coordinates": [12.69691, 64.47899]}, "properties": {"name": "Storliseter", "objtype": "MalmRegistrering", "okey": "10313", "faktaark": "https://aps.ngu.no/pls/oradb/minres_deposit_fakta.Main?p_objid=10313&p_spraak=N", "score": 0.86}}, {"type": "Feature", "geometry": {"type": "Point", "coordinates": [12.80496, 65.16902]}, "properties": {"name": "Kolsvik", "objtype": "MalmForekomst", "okey": "2182", "faktaark": "https://aps.ngu.no/pls/oradb/minres_deposit_fakta.Main?p_objid=2182&p_spraak=N", "score": 0.48}}, {"type": "Feature", "geometry": {"type": "Point", "coordinates": [12.87351, 65.24405]}, "properties": {"name": "Finnlifjell", "objtype": "MalmProspekt", "okey": "2193", "faktaark": "https://aps.ngu.no/pls/oradb/minres_deposit_fakta.Main?p_objid=2193&p_spraak=N", "score": 0.85}}, {"type": "Feature", "geometry": {"type": "Point", "coordinates": [25.22713, 68.82667]}, "properties": {"name": "Scieccanjohka", "objtype": "MalmRegistrering", "okey": "705", "faktaark": "https://aps.ngu.no/pls/oradb/minres_deposit_fakta.Main?p_objid=705&p_spraak=N", "score": 0.01}}, {"type": "Feature", "geometry": {"type": "Point", "coordinates": [24.77967, 69.11822]}, "properties": {"name": "Sargejåk", "objtype": "MalmRegistrering", "okey": "751", "faktaark": "https://aps.ngu.no/pls/oradb/minres_deposit_fakta.Main?p_objid=751&p_spraak=N", "score": 0.08}}, {"type": "Feature", "geometry": {"type": "Point", "coordinates": [25.63021, 68.92162]}, "properties": {"name": "Caskinjohka", "objtype": "MalmRegistrering", "okey": "695", "faktaark": "https://aps.ngu.no/pls/oradb/minres_deposit_fakta.Main?p_objid=695&p_spraak=N", "score": 0.08}}, {"type": "Feature", "geometry": {"type": "Point", "coordinates": [12.46345, 65.71416]}, "properties": {"name": "Forvika", "objtype": "MalmRegistrering", "okey": "2199", "faktaark": "https://aps.ngu.no/pls/oradb/minres_deposit_fakta.Main?p_objid=2199&p_spraak=N", "score": 0.47}}, {"type": "Feature", "geometry": {"type": "Point", "coordinates": [12.09741, 65.09593]}, "properties": {"name": "Amundslia", "objtype": "MalmRegistrering", "okey": "2505", "faktaark": "https://aps.ngu.no/pls/oradb/minres_deposit_fakta.Main?p_objid=2505&p_spraak=N", "score": 0.46}}, {"type": "Feature", "geometry": {"type": "Point", "coordinates": [5.16789, 59.71044]}, "properties": {"name": "BØMLO", "objtype": "MalmRegistrering", "okey": "4733", "faktaark": "https://aps.ngu.no/pls/oradb/minres_deposit_fakta.Main?p_objid=4733&p_spraak=N", "score": 0.85}}, {"type": "Feature", "geometry": {"type": "Point", "coordinates": [5.1771, 59.69992]}, "properties": {"name": "BØMLO", "objtype": "MalmRegistrering", "okey": "4738", "faktaark": "https://aps.ngu.no/pls/oradb/minres_deposit_fakta.Main?p_objid=4738&p_spraak=N", "score": 0.94}}, {"type": "Feature", "geometry": {"type": "Point", "coordinates": [5.18635, 59.7748]}, "properties": {"name": "Meland", "objtype": "MalmRegistrering", "okey": "4750", "faktaark": "https://aps.ngu.no/pls/oradb/minres_deposit_fakta.Main?p_objid=4750&p_spraak=N", "score": 0.91}}, {"type": "Feature", "geometry": {"type": "Point", "coordinates": [15.73823, 66.71094]}, "properties": {"name": "Kulokkarhaugen", "objtype": "MalmRegistrering", "okey": "2589", "faktaark": "https://aps.ngu.no/pls/oradb/minres_deposit_fakta.Main?p_objid=2589&p_spraak=N", "score": 0.33}}, {"type": "Feature", "geometry": {"type": "Point", "coordinates": [13.56571, 65.69978]}, "properties": {"name": "Jamtfjellet", "objtype": "MalmRegistrering", "okey": "2841", "faktaark": "https://aps.ngu.no/pls/oradb/minres_deposit_fakta.Main?p_objid=2841&p_spraak=N", "score": 0.44}}, {"type": "Feature", "geometry": {"type": "Point", "coordinates": [13.94865, 65.45147]}, "properties": {"name": "Kvalpskardtjønn", "objtype": "MalmRegistrering", "okey": "2862", "faktaark": "https://aps.ngu.no/pls/oradb/minres_deposit_fakta.Main?p_objid=2862&p_spraak=N", "score": 0.84}}, {"type": "Feature", "geometry": {"type": "Point", "coordinates": [12.872, 65.24951]}, "properties": {"name": "Røyskattdalen", "objtype": "MalmRegistrering", "okey": "2917", "faktaark": "https://aps.ngu.no/pls/oradb/minres_deposit_fakta.Main?p_objid=2917&p_spraak=N", "score": 0.86}}, {"type": "Feature", "geometry": {"type": "Point", "coordinates": [12.94331, 65.25508]}, "properties": {"name": "Kjelviktindaksla", "objtype": "MalmRegistrering", "okey": "2926", "faktaark": "https://aps.ngu.no/pls/oradb/minres_deposit_fakta.Main?p_objid=2926&p_spraak=N", "score": 0.78}}, {"type": "Feature", "geometry": {"type": "Point", "coordinates": [12.80911, 65.13747]}, "properties": {"name": "Øvre Bogadalen", "objtype": "MalmRegistrering", "okey": "2928", "faktaark": "https://aps.ngu.no/pls/oradb/minres_deposit_fakta.Main?p_objid=2928&p_spraak=N", "score": 0.43}}, {"type": "Feature", "geometry": {"type": "Point", "coordinates": [12.86678, 65.1682]}, "properties": {"name": "Grytendalen", "objtype": "MalmRegistrering", "okey": "2931", "faktaark": "https://aps.ngu.no/pls/oradb/minres_deposit_fakta.Main?p_objid=2931&p_spraak=N", "score": 0.3}}, {"type": "Feature", "geometry": {"type": "Point", "coordinates": [12.67999, 65.32163]}, "properties": {"name": "Sausvatn", "objtype": "MalmRegistrering", "okey": "2935", "faktaark": "https://aps.ngu.no/pls/oradb/minres_deposit_fakta.Main?p_objid=2935&p_spraak=N", "score": 0.48}}, {"type": "Feature", "geometry": {"type": "Point", "coordinates": [11.42203, 60.32203]}, "properties": {"name": "Utsjøen gruve", "objtype": "MalmRegistrering", "okey": "6487", "faktaark": "https://aps.ngu.no/pls/oradb/minres_deposit_fakta.Main?p_objid=6487&p_spraak=N", "score": 0.94}}, {"type": "Feature", "geometry": {"type": "Point", "coordinates": [11.41471, 60.33696]}, "properties": {"name": "Gamle Utsjøen gruve", "objtype": "MalmRegistrering", "okey": "15846", "faktaark": "https://aps.ngu.no/pls/oradb/minres_deposit_fakta.Main?p_objid=15846&p_spraak=N", "score": 0.95}}, {"type": "Feature", "geometry": {"type": "Point", "coordinates": [25.48969, 69.45704]}, "properties": {"name": "Niitusjohka", "objtype": "MalmRegistrering", "okey": "15961", "faktaark": "https://aps.ngu.no/pls/oradb/minres_deposit_fakta.Main?p_objid=15961&p_spraak=N", "score": 0.0}}, {"type": "Feature", "geometry": {"type": "Point", "coordinates": [8.72298, 58.42078]}, "properties": {"name": "NATVIK", "objtype": "MalmRegistrering", "okey": "5228", "faktaark": "https://aps.ngu.no/pls/oradb/minres_deposit_fakta.Main?p_objid=5228&p_spraak=N", "score": 0.5}}, {"type": "Feature", "geometry": {"type": "Point", "coordinates": [8.55581, 59.59237]}, "properties": {"name": "Bleka", "objtype": "MalmRegistrering", "okey": "5433", "faktaark": "https://aps.ngu.no/pls/oradb/minres_deposit_fakta.Main?p_objid=5433&p_spraak=N", "score": 0.52}}, {"type": "Feature", "geometry": {"type": "Point", "coordinates": [9.03951, 58.84865]}, "properties": {"name": "Vekselmyr", "objtype": "MalmRegistrering", "okey": "5290", "faktaark": "https://aps.ngu.no/pls/oradb/minres_deposit_fakta.Main?p_objid=5290&p_spraak=N", "score": 0.42}}, {"type": "Feature", "geometry": {"type": "Point", "coordinates": [5.16574, 59.70475]}, "properties": {"name": "Bømlo, H. Hårfagres gang", "objtype": "MalmRegistrering", "okey": "4732", "faktaark": "https://aps.ngu.no/pls/oradb/minres_deposit_fakta.Main?p_objid=4732&p_spraak=N", "score": 0.85}}, {"type": "Feature", "geometry": {"type": "Point", "coordinates": [5.16948, 59.70887]}, "properties": {"name": "Bømlo, Daw", "objtype": "MalmRegistrering", "okey": "4735", "faktaark": "https://aps.ngu.no/pls/oradb/minres_deposit_fakta.Main?p_objid=4735&p_spraak=N", "score": 0.85}}, {"type": "Feature", "geometry": {"type": "Point", "coordinates": [5.16988, 59.7097]}, "properties": {"name": "Bømlo, Oscargangen", "objtype": "MalmRegistrering", "okey": "4736", "faktaark": "https://aps.ngu.no/pls/oradb/minres_deposit_fakta.Main?p_objid=4736&p_spraak=N", "score": 0.85}}, {"type": "Feature", "geometry": {"type": "Point", "coordinates": [5.16804, 59.70997]}, "properties": {"name": "BØMLO", "objtype": "MalmRegistrering", "okey": "4733", "faktaark": "https://aps.ngu.no/pls/oradb/minres_deposit_fakta.Main?p_objid=4733&p_spraak=N", "score": 0.85}}, {"type": "Feature", "geometry": {"type": "Point", "coordinates": [23.7201, 70.41335]}, "properties": {"name": "Vesterdalen", "objtype": "MalmRegistrering", "okey": "910", "faktaark": "https://aps.ngu.no/pls/oradb/minres_deposit_fakta.Main?p_objid=910&p_spraak=N", "score": 0.46}}, {"type": "Feature", "geometry": {"type": "Point", "coordinates": [9.25393, 59.50872]}, "properties": {"name": "Simonesvihus", "objtype": "MalmRegistrering", "okey": "5411", "faktaark": "https://aps.ngu.no/pls/oradb/minres_deposit_fakta.Main?p_objid=5411&p_spraak=N", "score": 0.5}}, {"type": "Feature", "geometry": {"type": "Point", "coordinates": [12.0484, 60.38867]}, "properties": {"name": "Grinder", "objtype": "MalmRegistrering", "okey": "15879", "faktaark": "https://aps.ngu.no/pls/oradb/minres_deposit_fakta.Main?p_objid=15879&p_spraak=N", "score": 0.0}}, {"type": "Feature", "geometry": {"type": "Point", "coordinates": [5.2327, 59.72523]}, "properties": {"name": "Moane", "objtype": "MalmRegistrering", "okey": "4843", "faktaark": "https://aps.ngu.no/pls/oradb/minres_deposit_fakta.Main?p_objid=4843&p_spraak=N", "score": 0.93}}, {"type": "Feature", "geometry": {"type": "Point", "coordinates": [5.16851, 59.70928]}, "properties": {"name": "Haugesundgangen", "objtype": "MalmRegistrering", "okey": "4734", "faktaark": "https://aps.ngu.no/pls/oradb/minres_deposit_fakta.Main?p_objid=4734&p_spraak=N", "score": 0.85}}, {"type": "Feature", "geometry": {"type": "Point", "coordinates": [18.79946, 69.07802]}, "properties": {"name": "Mauken", "objtype": "MalmRegistrering", "okey": "32846", "faktaark": "https://aps.ngu.no/pls/oradb/minres_deposit_fakta.Main?p_objid=32846&p_spraak=N", "score": 0.47}}, {"type": "Feature", "geometry": {"type": "Point", "coordinates": [22.46253, 69.29997]}, "properties": {"name": "Bidjovagge", "objtype": "MalmProspekt", "okey": "34905", "faktaark": "https://aps.ngu.no/pls/oradb/minres_deposit_fakta.Main?p_objid=34905&p_spraak=N", "score": 0.35}}, {"type": "Feature", "geometry": {"type": "Point", "coordinates": [12.67169, 65.16889]}, "properties": {"name": "Reppen prospekt", "objtype": "MalmProspekt", "okey": "36419", "faktaark": "https://aps.ngu.no/pls/oradb/minres_deposit_fakta.Main?p_objid=36419&p_spraak=N", "score": 0.42}}, {"type": "Feature", "geometry": {"type": "Point", "coordinates": [14.41323, 65.83088]}, "properties": {"name": "Kilvassaksla", "objtype": "MalmRegistrering", "okey": "2894", "faktaark": "https://aps.ngu.no/pls/oradb/minres_deposit_fakta.Main?p_objid=2894&p_spraak=N", "score": 0.41}}, {"type": "Feature", "geometry": {"type": "Point", "coordinates": [11.58036, 60.45707]}, "properties": {"name": "Storgruva", "objtype": "MalmRegistrering", "okey": "39559", "faktaark": "https://aps.ngu.no/pls/oradb/minres_deposit_fakta.Main?p_objid=39559&p_spraak=N", "score": 0.55}}, {"type": "Feature", "geometry": {"type": "Point", "coordinates": [5.24366, 59.7499]}, "properties": {"name": "T-krysset", "objtype": "MalmRegistrering", "okey": "4867", "faktaark": "https://aps.ngu.no/pls/oradb/minres_deposit_fakta.Main?p_objid=4867&p_spraak=N", "score": 0.94}}, {"type": "Feature", "geometry": {"type": "Point", "coordinates": [17.76951, 68.0685]}, "properties": {"name": "Gautelisvann", "objtype": "MalmRegistrering", "okey": "40384", "faktaark": "https://aps.ngu.no/pls/oradb/minres_deposit_fakta.Main?p_objid=40384&p_spraak=N", "score": 0.33}}, {"type": "Feature", "geometry": {"type": "Point", "coordinates": [17.71913, 68.05521]}, "properties": {"name": "Gautelis", "objtype": "MalmRegistrering", "okey": "2379", "faktaark": "https://aps.ngu.no/pls/oradb/minres_deposit_fakta.Main?p_objid=2379&p_spraak=N", "score": 0.45}}, {"type": "Feature", "geometry": {"type": "Point", "coordinates": [12.80497, 65.16884]}, "properties": {"name": "Kolsvik", "objtype": "MalmForekomst", "okey": "2182", "faktaark": "https://aps.ngu.no/pls/oradb/minres_deposit_fakta.Main?p_objid=2182&p_spraak=N", "score": 0.48}}]}