{
"type": "FeatureCollection",
"features": [
{
"type": "Feature",
"geometry": {
"type": "Point",
"coordinates": [
5.75211,
60.56531
]
},
"properties": {
"elv": "Kalddalselva",
"km": 1.6,
"z": 8.63,
"S": 0.23,
"Q": 50.56,
"w": 40.8,
"w_q": 21.33,
"h": 0.28,
"tau": 624.57,
"tau_c": 349.64,
"omega": 2801.08,
"M": 1.79,
"D": -0.0,
"R": 0.96,
"sving": 0.52,
"os": 0.06,
"os_navn": "sideelv",
"foss": 1.0,
"foss_drop": 51.69,
"juv": 0.0,
"B": 1.03,
"frac_fav": 1.0,
"d_gull_km": 57.22,
"berg": "Migmatitt | Migmatittisk gneis, migmatitt, lokalt kvartsrik gneis og kvartsitt, stedvis rik på granittiske intrusiver, e=eklogitt | Nær stedeget grunnfjell",
"p_raw": 0.49,
"A_km2": 202.23,
"gate": 1.0,
"P": 100.0,
"rank": 1,
"klasse": "A",
"d_vei_m": 21,
"vei_navn": "Hellevegen",
"d_sti_m": 30,
"d_parkering_m": 1242,
"adkomst": "Lett: bilvei 21 m unna (Hellevegen). Parkering 1242 m unna.",
"navn": "Hellestræet (Kalddalselva)",
"hvorfor": "Foss/stryk rett oppstrøms (52 m fall på 100 m) – fossekulp og fjell i dagen. Skarp sving – grav på innersvingen og bak store steiner. τ = 625 Pa ≈ 1.8× terskelen: sand og grus flyttes ved flom, gull blir liggende (retensjon). Berggrunn: Migmatitt (100 % gunstig oppstrøms).",
"s2_anomali": 4.0,
"s2_feox_z": 46.01,
"satsjekk": "Automatisk bildeanalyse: tett vegetasjon – elva delvis skjult."
}
},
{
"type": "Feature",
"geometry": {
"type": "Point",
"coordinates": [
5.77231,
60.57881
]
},
"properties": {
"elv": "bekk",
"km": 1.4,
"z": 1.69,
"S": 0.11,
"Q": 49.76,
"w": 51.99,
"w_q": 21.16,
"h": 0.29,
"tau": 321.68,
"tau_c": 243.3,
"omega": 1047.59,
"M": 1.32,
"D": 0.17,
"R": 0.98,
"sving": 0.2,
"os": 0.3,
"os_navn": "Daleelva",
"foss": 0.51,
"foss_drop": 34.27,
"juv": 0.0,
"B": 0.88,
"frac_fav": 0.75,
"d_gull_km": 58.99,
"berg": "Migmatitt | Migmatittisk gneis, migmatitt, lokalt kvartsrik gneis og kvartsitt, stedvis rik på granittiske intrusiver, e=eklogitt | Nær stedeget grunnfjell",
"p_raw": 0.38,
"A_km2": 199.05,
"gate": 1.0,
"P": 76.92,
"rank": 2,
"klasse": "A",
"d_vei_m": 26,
"vei_navn": "Hellevegen",
"d_sti_m": 1216,
"d_parkering_m": 1299,
"adkomst": "Lett: bilvei 26 m unna (Hellevegen). Parkering 1299 m unna.",
"navn": "Tveite (bekk)",
"hvorfor": "Foss/stryk rett oppstrøms (34 m fall på 100 m) – fossekulp og fjell i dagen. τ = 322 Pa ≈ 1.3× terskelen: sand og grus flyttes ved flom, gull blir liggende (retensjon). Berggrunn: Migmatitt (75 % gunstig oppstrøms).",
"s2_anomali": 3.2,
"s2_feox_z": 0.72,
"satsjekk": "Automatisk bildeanalyse: tett vegetasjon – elva delvis skjult."
}
},
{
"type": "Feature",
"geometry": {
"type": "Point",
"coordinates": [
5.54443,
60.58091
]
},
"properties": {
"elv": "Herlandselva",
"km": 1.4,
"z": 29.77,
"S": 0.11,
"Q": 15.58,
"w": 24.0,
"w_q": 11.84,
"h": 0.23,
"tau": 254.49,
"tau_c": 242.52,
"omega": 705.88,
"M": 1.05,
"D": 0.07,
"R": 0.84,
"sving": 0.25,
"os": 0.0,
"os_navn": "",
"foss": 1.0,
"foss_drop": 20.55,
"juv": 0.0,
"B": 0.91,
"frac_fav": 1.0,
"d_gull_km": 56.59,
"berg": "Grønnskifer | Grønnskifer, stedvis metagabbro, glimmerskifer og ganger av trondhjemitt til dioritt | Øvre kaledonske dekkeserie",
"p_raw": 0.37,
"A_km2": 62.31,
"gate": 1.0,
"P": 76.08,
"rank": 3,
"klasse": "A",
"d_vei_m": 22,
"vei_navn": "service",
"d_sti_m": 684,
"d_parkering_m": 1086,
"adkomst": "Lett: bilvei 22 m unna (service). Parkering 1086 m unna.",
"navn": "Herlandsfossen (Herlandselva)",
"hvorfor": "Foss/stryk rett oppstrøms (21 m fall på 100 m) – fossekulp og fjell i dagen. τ = 254 Pa ≈ 1.0× terskelen: sand og grus flyttes ved flom, gull blir liggende (retensjon). Berggrunn: Grønnskifer (100 % gunstig oppstrøms).",
"s2_anomali": 0.45,
"s2_feox_z": -0.07,
"satsjekk": "Automatisk bildeanalyse: tett vegetasjon – elva delvis skjult."
}
},
{
"type": "Feature",
"geometry": {
"type": "Point",
"coordinates": [
5.54244,
60.70788
]
},
"properties": {
"elv": "Eikefetelva",
"km": 1.3,
"z": 32.65,
"S": 0.04,
"Q": 16.98,
"w": 35.52,
"w_q": 12.36,
"h": 0.27,
"tau": 102.49,
"tau_c": 144.59,
"omega": 184.76,
"M": 0.71,
"D": 0.02,
"R": 0.46,
"sving": 0.25,
"os": 0.73,
"os_navn": "Fitjaelva",
"foss": 1.0,
"foss_drop": 9.05,
"juv": 0.0,
"B": 0.9,
"frac_fav": 0.96,
"d_gull_km": 70.71,
"berg": "Granodiorittisk gneis | Monzogranittisk til granodiorittisk gneis, fin- til middelskornet, grå, stedvis båndet, stedvis kvartsrik gneis og kvartsitt, gjennomsatt av granittiske ganger og stedvis av granitt omdannet til øyegn | Nær stedeget grunnfjell",
"p_raw": 0.37,
"A_km2": 67.9,
"gate": 1.0,
"P": 75.5,
"rank": 4,
"klasse": "A",
"d_vei_m": 55,
"vei_navn": "track",
"d_sti_m": 117,
"d_parkering_m": 7990,
"adkomst": "Lett: bilvei 55 m unna (track).",
"navn": "Eikemo (Eikefetelva)",
"hvorfor": "Foss/stryk rett oppstrøms (9 m fall på 100 m) – fossekulp og fjell i dagen. Os: Fitjaelva kommer inn her – grus og tyngre materiale legges i osen og bankehodet nedenfor. Berggrunn: Granodiorittisk gneis (96 % gunstig oppstrøms).",
"s2_anomali": 1.79,
"s2_feox_z": 1.79,
"satsjekk": "Automatisk bildeanalyse: grus/sandbanke synlig."
}
},
{
"type": "Feature",
"geometry": {
"type": "Point",
"coordinates": [
5.56182,
60.57813
]
},
"properties": {
"elv": "Herlandselva",
"km": 0.3,
"z": 114.34,
"S": 0.09,
"Q": 15.37,
"w": 33.15,
"w_q": 11.76,
"h": 0.2,
"tau": 182.32,
"tau_c": 221.19,
"omega": 419.53,
"M": 0.82,
"D": 0.11,
"R": 0.61,
"sving": 0.12,
"os": 0.0,
"os_navn": "",
"foss": 1.0,
"foss_drop": 17.23,
"juv": 0.0,
"B": 0.91,
"frac_fav": 1.0,
"d_gull_km": 56.38,
"berg": "Grønnskifer | Grønnskifer, stedvis metagabbro, glimmerskifer og ganger av trondhjemitt til dioritt | Øvre kaledonske dekkeserie",
"p_raw": 0.31,
"A_km2": 61.5,
"gate": 1.0,
"P": 63.22,
"rank": 5,
"klasse": "B",
"d_vei_m": 194,
"vei_navn": "service",
"d_sti_m": 1072,
"d_parkering_m": 306,
"adkomst": "Kort gange: bilvei 194 m unna. Parkering 306 m unna.",
"navn": "Løtveit (Herlandselva)",
"hvorfor": "Foss/stryk rett oppstrøms (17 m fall på 100 m) – fossekulp og fjell i dagen. τ = 182 Pa ≈ 0.8× terskelen: sand og grus flyttes ved flom, gull blir liggende (retensjon). Berggrunn: Grønnskifer (100 % gunstig oppstrøms).",
"s2_anomali": null,
"s2_feox_z": null,
"satsjekk": "Automatisk bildeanalyse: dypt/mørkt vann, tett vegetasjon – elva delvis skjult."
}
},
{
"type": "Feature",
"geometry": {
"type": "Point",
"coordinates": [
5.55006,
60.49813
]
},
"properties": {
"elv": "Hovdaelva",
"km": 1.7,
"z": 59.37,
"S": 0.1,
"Q": 4.51,
"w": 16.53,
"w_q": 6.37,
"h": 0.14,
"tau": 141.79,
"tau_c": 231.63,
"omega": 270.78,
"M": 0.61,
"D": 0.08,
"R": 0.33,
"sving": 0.12,
"os": 0.87,
"os_navn": "sideelv",
"foss": 0.72,
"foss_drop": 25.67,
"juv": 0.0,
"B": 0.78,
"frac_fav": 1.0,
"d_gull_km": 47.43,
"berg": "Båndgneis | Gneis og amfibolitt, stedvis båndet, stedvis migmatittisk | Midtre kaledonsk dekkeserie",
"p_raw": 0.28,
"A_km2": 18.05,
"gate": 1.0,
"P": 56.26,
"rank": 6,
"klasse": "B",
"d_vei_m": 69,
"vei_navn": "Gjerstad",
"d_sti_m": 343,
"d_parkering_m": 3339,
"adkomst": "Lett: bilvei 69 m unna (Gjerstad).",
"navn": "Varhaugen (Hovdaelva)",
"hvorfor": "Foss/stryk rett oppstrøms (26 m fall på 100 m) – fossekulp og fjell i dagen. Os: sideelv kommer inn her – grus og tyngre materiale legges i osen og bankehodet nedenfor. Berggrunn: Båndgneis (100 % gunstig oppstrøms).",
"s2_anomali": 1.02,
"s2_feox_z": 0.02,
"satsjekk": "Automatisk bildeanalyse: tett vegetasjon – elva delvis skjult."
}
},
{
"type": "Feature",
"geometry": {
"type": "Point",
"coordinates": [
5.54455,
60.71466
]
},
"properties": {
"elv": "Eikefetelva",
"km": 0.5,
"z": 65.7,
"S": 0.06,
"Q": 13.47,
"w": 27.23,
"w_q": 11.01,
"h": 0.24,
"tau": 135.28,
"tau_c": 173.53,
"omega": 275.59,
"M": 0.78,
"D": 0.01,
"R": 0.55,
"sving": 0.1,
"os": 0.0,
"os_navn": "",
"foss": 1.0,
"foss_drop": 9.36,
"juv": 0.02,
"B": 0.84,
"frac_fav": 0.9,
"d_gull_km": 71.47,
"berg": "Granodiorittisk gneis | Monzogranittisk til granodiorittisk gneis, fin- til middelskornet, grå, stedvis båndet, stedvis kvartsrik gneis og kvartsitt, gjennomsatt av granittiske ganger og stedvis av granitt omdannet til øyegn | Nær stedeget grunnfjell",
"p_raw": 0.26,
"A_km2": 53.9,
"gate": 1.0,
"P": 52.43,
"rank": 7,
"klasse": "B",
"d_vei_m": 166,
"vei_navn": "service",
"d_sti_m": 725,
"d_parkering_m": 8455,
"adkomst": "Kort gange: bilvei 166 m unna.",
"navn": "Pilatusjelet (Eikefetelva)",
"hvorfor": "Foss/stryk rett oppstrøms (9 m fall på 100 m) – fossekulp og fjell i dagen. Berggrunn: Granodiorittisk gneis (90 % gunstig oppstrøms).",
"s2_anomali": 1.25,
"s2_feox_z": 0.24,
"satsjekk": "Automatisk bildeanalyse: dypt/mørkt vann, tett vegetasjon – elva delvis skjult."
}
},
{
"type": "Feature",
"geometry": {
"type": "Point",
"coordinates": [
5.79259,
60.67621
]
},
"properties": {
"elv": "Øyadalselva",
"km": 0.3,
"z": 100.56,
"S": 0.01,
"Q": 7.92,
"w": 25.37,
"w_q": 8.44,
"h": 0.32,
"tau": 29.48,
"tau_c": 71.07,
"omega": 29.15,
"M": 0.41,
"D": 0.31,
"R": 0.1,
"sving": 0.98,
"os": 0.09,
"os_navn": "Øyaelva",
"foss": 0.37,
"foss_drop": 4.28,
"juv": 0.0,
"B": 0.84,
"frac_fav": 1.0,
"d_gull_km": 69.72,
"berg": "Granodiorittisk gneis | Monzogranittisk til granodiorittisk gneis, fin- til middelskornet, grå, stedvis båndet, stedvis kvartsrik gneis og kvartsitt, gjennomsatt av granittiske ganger og stedvis av granitt omdannet til øyegn | Nær stedeget grunnfjell",
"p_raw": 0.25,
"A_km2": 31.67,
"gate": 1.0,
"P": 51.43,
"rank": 8,
"klasse": "B",
"d_vei_m": 245,
"vei_navn": "Øyavegen",
"d_sti_m": 1908,
"d_parkering_m": 1631,
"adkomst": "Kort gange: bilvei 245 m unna.",
"navn": "Langøyna (Øyadalselva)",
"hvorfor": "Foss/stryk rett oppstrøms (4 m fall på 100 m) – fossekulp og fjell i dagen. Skarp sving – grav på innersvingen og bak store steiner. Strømeffekten faller 31 % over strekningen – tungt materiale slipper her. Berggrunn: Granodiorittisk gneis (100 % gunstig oppstrøms).",
"s2_anomali": 4.0,
"s2_feox_z": 23.62,
"satsjekk": "Automatisk bildeanalyse: ingen tydelige trekk."
}
},
{
"type": "Feature",
"geometry": {
"type": "Point",
"coordinates": [
5.36487,
60.49863
]
},
"properties": {
"elv": "bekk",
"km": 1.6,
"z": 43.84,
"S": 0.03,
"Q": 1.81,
"w": 9.67,
"w_q": 4.03,
"h": 0.16,
"tau": 49.31,
"tau_c": 127.51,
"omega": 56.21,
"M": 0.39,
"D": -0.0,
"R": 0.08,
"sving": 0.7,
"os": 0.84,
"os_navn": "sideelv",
"foss": 0.72,
"foss_drop": 7.97,
"juv": 0.0,
"B": 0.69,
"frac_fav": 1.0,
"d_gull_km": 47.28,
"berg": "Amfibolitt | Amfibolrik gneis til amfibolitt, stedvis granittisk gneis | Midtre kaledonsk dekkeserie",
"p_raw": 0.25,
"A_km2": 7.24,
"gate": 1.0,
"P": 50.04,
"rank": 9,
"klasse": "B",
"d_vei_m": 10,
"vei_navn": "Gandalen",
"d_sti_m": 101,
"d_parkering_m": 307,
"adkomst": "Lett: bilvei 10 m unna (Gandalen). Parkering 307 m unna.",
"navn": "Solbakken (bekk)",
"hvorfor": "Foss/stryk rett oppstrøms (8 m fall på 100 m) – fossekulp og fjell i dagen. Os: sideelv kommer inn her – grus og tyngre materiale legges i osen og bankehodet nedenfor. Skarp sving – grav på innersvingen og bak store steiner. Berggrunn: Amfibolitt (100 % gunstig oppstrøms).",
"s2_anomali": 1.51,
"s2_feox_z": -0.17,
"satsjekk": "Automatisk bildeanalyse: ingen tydelige trekk."
}
},
{
"type": "Feature",
"geometry": {
"type": "Point",
"coordinates": [
5.72942,
60.51089
]
},
"properties": {
"elv": "Ytråna",
"km": 1.3,
"z": 156.41,
"S": 0.49,
"Q": 4.55,
"w": 15.52,
"w_q": 6.4,
"h": 0.09,
"tau": 448.61,
"tau_c": 364.2,
"omega": 1422.3,
"M": 1.23,
"D": 0.0,
"R": 0.95,
"sving": 0.62,
"os": 0.0,
"os_navn": "",
"foss": 1.0,
"foss_drop": 74.36,
"juv": 0.0,
"B": 0.51,
"frac_fav": 0.4,
"d_gull_km": 51.05,
"berg": "",
"p_raw": 0.24,
"A_km2": 18.2,
"gate": 1.0,
"P": 49.63,
"rank": 10,
"klasse": "B",
"d_vei_m": 179,
"vei_navn": "Vaksdalsvegen",
"d_sti_m": 867,
"d_parkering_m": 3740,
"adkomst": "Kort gange: bilvei 179 m unna.",
"navn": "Andaberget (Ytråna)",
"hvorfor": "Foss/stryk rett oppstrøms (74 m fall på 100 m) – fossekulp og fjell i dagen. Skarp sving – grav på innersvingen og bak store steiner. τ = 449 Pa ≈ 1.2× terskelen: sand og grus flyttes ved flom, gull blir liggende (retensjon).",
"s2_anomali": null,
"s2_feox_z": null,
"satsjekk": "Automatisk bildeanalyse: tett vegetasjon – elva delvis skjult."
}
},
{
"type": "Feature",
"geometry": {
"type": "Point",
"coordinates": [
5.54153,
60.50442
]
},
"properties": {
"elv": "Hovdaelva",
"km": 2.6,
"z": 24.28,
"S": 0.02,
"Q": 4.93,
"w": 19.93,
"w_q": 6.66,
"h": 0.23,
"tau": 40.74,
"tau_c": 98.96,
"omega": 44.83,
"M": 0.41,
"D": 0.28,
"R": 0.1,
"sving": 1.0,
"os": 0.0,
"os_navn": "",
"foss": 0.51,
"foss_drop": 3.75,
"juv": 0.0,
"B": 0.79,
"frac_fav": 1.0,
"d_gull_km": 48.07,
"berg": "Båndgneis | Gneis og amfibolitt, stedvis båndet, stedvis migmatittisk | Midtre kaledonsk dekkeserie",
"p_raw": 0.24,
"A_km2": 19.74,
"gate": 1.0,
"P": 49.37,
"rank": 11,
"klasse": "B",
"d_vei_m": 85,
"vei_navn": "unclassified",
"d_sti_m": 206,
"d_parkering_m": 2498,
"adkomst": "Lett: bilvei 85 m unna (unclassified).",
"navn": "Solbjørg (Hovdaelva)",
"hvorfor": "Foss/stryk rett oppstrøms (4 m fall på 100 m) – fossekulp og fjell i dagen. Skarp sving – grav på innersvingen og bak store steiner. Berggrunn: Båndgneis (100 % gunstig oppstrøms).",
"s2_anomali": 1.9,
"s2_feox_z": 1.75,
"satsjekk": "Automatisk bildeanalyse: grus/sandbanke synlig, tett vegetasjon – elva delvis skjult."
}
},
{
"type": "Feature",
"geometry": {
"type": "Point",
"coordinates": [
5.5046,
60.51849
]
},
"properties": {
"elv": "Lonelva",
"km": 1.8,
"z": 9.0,
"S": 0.02,
"Q": 14.6,
"w": 24.88,
"w_q": 11.46,
"h": 0.36,
"tau": 75.52,
"tau_c": 106.07,
"omega": 122.01,
"M": 0.71,
"D": -0.0,
"R": 0.46,
"sving": 0.02,
"os": 0.0,
"os_navn": "",
"foss": 1.0,
"foss_drop": 3.82,
"juv": 0.0,
"B": 0.9,
"frac_fav": 1.0,
"d_gull_km": 49.44,
"berg": "Båndgneis | Gneis og amfibolitt, stedvis båndet, stedvis migmatittisk | Midtre kaledonsk dekkeserie",
"p_raw": 0.24,
"A_km2": 58.38,
"gate": 1.0,
"P": 49.36,
"rank": 12,
"klasse": "B",
"d_vei_m": 42,
"vei_navn": "service",
"d_sti_m": 231,
"d_parkering_m": 515,
"adkomst": "Lett: bilvei 42 m unna (service). Parkering 515 m unna.",
"navn": "Giljafossen (Lonelva)",
"hvorfor": "Foss/stryk rett oppstrøms (4 m fall på 100 m) – fossekulp og fjell i dagen. Berggrunn: Båndgneis (100 % gunstig oppstrøms).",
"s2_anomali": null,
"s2_feox_z": null,
"satsjekk": "Automatisk bildeanalyse: tett vegetasjon – elva delvis skjult."
}
},
{
"type": "Feature",
"geometry": {
"type": "Point",
"coordinates": [
5.78692,
60.58092
]
},
"properties": {
"elv": "Daleelva",
"km": 0.6,
"z": 6.16,
"S": 0.01,
"Q": 49.26,
"w": 46.63,
"w_q": 21.06,
"h": 0.75,
"tau": 45.08,
"tau_c": 56.97,
"omega": 63.39,
"M": 0.79,
"D": 0.08,
"R": 0.57,
"sving": 0.47,
"os": 0.0,
"os_navn": "",
"foss": 0.0,
"foss_drop": 0.0,
"juv": 0.0,
"B": 1.03,
"frac_fav": 1.0,
"d_gull_km": 59.47,
"berg": "Granittisk gneis | Monzogranittisk til granodiorittisk gneis, fin- til middelskornet, grå, stedvis båndet, stedvis kvartsrik gneis og kvartsitt, gjennomsatt av granittiske ganger og stedvis av granitt omdannet til øyegn | Nær stedeget grunnfjell",
"p_raw": 0.23,
"A_km2": 197.03,
"gate": 1.0,
"P": 47.63,
"rank": 13,
"klasse": "B",
"d_vei_m": 16,
"vei_navn": "Vaksdalsvegen",
"d_sti_m": 385,
"d_parkering_m": 464,
"adkomst": "Lett: bilvei 16 m unna (Vaksdalsvegen). Parkering 464 m unna.",
"navn": "Dalegarden (Daleelva)",
"hvorfor": "Berggrunn: Granittisk gneis (100 % gunstig oppstrøms).",
"s2_anomali": 1.45,
"s2_feox_z": 0.26,
"satsjekk": "Automatisk bildeanalyse: ingen tydelige trekk."
}
},
{
"type": "Feature",
"geometry": {
"type": "Point",
"coordinates": [
5.52523,
60.7101
]
},
"properties": {
"elv": "Fitjaelva",
"km": 2.0,
"z": 223.61,
"S": 0.09,
"Q": 3.13,
"w": 14.78,
"w_q": 5.31,
"h": 0.13,
"tau": 116.29,
"tau_c": 224.06,
"omega": 196.79,
"M": 0.52,
"D": 0.0,
"R": 0.21,
"sving": 0.32,
"os": 0.75,
"os_navn": "Setreelva",
"foss": 1.0,
"foss_drop": 15.71,
"juv": 0.0,
"B": 0.6,
"frac_fav": 0.68,
"d_gull_km": 70.88,
"berg": "Migmatitt | Migmatittisk gneis, migmatitt, lokalt kvartsrik gneis og kvartsitt, stedvis rik på granittiske intrusiver, e=eklogitt | Nær stedeget grunnfjell",
"p_raw": 0.22,
"A_km2": 12.53,
"gate": 1.0,
"P": 44.58,
"rank": 14,
"klasse": "C",
"d_vei_m": 706,
"vei_navn": "Eikemovegen",
"d_sti_m": 845,
"d_parkering_m": 7286,
"adkomst": "Gange 0.7 km fra nærmeste bilvei.",
"navn": "Geithøyen (Fitjaelva)",
"hvorfor": "Foss/stryk rett oppstrøms (16 m fall på 100 m) – fossekulp og fjell i dagen. Os: Setreelva kommer inn her – grus og tyngre materiale legges i osen og bankehodet nedenfor. Berggrunn: Migmatitt (68 % gunstig oppstrøms).",
"s2_anomali": 0.65,
"s2_feox_z": 0.48,
"satsjekk": "Automatisk bildeanalyse: grus/sandbanke synlig, dypt/mørkt vann."
}
},
{
"type": "Feature",
"geometry": {
"type": "Point",
"coordinates": [
5.65778,
60.50806
]
},
"properties": {
"elv": "Kupelva",
"km": 1.2,
"z": 270.1,
"S": 0.04,
"Q": 0.96,
"w": 8.7,
"w_q": 2.94,
"h": 0.11,
"tau": 45.98,
"tau_c": 152.52,
"omega": 47.41,
"M": 0.3,
"D": 0.13,
"R": 0.03,
"sving": 0.89,
"os": 0.27,
"os_navn": "sideelv",
"foss": 1.0,
"foss_drop": 7.24,
"juv": 0.0,
"B": 0.59,
"frac_fav": 0.92,
"d_gull_km": 49.64,
"berg": "Kvartsskifer | Mylonittgneis, dannet av av feltspat-kvartsskifer og granittiske bergarter | Øvre kaledonske dekkeserie",
"p_raw": 0.21,
"A_km2": 3.83,
"gate": 1.0,
"P": 43.04,
"rank": 15,
"klasse": "C",
"d_vei_m": 97,
"vei_navn": "unclassified",
"d_sti_m": 112,
"d_parkering_m": 1292,
"adkomst": "Lett: bilvei 97 m unna (unclassified). Parkering 1292 m unna.",
"navn": "Stadsberget (Kupelva)",
"hvorfor": "Foss/stryk rett oppstrøms (7 m fall på 100 m) – fossekulp og fjell i dagen. Skarp sving – grav på innersvingen og bak store steiner. Berggrunn: Kvartsskifer (92 % gunstig oppstrøms).",
"s2_anomali": null,
"s2_feox_z": null,
"satsjekk": "Automatisk bildeanalyse: grus/sandbanke synlig."
}
},
{
"type": "Feature",
"geometry": {
"type": "Point",
"coordinates": [
5.54678,
60.7017
]
},
"properties": {
"elv": "Eikefetelva",
"km": 2.1,
"z": 2.67,
"S": 0.02,
"Q": 17.13,
"w": 51.44,
"w_q": 12.42,
"h": 0.25,
"tau": 55.44,
"tau_c": 108.98,
"omega": 73.14,
"M": 0.51,
"D": 0.16,
"R": 0.2,
"sving": 0.24,
"os": 0.0,
"os_navn": "",
"foss": 0.51,
"foss_drop": 3.38,
"juv": 0.0,
"B": 0.91,
"frac_fav": 0.97,
"d_gull_km": 70.04,
"berg": "Granodiorittisk gneis | Monzogranittisk til granodiorittisk gneis, fin- til middelskornet, grå, stedvis båndet, stedvis kvartsrik gneis og kvartsitt, gjennomsatt av granittiske ganger og stedvis av granitt omdannet til øyegn | Nær stedeget grunnfjell",
"p_raw": 0.18,
"A_km2": 68.54,
"gate": 1.0,
"P": 35.6,
"rank": 16,
"klasse": "C",
"d_vei_m": 15,
"vei_navn": "service",
"d_sti_m": 794,
"d_parkering_m": 7929,
"adkomst": "Lett: bilvei 15 m unna (service).",
"navn": "Eikefet (Eikefetelva)",
"hvorfor": "Foss/stryk rett oppstrøms (3 m fall på 100 m) – fossekulp og fjell i dagen. Berggrunn: Granodiorittisk gneis (97 % gunstig oppstrøms).",
"s2_anomali": 0.91,
"s2_feox_z": 0.88,
"satsjekk": "Automatisk bildeanalyse: grus/sandbanke synlig."
}
},
{
"type": "Feature",
"geometry": {
"type": "Point",
"coordinates": [
5.75589,
60.60239
]
},
"properties": {
"elv": "Fyllåa",
"km": 0.4,
"z": 435.98,
"S": 0.41,
"Q": 0.37,
"w": 6.0,
"w_q": 2.0,
"h": 0.04,
"tau": 153.7,
"tau_c": 364.2,
"omega": 246.21,
"M": 0.42,
"D": 0.03,
"R": 0.11,
"sving": 1.0,
"os": 0.0,
"os_navn": "",
"foss": 1.0,
"foss_drop": 111.22,
"juv": 0.0,
"B": 0.52,
"frac_fav": 1.0,
"d_gull_km": 61.24,
"berg": "Migmatitt | Migmatittisk gneis, migmatitt, lokalt kvartsrik gneis og kvartsitt, stedvis rik på granittiske intrusiver, e=eklogitt | Nær stedeget grunnfjell",
"p_raw": 0.17,
"A_km2": 1.48,
"gate": 1.0,
"P": 35.25,
"rank": 17,
"klasse": "C",
"d_vei_m": 2690,
"vei_navn": "Hellevegen",
"d_sti_m": 2663,
"d_parkering_m": 3038,
"adkomst": "Avsides: 2.7 km fra bilvei – planlegg dagstur.",
"navn": "Fyllåa, km 0.4",
"hvorfor": "Foss/stryk rett oppstrøms (111 m fall på 100 m) – fossekulp og fjell i dagen. Skarp sving – grav på innersvingen og bak store steiner. Berggrunn: Migmatitt (100 % gunstig oppstrøms).",
"s2_anomali": null,
"s2_feox_z": null,
"satsjekk": "Automatisk bildeanalyse: dypt/mørkt vann."
}
},
{
"type": "Feature",
"geometry": {
"type": "Point",
"coordinates": [
5.71424,
60.59309
]
},
"properties": {
"elv": "Nardalselva",
"km": 2.1,
"z": 72.09,
"S": 0.43,
"Q": 0.45,
"w": 6.06,
"w_q": 2.02,
"h": 0.04,
"tau": 178.32,
"tau_c": 364.2,
"omega": 312.71,
"M": 0.49,
"D": 0.0,
"R": 0.18,
"sving": 0.73,
"os": 0.0,
"os_navn": "",
"foss": 1.0,
"foss_drop": 62.65,
"juv": 0.0,
"B": 0.54,
"frac_fav": 1.0,
"d_gull_km": 59.61,
"berg": "Migmatitt | Migmatittisk gneis, migmatitt, lokalt kvartsrik gneis og kvartsitt, stedvis rik på granittiske intrusiver, e=eklogitt | Nær stedeget grunnfjell",
"p_raw": 0.16,
"A_km2": 1.81,
"gate": 1.0,
"P": 33.45,
"rank": 18,
"klasse": "C",
"d_vei_m": 2718,
"vei_navn": "track",
"d_sti_m": 873,
"d_parkering_m": 4338,
"adkomst": "Avsides: 2.7 km fra bilvei – planlegg dagstur.",
"navn": "Nardalselva, km 2.1",
"hvorfor": "Foss/stryk rett oppstrøms (63 m fall på 100 m) – fossekulp og fjell i dagen. Skarp sving – grav på innersvingen og bak store steiner. Berggrunn: Migmatitt (100 % gunstig oppstrøms).",
"s2_anomali": null,
"s2_feox_z": null,
"satsjekk": "Automatisk bildeanalyse: tett vegetasjon – elva delvis skjult."
}
},
{
"type": "Feature",
"geometry": {
"type": "Point",
"coordinates": [
5.54686,
60.52353
]
},
"properties": {
"elv": "bekk",
"km": 0.9,
"z": 111.39,
"S": 0.11,
"Q": 0.8,
"w": 8.07,
"w_q": 2.68,
"h": 0.08,
"tau": 84.38,
"tau_c": 246.64,
"omega": 111.56,
"M": 0.34,
"D": 0.15,
"R": 0.05,
"sving": 0.53,
"os": 0.0,
"os_navn": "",
"foss": 1.0,
"foss_drop": 16.17,
"juv": 0.0,
"B": 0.6,
"frac_fav": 1.0,
"d_gull_km": 50.23,
"berg": "Båndgneis | Gneis og amfibolitt, stedvis båndet, stedvis migmatittisk | Midtre kaledonsk dekkeserie",
"p_raw": 0.16,
"A_km2": 3.2,
"gate": 1.0,
"P": 33.19,
"rank": 19,
"klasse": "C",
"d_vei_m": 60,
"vei_navn": "track",
"d_sti_m": 357,
"d_parkering_m": 1928,
"adkomst": "Lett: bilvei 60 m unna (track).",
"navn": "Brotna (bekk)",
"hvorfor": "Foss/stryk rett oppstrøms (16 m fall på 100 m) – fossekulp og fjell i dagen. Skarp sving – grav på innersvingen og bak store steiner. Berggrunn: Båndgneis (100 % gunstig oppstrøms).",
"s2_anomali": null,
"s2_feox_z": null,
"satsjekk": "Automatisk bildeanalyse: tett vegetasjon – elva delvis skjult."
}
},
{
"type": "Feature",
"geometry": {
"type": "Point",
"coordinates": [
5.64973,
60.51481
]
},
"properties": {
"elv": "Kupelva",
"km": 2.1,
"z": 218.16,
"S": 0.05,
"Q": 1.59,
"w": 11.63,
"w_q": 3.78,
"h": 0.12,
"tau": 54.83,
"tau_c": 158.0,
"omega": 63.01,
"M": 0.35,
"D": 0.1,
"R": 0.05,
"sving": 0.35,
"os": 0.09,
"os_navn": "sideelv",
"foss": 1.0,
"foss_drop": 8.28,
"juv": 0.0,
"B": 0.65,
"frac_fav": 0.95,
"d_gull_km": 50.26,
"berg": "Kvartsskifer | Mylonittgneis, dannet av av feltspat-kvartsskifer og granittiske bergarter | Øvre kaledonske dekkeserie",
"p_raw": 0.16,
"A_km2": 6.35,
"gate": 1.0,
"P": 33.12,
"rank": 20,
"klasse": "C",
"d_vei_m": 4,
"vei_navn": "service",
"d_sti_m": 450,
"d_parkering_m": 2163,
"adkomst": "Lett: bilvei 4 m unna (service).",
"navn": "Tangane (Kupelva)",
"hvorfor": "Foss/stryk rett oppstrøms (8 m fall på 100 m) – fossekulp og fjell i dagen. Berggrunn: Kvartsskifer (95 % gunstig oppstrøms).",
"s2_anomali": null,
"s2_feox_z": null,
"satsjekk": "Automatisk bildeanalyse: dypt/mørkt vann."
}
}
]
}