{"type": "FeatureCollection", "features": [{"type": "Feature", "geometry": {"type": "Point", "coordinates": [5.6288, 60.67616]}, "properties": {"type": "basemetall", "s2_oh_z": null, "s2_feox_z": null}}, {"type": "Feature", "geometry": {"type": "Point", "coordinates": [5.54897, 60.58335]}, "properties": {"type": "basemetall", "s2_oh_z": null, "s2_feox_z": null}}, {"type": "Feature", "geometry": {"type": "Point", "coordinates": [5.43211, 60.6077]}, "properties": {"type": "basemetall", "s2_oh_z": 3.72, "s2_feox_z": 0.99}}, {"type": "Feature", "geometry": {"type": "Point", "coordinates": [5.60994, 60.64647]}, "properties": {"type": "basemetall", "s2_oh_z": 1.94, "s2_feox_z": 1.45}}, {"type": "Feature", "geometry": {"type": "Point", "coordinates": [5.44867, 60.60175]}, "properties": {"type": "basemetall", "s2_oh_z": 11.07, "s2_feox_z": 2.58}}, {"type": "Feature", "geometry": {"type": "Point", "coordinates": [5.49567, 60.59433]}, "properties": {"type": "basemetall", "s2_oh_z": null, "s2_feox_z": null}}, {"type": "Feature", "geometry": {"type": "Point", "coordinates": [5.57581, 60.53144]}, "properties": {"type": "basemetall", "s2_oh_z": 1.3, "s2_feox_z": 0.32}}]}