<?xml version="1.0" encoding="UTF-8"?>
<gpx version="1.1" creator="gulloye" xmlns="http://www.topografix.com/GPX/1/1">
  <wpt lat="60.56531" lon="5.75211"><name>1 A – Hellestræet (Kalddalselva)</name><desc>Foss/stryk rett oppstrøms (52 m fall på 100 m) – fossekulp og fjell i dagen. Skarp sving – grav på innersvingen og bak store steiner. τ = 625 Pa ≈ 1.8× terskelen: sand og grus flyttes ved flom, gull blir liggende (retensjon). Berggrunn: Migmatitt (100 % gunstig oppstrøms).</desc></wpt>
  <wpt lat="60.57881" lon="5.77231"><name>2 A – Tveite (bekk)</name><desc>Foss/stryk rett oppstrøms (34 m fall på 100 m) – fossekulp og fjell i dagen. τ = 322 Pa ≈ 1.3× terskelen: sand og grus flyttes ved flom, gull blir liggende (retensjon). Berggrunn: Migmatitt (75 % gunstig oppstrøms).</desc></wpt>
  <wpt lat="60.58091" lon="5.54443"><name>3 A – Herlandsfossen (Herlandselva)</name><desc>Foss/stryk rett oppstrøms (21 m fall på 100 m) – fossekulp og fjell i dagen. τ = 254 Pa ≈ 1.0× terskelen: sand og grus flyttes ved flom, gull blir liggende (retensjon). Berggrunn: Grønnskifer (100 % gunstig oppstrøms).</desc></wpt>
  <wpt lat="60.70788" lon="5.54244"><name>4 A – Eikemo (Eikefetelva)</name><desc>Foss/stryk rett oppstrøms (9 m fall på 100 m) – fossekulp og fjell i dagen. Os: Fitjaelva kommer inn her – grus og tyngre materiale legges i osen og bankehodet nedenfor. Berggrunn: Granodiorittisk gneis (96 % gunstig oppstrøms).</desc></wpt>
  <wpt lat="60.57813" lon="5.56182"><name>5 B – Løtveit (Herlandselva)</name><desc>Foss/stryk rett oppstrøms (17 m fall på 100 m) – fossekulp og fjell i dagen. τ = 182 Pa ≈ 0.8× terskelen: sand og grus flyttes ved flom, gull blir liggende (retensjon). Berggrunn: Grønnskifer (100 % gunstig oppstrøms).</desc></wpt>
  <wpt lat="60.49813" lon="5.55006"><name>6 B – Varhaugen (Hovdaelva)</name><desc>Foss/stryk rett oppstrøms (26 m fall på 100 m) – fossekulp og fjell i dagen. Os: sideelv kommer inn her – grus og tyngre materiale legges i osen og bankehodet nedenfor. Berggrunn: Båndgneis (100 % gunstig oppstrøms).</desc></wpt>
  <wpt lat="60.71466" lon="5.54455"><name>7 B – Pilatusjelet (Eikefetelva)</name><desc>Foss/stryk rett oppstrøms (9 m fall på 100 m) – fossekulp og fjell i dagen. Berggrunn: Granodiorittisk gneis (90 % gunstig oppstrøms).</desc></wpt>
  <wpt lat="60.67621" lon="5.79259"><name>8 B – Langøyna (Øyadalselva)</name><desc>Foss/stryk rett oppstrøms (4 m fall på 100 m) – fossekulp og fjell i dagen. Skarp sving – grav på innersvingen og bak store steiner. Strømeffekten faller 31 % over strekningen – tungt materiale slipper her. Berggrunn: Granodiorittisk gneis (100 % gunstig oppstrøms).</desc></wpt>
  <wpt lat="60.49863" lon="5.36487"><name>9 B – Solbakken (bekk)</name><desc>Foss/stryk rett oppstrøms (8 m fall på 100 m) – fossekulp og fjell i dagen. Os: sideelv kommer inn her – grus og tyngre materiale legges i osen og bankehodet nedenfor. Skarp sving – grav på innersvingen og bak store steiner. Berggrunn: Amfibolitt (100 % gunstig oppstrøms).</desc></wpt>
  <wpt lat="60.51089" lon="5.72942"><name>10 B – Andaberget (Ytråna)</name><desc>Foss/stryk rett oppstrøms (74 m fall på 100 m) – fossekulp og fjell i dagen. Skarp sving – grav på innersvingen og bak store steiner. τ = 449 Pa ≈ 1.2× terskelen: sand og grus flyttes ved flom, gull blir liggende (retensjon).</desc></wpt>
  <wpt lat="60.50442" lon="5.54153"><name>11 B – Solbjørg (Hovdaelva)</name><desc>Foss/stryk rett oppstrøms (4 m fall på 100 m) – fossekulp og fjell i dagen. Skarp sving – grav på innersvingen og bak store steiner. Berggrunn: Båndgneis (100 % gunstig oppstrøms).</desc></wpt>
  <wpt lat="60.51849" lon="5.50460"><name>12 B – Giljafossen (Lonelva)</name><desc>Foss/stryk rett oppstrøms (4 m fall på 100 m) – fossekulp og fjell i dagen. Berggrunn: Båndgneis (100 % gunstig oppstrøms).</desc></wpt>
  <wpt lat="60.58092" lon="5.78692"><name>13 B – Dalegarden (Daleelva)</name><desc>Berggrunn: Granittisk gneis (100 % gunstig oppstrøms).</desc></wpt>
  <wpt lat="60.71010" lon="5.52523"><name>14 C – Geithøyen (Fitjaelva)</name><desc>Foss/stryk rett oppstrøms (16 m fall på 100 m) – fossekulp og fjell i dagen. Os: Setreelva kommer inn her – grus og tyngre materiale legges i osen og bankehodet nedenfor. Berggrunn: Migmatitt (68 % gunstig oppstrøms).</desc></wpt>
  <wpt lat="60.50806" lon="5.65778"><name>15 C – Stadsberget (Kupelva)</name><desc>Foss/stryk rett oppstrøms (7 m fall på 100 m) – fossekulp og fjell i dagen. Skarp sving – grav på innersvingen og bak store steiner. Berggrunn: Kvartsskifer (92 % gunstig oppstrøms).</desc></wpt>
  <wpt lat="60.70170" lon="5.54678"><name>16 C – Eikefet (Eikefetelva)</name><desc>Foss/stryk rett oppstrøms (3 m fall på 100 m) – fossekulp og fjell i dagen. Berggrunn: Granodiorittisk gneis (97 % gunstig oppstrøms).</desc></wpt>
  <wpt lat="60.60239" lon="5.75589"><name>17 C – Fyllåa, km 0.4</name><desc>Foss/stryk rett oppstrøms (111 m fall på 100 m) – fossekulp og fjell i dagen. Skarp sving – grav på innersvingen og bak store steiner. Berggrunn: Migmatitt (100 % gunstig oppstrøms).</desc></wpt>
  <wpt lat="60.59309" lon="5.71424"><name>18 C – Nardalselva, km 2.1</name><desc>Foss/stryk rett oppstrøms (63 m fall på 100 m) – fossekulp og fjell i dagen. Skarp sving – grav på innersvingen og bak store steiner. Berggrunn: Migmatitt (100 % gunstig oppstrøms).</desc></wpt>
  <wpt lat="60.52353" lon="5.54686"><name>19 C – Brotna (bekk)</name><desc>Foss/stryk rett oppstrøms (16 m fall på 100 m) – fossekulp og fjell i dagen. Skarp sving – grav på innersvingen og bak store steiner. Berggrunn: Båndgneis (100 % gunstig oppstrøms).</desc></wpt>
  <wpt lat="60.51481" lon="5.64973"><name>20 C – Tangane (Kupelva)</name><desc>Foss/stryk rett oppstrøms (8 m fall på 100 m) – fossekulp og fjell i dagen. Berggrunn: Kvartsskifer (95 % gunstig oppstrøms).</desc></wpt>
</gpx>