<?xml version="1.0" encoding="UTF-8"?>
<kml xmlns="http://www.opengis.net/kml/2.2"><Document>
<name>GULLØYE – Valestrandsfossen</name>
<Style id="kA"><IconStyle><color>ff2b39c0</color><scale>1.1</scale></IconStyle></Style>
<Style id="kB"><IconStyle><color>ff227ee6</color><scale>1.1</scale></IconStyle></Style>
<Style id="kC"><IconStyle><color>ff0fc4f1</color><scale>1.1</scale></IconStyle></Style>
<Placemark><name>1A Hellestræet (Kalddalselva)</name><styleUrl>#kA</styleUrl><description>P=100. Foss/stryk rett oppstrøms (52 m fall på 100 m) – fossekulp og fjell i dagen. Skarp sving – grav på innersvingen og bak store steiner. τ = 625 Pa ≈ 1.8× terskelen: sand og grus flyttes ved flom, gull blir liggende (retensjon). Berggrunn: Migmatitt (100 % gunstig oppstrøms). Lett: bilvei 21 m unna (Hellevegen). Parkering 1242 m unna.</description><Point><coordinates>5.75211,60.56531,0</coordinates></Point></Placemark>
<Placemark><name>2A Tveite (bekk)</name><styleUrl>#kA</styleUrl><description>P=77. Foss/stryk rett oppstrøms (34 m fall på 100 m) – fossekulp og fjell i dagen. τ = 322 Pa ≈ 1.3× terskelen: sand og grus flyttes ved flom, gull blir liggende (retensjon). Berggrunn: Migmatitt (75 % gunstig oppstrøms). Lett: bilvei 26 m unna (Hellevegen). Parkering 1299 m unna.</description><Point><coordinates>5.77231,60.57881,0</coordinates></Point></Placemark>
<Placemark><name>3A Herlandsfossen (Herlandselva)</name><styleUrl>#kA</styleUrl><description>P=76. Foss/stryk rett oppstrøms (21 m fall på 100 m) – fossekulp og fjell i dagen. τ = 254 Pa ≈ 1.0× terskelen: sand og grus flyttes ved flom, gull blir liggende (retensjon). Berggrunn: Grønnskifer (100 % gunstig oppstrøms). Lett: bilvei 22 m unna (service). Parkering 1086 m unna.</description><Point><coordinates>5.54443,60.58091,0</coordinates></Point></Placemark>
<Placemark><name>4A Eikemo (Eikefetelva)</name><styleUrl>#kA</styleUrl><description>P=75. Foss/stryk rett oppstrøms (9 m fall på 100 m) – fossekulp og fjell i dagen. Os: Fitjaelva kommer inn her – grus og tyngre materiale legges i osen og bankehodet nedenfor. Berggrunn: Granodiorittisk gneis (96 % gunstig oppstrøms). Lett: bilvei 55 m unna (track).</description><Point><coordinates>5.54244,60.70788,0</coordinates></Point></Placemark>
<Placemark><name>5B Løtveit (Herlandselva)</name><styleUrl>#kB</styleUrl><description>P=63. Foss/stryk rett oppstrøms (17 m fall på 100 m) – fossekulp og fjell i dagen. τ = 182 Pa ≈ 0.8× terskelen: sand og grus flyttes ved flom, gull blir liggende (retensjon). Berggrunn: Grønnskifer (100 % gunstig oppstrøms). Kort gange: bilvei 194 m unna. Parkering 306 m unna.</description><Point><coordinates>5.56182,60.57813,0</coordinates></Point></Placemark>
<Placemark><name>6B Varhaugen (Hovdaelva)</name><styleUrl>#kB</styleUrl><description>P=56. Foss/stryk rett oppstrøms (26 m fall på 100 m) – fossekulp og fjell i dagen. Os: sideelv kommer inn her – grus og tyngre materiale legges i osen og bankehodet nedenfor. Berggrunn: Båndgneis (100 % gunstig oppstrøms). Lett: bilvei 69 m unna (Gjerstad).</description><Point><coordinates>5.55006,60.49813,0</coordinates></Point></Placemark>
<Placemark><name>7B Pilatusjelet (Eikefetelva)</name><styleUrl>#kB</styleUrl><description>P=52. Foss/stryk rett oppstrøms (9 m fall på 100 m) – fossekulp og fjell i dagen. Berggrunn: Granodiorittisk gneis (90 % gunstig oppstrøms). Kort gange: bilvei 166 m unna.</description><Point><coordinates>5.54455,60.71466,0</coordinates></Point></Placemark>
<Placemark><name>8B Langøyna (Øyadalselva)</name><styleUrl>#kB</styleUrl><description>P=51. Foss/stryk rett oppstrøms (4 m fall på 100 m) – fossekulp og fjell i dagen. Skarp sving – grav på innersvingen og bak store steiner. Strømeffekten faller 31 % over strekningen – tungt materiale slipper her. Berggrunn: Granodiorittisk gneis (100 % gunstig oppstrøms). Kort gange: bilvei 245 m unna.</description><Point><coordinates>5.79259,60.67621,0</coordinates></Point></Placemark>
<Placemark><name>9B Solbakken (bekk)</name><styleUrl>#kB</styleUrl><description>P=50. Foss/stryk rett oppstrøms (8 m fall på 100 m) – fossekulp og fjell i dagen. Os: sideelv kommer inn her – grus og tyngre materiale legges i osen og bankehodet nedenfor. Skarp sving – grav på innersvingen og bak store steiner. Berggrunn: Amfibolitt (100 % gunstig oppstrøms). Lett: bilvei 10 m unna (Gandalen). Parkering 307 m unna.</description><Point><coordinates>5.36487,60.49863,0</coordinates></Point></Placemark>
<Placemark><name>10B Andaberget (Ytråna)</name><styleUrl>#kB</styleUrl><description>P=50. Foss/stryk rett oppstrøms (74 m fall på 100 m) – fossekulp og fjell i dagen. Skarp sving – grav på innersvingen og bak store steiner. τ = 449 Pa ≈ 1.2× terskelen: sand og grus flyttes ved flom, gull blir liggende (retensjon). Kort gange: bilvei 179 m unna.</description><Point><coordinates>5.72942,60.51089,0</coordinates></Point></Placemark>
<Placemark><name>11B Solbjørg (Hovdaelva)</name><styleUrl>#kB</styleUrl><description>P=49. Foss/stryk rett oppstrøms (4 m fall på 100 m) – fossekulp og fjell i dagen. Skarp sving – grav på innersvingen og bak store steiner. Berggrunn: Båndgneis (100 % gunstig oppstrøms). Lett: bilvei 85 m unna (unclassified).</description><Point><coordinates>5.54153,60.50442,0</coordinates></Point></Placemark>
<Placemark><name>12B Giljafossen (Lonelva)</name><styleUrl>#kB</styleUrl><description>P=49. Foss/stryk rett oppstrøms (4 m fall på 100 m) – fossekulp og fjell i dagen. Berggrunn: Båndgneis (100 % gunstig oppstrøms). Lett: bilvei 42 m unna (service). Parkering 515 m unna.</description><Point><coordinates>5.50460,60.51849,0</coordinates></Point></Placemark>
<Placemark><name>13B Dalegarden (Daleelva)</name><styleUrl>#kB</styleUrl><description>P=48. Berggrunn: Granittisk gneis (100 % gunstig oppstrøms). Lett: bilvei 16 m unna (Vaksdalsvegen). Parkering 464 m unna.</description><Point><coordinates>5.78692,60.58092,0</coordinates></Point></Placemark>
<Placemark><name>14C Geithøyen (Fitjaelva)</name><styleUrl>#kC</styleUrl><description>P=45. Foss/stryk rett oppstrøms (16 m fall på 100 m) – fossekulp og fjell i dagen. Os: Setreelva kommer inn her – grus og tyngre materiale legges i osen og bankehodet nedenfor. Berggrunn: Migmatitt (68 % gunstig oppstrøms). Gange 0.7 km fra nærmeste bilvei.</description><Point><coordinates>5.52523,60.71010,0</coordinates></Point></Placemark>
<Placemark><name>15C Stadsberget (Kupelva)</name><styleUrl>#kC</styleUrl><description>P=43. Foss/stryk rett oppstrøms (7 m fall på 100 m) – fossekulp og fjell i dagen. Skarp sving – grav på innersvingen og bak store steiner. Berggrunn: Kvartsskifer (92 % gunstig oppstrøms). Lett: bilvei 97 m unna (unclassified). Parkering 1292 m unna.</description><Point><coordinates>5.65778,60.50806,0</coordinates></Point></Placemark>
<Placemark><name>16C Eikefet (Eikefetelva)</name><styleUrl>#kC</styleUrl><description>P=36. Foss/stryk rett oppstrøms (3 m fall på 100 m) – fossekulp og fjell i dagen. Berggrunn: Granodiorittisk gneis (97 % gunstig oppstrøms). Lett: bilvei 15 m unna (service).</description><Point><coordinates>5.54678,60.70170,0</coordinates></Point></Placemark>
<Placemark><name>17C Fyllåa, km 0.4</name><styleUrl>#kC</styleUrl><description>P=35. Foss/stryk rett oppstrøms (111 m fall på 100 m) – fossekulp og fjell i dagen. Skarp sving – grav på innersvingen og bak store steiner. Berggrunn: Migmatitt (100 % gunstig oppstrøms). Avsides: 2.7 km fra bilvei – planlegg dagstur.</description><Point><coordinates>5.75589,60.60239,0</coordinates></Point></Placemark>
<Placemark><name>18C Nardalselva, km 2.1</name><styleUrl>#kC</styleUrl><description>P=33. Foss/stryk rett oppstrøms (63 m fall på 100 m) – fossekulp og fjell i dagen. Skarp sving – grav på innersvingen og bak store steiner. Berggrunn: Migmatitt (100 % gunstig oppstrøms). Avsides: 2.7 km fra bilvei – planlegg dagstur.</description><Point><coordinates>5.71424,60.59309,0</coordinates></Point></Placemark>
<Placemark><name>19C Brotna (bekk)</name><styleUrl>#kC</styleUrl><description>P=33. Foss/stryk rett oppstrøms (16 m fall på 100 m) – fossekulp og fjell i dagen. Skarp sving – grav på innersvingen og bak store steiner. Berggrunn: Båndgneis (100 % gunstig oppstrøms). Lett: bilvei 60 m unna (track).</description><Point><coordinates>5.54686,60.52353,0</coordinates></Point></Placemark>
<Placemark><name>20C Tangane (Kupelva)</name><styleUrl>#kC</styleUrl><description>P=33. Foss/stryk rett oppstrøms (8 m fall på 100 m) – fossekulp og fjell i dagen. Berggrunn: Kvartsskifer (95 % gunstig oppstrøms). Lett: bilvei 4 m unna (service).</description><Point><coordinates>5.64973,60.51481,0</coordinates></Point></Placemark>
</Document></kml>