{
"type": "FeatureCollection",
"features": [
{
"type": "Feature",
"geometry": {
"type": "Point",
"coordinates": [
13.15605,
65.67232
]
},
"properties": {
"elv": "Mølnbekken",
"km": 1.3,
"z": 122.39,
"S": 0.14,
"Q": 41.87,
"w": 37.35,
"w_q": 19.41,
"h": 0.3,
"tau": 410.06,
"tau_c": 270.01,
"omega": 1511.49,
"M": 1.52,
"D": 0.0,
"R": 1.0,
"sving": 0.95,
"os": 0.83,
"os_navn": "sideelv",
"foss": 0.72,
"foss_drop": 27.75,
"juv": 0.0,
"B": 0.83,
"frac_fav": 0.64,
"d_gull_km": 19.07,
"berg": "Glimmerskifer | Glimmerskifer og glimmergneis | Øverste kaledonske dekkeserie",
"p_raw": 0.52,
"A_km2": 232.64,
"gate": 1.0,
"P": 100.0,
"rank": 1,
"klasse": "A",
"d_vei_m": 75,
"vei_navn": "unclassified",
"d_sti_m": 5175,
"d_parkering_m": 4311,
"adkomst": "Lett: bilvei 75 m unna (unclassified).",
"navn": "Torjorda (Mølnbekken)",
"hvorfor": "Foss/stryk rett oppstrøms (28 m fall på 100 m) – fossekulp og fjell i dagen. Os: sideelv kommer inn her – grus og tyngre materiale legges i osen og bankehodet nedenfor. Skarp sving – grav på innersvingen og bak store steiner. τ = 410 Pa ≈ 1.5× terskelen: sand og grus flyttes ved flom, gull blir liggende (retensjon). Berggrunn: Glimmerskifer (64 % gunstig oppstrøms).",
"s2_anomali": 4.0,
"s2_feox_z": -1.06,
"satsjekk": "Automatisk bildeanalyse: dypt/mørkt vann."
}
},
{
"type": "Feature",
"geometry": {
"type": "Point",
"coordinates": [
13.19988,
65.69353
]
},
"properties": {
"elv": "Klubbelva",
"km": 3.4,
"z": 54.99,
"S": 0.11,
"Q": 48.69,
"w": 32.64,
"w_q": 20.93,
"h": 0.39,
"tau": 418.85,
"tau_c": 242.07,
"omega": 1616.12,
"M": 1.73,
"D": -0.0,
"R": 0.97,
"sving": 0.0,
"os": 0.58,
"os_navn": "Brennhaugbekken",
"foss": 1.0,
"foss_drop": 13.46,
"juv": 0.01,
"B": 1.06,
"frac_fav": 1.0,
"d_gull_km": 16.82,
"berg": "Glimmerskifer | Glimmerskifer og glimmergneis | Øverste kaledonske dekkeserie",
"p_raw": 0.51,
"A_km2": 270.51,
"gate": 1.0,
"P": 97.89,
"rank": 2,
"klasse": "A",
"d_vei_m": 102,
"vei_navn": "Eiterådalsvegen",
"d_sti_m": 2159,
"d_parkering_m": 1650,
"adkomst": "Lett: bilvei 102 m unna (Eiterådalsvegen).",
"navn": "Stormoida (Klubbelva)",
"hvorfor": "Foss/stryk rett oppstrøms (13 m fall på 100 m) – fossekulp og fjell i dagen. Os: Brennhaugbekken kommer inn her – grus og tyngre materiale legges i osen og bankehodet nedenfor. τ = 419 Pa ≈ 1.7× terskelen: sand og grus flyttes ved flom, gull blir liggende (retensjon). Berggrunn: Glimmerskifer (100 % gunstig oppstrøms).",
"s2_anomali": null,
"s2_feox_z": null,
"satsjekk": "Automatisk bildeanalyse: tett vegetasjon – elva delvis skjult."
}
},
{
"type": "Feature",
"geometry": {
"type": "Point",
"coordinates": [
13.21763,
65.72381
]
},
"properties": {
"elv": "Vefsna - Vaapstenjeanoe",
"km": 9.1,
"z": 3.04,
"S": 0.01,
"Q": 594.79,
"w": 133.79,
"w_q": 73.17,
"h": 1.59,
"tau": 136.42,
"tau_c": 68.02,
"omega": 380.38,
"M": 2.01,
"D": 0.39,
"R": 0.89,
"sving": 0.64,
"os": 0.38,
"os_navn": "sideelv",
"foss": 0.49,
"foss_drop": 4.8,
"juv": 0.04,
"B": 0.96,
"frac_fav": 0.53,
"d_gull_km": 16.2,
"berg": "Glimmerskifer | Glimmerskifer og granatglimmerskifer | Øverste kaledonske dekkeserie",
"p_raw": 0.51,
"A_km2": 3304.4,
"gate": 1.0,
"P": 97.83,
"rank": 3,
"klasse": "A",
"d_vei_m": 223,
"vei_navn": "track",
"d_sti_m": 2606,
"d_parkering_m": 3565,
"adkomst": "Kort gange: bilvei 223 m unna.",
"navn": "Stigmoen (Vefsna - Vaapstenjeanoe)",
"hvorfor": "Foss/stryk rett oppstrøms (5 m fall på 100 m) – fossekulp og fjell i dagen. Skarp sving – grav på innersvingen og bak store steiner. Strømeffekten faller 39 % over strekningen – tungt materiale slipper her. τ = 136 Pa ≈ 2.0× terskelen: sand og grus flyttes ved flom, gull blir liggende (retensjon). Berggrunn: Glimmerskifer (53 % gunstig oppstrøms).",
"s2_anomali": 2.08,
"s2_feox_z": 0.26,
"satsjekk": "Automatisk bildeanalyse: dypt/mørkt vann."
}
},
{
"type": "Feature",
"geometry": {
"type": "Point",
"coordinates": [
13.2154,
65.69389
]
},
"properties": {
"elv": "Eiteråga",
"km": 8.0,
"z": 28.58,
"S": 0.01,
"Q": 49.07,
"w": 28.61,
"w_q": 21.01,
"h": 0.85,
"tau": 92.66,
"tau_c": 76.86,
"omega": 187.36,
"M": 1.21,
"D": 0.12,
"R": 0.94,
"sving": 0.57,
"os": 0.0,
"os_navn": "",
"foss": 1.0,
"foss_drop": 3.17,
"juv": 0.12,
"B": 0.95,
"frac_fav": 0.8,
"d_gull_km": 16.1,
"berg": "Dioritt | Dioritt, dels med overgang til monzodioritt | Øverste kaledonske dekkeserie",
"p_raw": 0.48,
"A_km2": 272.59,
"gate": 1.0,
"P": 91.78,
"rank": 4,
"klasse": "A",
"d_vei_m": 242,
"vei_navn": "track",
"d_sti_m": 1540,
"d_parkering_m": 944,
"adkomst": "Kort gange: bilvei 242 m unna. Parkering 944 m unna.",
"navn": "Stormoida (Eiteråga)",
"hvorfor": "Foss/stryk rett oppstrøms (3 m fall på 100 m) – fossekulp og fjell i dagen. Skarp sving – grav på innersvingen og bak store steiner. τ = 93 Pa ≈ 1.2× terskelen: sand og grus flyttes ved flom, gull blir liggende (retensjon). Berggrunn: Dioritt (80 % gunstig oppstrøms).",
"s2_anomali": 3.4,
"s2_feox_z": 3.4,
"satsjekk": "Automatisk bildeanalyse: dypt/mørkt vann."
}
},
{
"type": "Feature",
"geometry": {
"type": "Point",
"coordinates": [
13.17671,
65.69204
]
},
"properties": {
"elv": "Eiteråga",
"km": 5.9,
"z": 80.05,
"S": 0.03,
"Q": 47.24,
"w": 32.0,
"w_q": 20.62,
"h": 0.57,
"tau": 165.57,
"tau_c": 124.88,
"omega": 425.67,
"M": 1.33,
"D": 0.21,
"R": 0.98,
"sving": 0.22,
"os": 0.0,
"os_navn": "",
"foss": 1.0,
"foss_drop": 10.92,
"juv": 0.01,
"B": 0.94,
"frac_fav": 0.79,
"d_gull_km": 17.89,
"berg": "Dioritt | Dioritt, dels med overgang til monzodioritt | Øverste kaledonske dekkeserie",
"p_raw": 0.44,
"A_km2": 262.42,
"gate": 1.0,
"P": 84.68,
"rank": 5,
"klasse": "A",
"d_vei_m": 111,
"vei_navn": "Eiterådalsvegen",
"d_sti_m": 3197,
"d_parkering_m": 2713,
"adkomst": "Lett: bilvei 111 m unna (Eiterådalsvegen).",
"navn": "Strupen (Eiteråga)",
"hvorfor": "Foss/stryk rett oppstrøms (11 m fall på 100 m) – fossekulp og fjell i dagen. τ = 166 Pa ≈ 1.3× terskelen: sand og grus flyttes ved flom, gull blir liggende (retensjon). Berggrunn: Dioritt (79 % gunstig oppstrøms).",
"s2_anomali": 0.48,
"s2_feox_z": -1.9,
"satsjekk": "Automatisk bildeanalyse: dypt/mørkt vann."
}
},
{
"type": "Feature",
"geometry": {
"type": "Point",
"coordinates": [
13.16355,
65.68692
]
},
"properties": {
"elv": "Eiteråga",
"km": 4.9,
"z": 109.28,
"S": 0.01,
"Q": 46.98,
"w": 34.0,
"w_q": 20.56,
"h": 0.71,
"tau": 88.58,
"tau_c": 82.04,
"omega": 171.98,
"M": 1.08,
"D": -0.0,
"R": 0.86,
"sving": 0.16,
"os": 0.34,
"os_navn": "Litlelva",
"foss": 1.0,
"foss_drop": 3.32,
"juv": 0.01,
"B": 0.93,
"frac_fav": 0.79,
"d_gull_km": 18.53,
"berg": "Dioritt | Dioritt, dels med overgang til monzodioritt | Øverste kaledonske dekkeserie",
"p_raw": 0.41,
"A_km2": 261.02,
"gate": 1.0,
"P": 79.03,
"rank": 6,
"klasse": "A",
"d_vei_m": 398,
"vei_navn": "Eiterådalsvegen",
"d_sti_m": 3981,
"d_parkering_m": 3379,
"adkomst": "Kort gange: bilvei 398 m unna.",
"navn": "Stormyra (Eiteråga)",
"hvorfor": "Foss/stryk rett oppstrøms (3 m fall på 100 m) – fossekulp og fjell i dagen. τ = 89 Pa ≈ 1.1× terskelen: sand og grus flyttes ved flom, gull blir liggende (retensjon). Berggrunn: Dioritt (79 % gunstig oppstrøms).",
"s2_anomali": 1.74,
"s2_feox_z": 0.39,
"satsjekk": "Automatisk bildeanalyse: dypt/mørkt vann."
}
},
{
"type": "Feature",
"geometry": {
"type": "Point",
"coordinates": [
13.24244,
65.70459
]
},
"properties": {
"elv": "Vefsna - Vaapstenjeanoe",
"km": 6.2,
"z": 14.27,
"S": 0.0,
"Q": 590.69,
"w": 140.0,
"w_q": 72.91,
"h": 2.89,
"tau": 31.39,
"tau_c": 24.24,
"omega": 45.84,
"M": 1.29,
"D": -0.0,
"R": 0.97,
"sving": 0.16,
"os": 0.87,
"os_navn": "Ramnåga",
"foss": 0.0,
"foss_drop": 0.0,
"juv": 0.0,
"B": 0.96,
"frac_fav": 0.52,
"d_gull_km": 14.85,
"berg": "Glimmerskifer | Glimmerskifer og granatglimmerskifer | Øverste kaledonske dekkeserie",
"p_raw": 0.38,
"A_km2": 3281.62,
"gate": 1.0,
"P": 73.08,
"rank": 7,
"klasse": "A",
"d_vei_m": 98,
"vei_navn": "service",
"d_sti_m": 222,
"d_parkering_m": 1359,
"adkomst": "Lett: bilvei 98 m unna (service). Parkering 1359 m unna.",
"navn": "Ramnåga (Vefsna - Vaapstenjeanoe)",
"hvorfor": "Os: Ramnåga kommer inn her – grus og tyngre materiale legges i osen og bankehodet nedenfor. τ = 31 Pa ≈ 1.3× terskelen: sand og grus flyttes ved flom, gull blir liggende (retensjon). Berggrunn: Glimmerskifer (52 % gunstig oppstrøms).",
"s2_anomali": 4.0,
"s2_feox_z": 0.94,
"satsjekk": "Automatisk bildeanalyse: dypt/mørkt vann, tett vegetasjon – elva delvis skjult."
}
},
{
"type": "Feature",
"geometry": {
"type": "Point",
"coordinates": [
13.50413,
65.84287
]
},
"properties": {
"elv": "Herringelva",
"km": 1.8,
"z": 69.56,
"S": 0.05,
"Q": 29.12,
"w": 37.43,
"w_q": 16.19,
"h": 0.34,
"tau": 152.15,
"tau_c": 155.45,
"omega": 347.67,
"M": 0.98,
"D": -0.0,
"R": 0.78,
"sving": 0.26,
"os": 0.44,
"os_navn": "Sagbekken",
"foss": 1.0,
"foss_drop": 5.82,
"juv": 0.0,
"B": 0.82,
"frac_fav": 0.67,
"d_gull_km": 16.2,
"berg": "Glimmerskifer | Glimmerskifer og glimmergneis | Øverste kaledonske dekkeserie",
"p_raw": 0.37,
"A_km2": 161.8,
"gate": 1.0,
"P": 71.0,
"rank": 8,
"klasse": "A",
"d_vei_m": 81,
"vei_navn": "service",
"d_sti_m": 3882,
"d_parkering_m": 4213,
"adkomst": "Lett: bilvei 81 m unna (service).",
"navn": "Setra (Herringelva)",
"hvorfor": "Foss/stryk rett oppstrøms (6 m fall på 100 m) – fossekulp og fjell i dagen. τ = 152 Pa ≈ 1.0× terskelen: sand og grus flyttes ved flom, gull blir liggende (retensjon). Berggrunn: Glimmerskifer (67 % gunstig oppstrøms).",
"s2_anomali": 4.0,
"s2_feox_z": 1.07,
"satsjekk": "Automatisk bildeanalyse: tett vegetasjon – elva delvis skjult."
}
},
{
"type": "Feature",
"geometry": {
"type": "Point",
"coordinates": [
13.24617,
65.6933
]
},
"properties": {
"elv": "Vefsna - Vaapstenjeanoe",
"km": 4.9,
"z": 16.6,
"S": 0.0,
"Q": 590.52,
"w": 133.88,
"w_q": 72.9,
"h": 2.36,
"tau": 54.59,
"tau_c": 35.37,
"omega": 102.05,
"M": 1.54,
"D": -0.0,
"R": 1.0,
"sving": 0.15,
"os": 0.76,
"os_navn": "Eiteråga",
"foss": 0.0,
"foss_drop": 0.0,
"juv": 0.0,
"B": 0.96,
"frac_fav": 0.52,
"d_gull_km": 14.69,
"berg": "Glimmerskifer | Glimmerskifer og granatglimmerskifer | Øverste kaledonske dekkeserie",
"p_raw": 0.37,
"A_km2": 3280.68,
"gate": 1.0,
"P": 70.92,
"rank": 9,
"klasse": "A",
"d_vei_m": 261,
"vei_navn": "track",
"d_sti_m": 1057,
"d_parkering_m": 483,
"adkomst": "Kort gange: bilvei 261 m unna. Parkering 483 m unna.",
"navn": "Eiterånesholmen (Vefsna - Vaapstenjeanoe)",
"hvorfor": "Os: Eiteråga kommer inn her – grus og tyngre materiale legges i osen og bankehodet nedenfor. τ = 55 Pa ≈ 1.5× terskelen: sand og grus flyttes ved flom, gull blir liggende (retensjon). Berggrunn: Glimmerskifer (52 % gunstig oppstrøms).",
"s2_anomali": 2.62,
"s2_feox_z": 0.85,
"satsjekk": "Automatisk bildeanalyse: dypt/mørkt vann."
}
},
{
"type": "Feature",
"geometry": {
"type": "Point",
"coordinates": [
13.22702,
65.71189
]
},
"properties": {
"elv": "Vefsna - Vaapstenjeanoe",
"km": 7.3,
"z": 12.82,
"S": 0.0,
"Q": 593.79,
"w": 76.0,
"w_q": 73.1,
"h": 5.96,
"tau": 22.87,
"tau_c": 14.41,
"omega": 29.98,
"M": 1.59,
"D": 0.4,
"R": 1.0,
"sving": 0.16,
"os": 0.13,
"os_navn": "sideelv",
"foss": 0.0,
"foss_drop": 0.0,
"juv": 0.05,
"B": 0.96,
"frac_fav": 0.52,
"d_gull_km": 15.61,
"berg": "Glimmerskifer | Glimmerskifer og granatglimmerskifer | Øverste kaledonske dekkeserie",
"p_raw": 0.36,
"A_km2": 3298.83,
"gate": 1.0,
"P": 69.89,
"rank": 10,
"klasse": "B",
"d_vei_m": 60,
"vei_navn": "Ramnåvegen",
"d_sti_m": 1230,
"d_parkering_m": 2175,
"adkomst": "Lett: bilvei 60 m unna (Ramnåvegen).",
"navn": "Moen (Vefsna - Vaapstenjeanoe)",
"hvorfor": "Strømeffekten faller 40 % over strekningen – tungt materiale slipper her. τ = 23 Pa ≈ 1.6× terskelen: sand og grus flyttes ved flom, gull blir liggende (retensjon). Berggrunn: Glimmerskifer (52 % gunstig oppstrøms).",
"s2_anomali": 4.0,
"s2_feox_z": -1.28,
"satsjekk": "Automatisk bildeanalyse: dypt/mørkt vann."
}
},
{
"type": "Feature",
"geometry": {
"type": "Point",
"coordinates": [
13.22839,
65.74322
]
},
"properties": {
"elv": "Vefsna - Vaapstenjeanoe",
"km": 11.5,
"z": 1.34,
"S": 0.0,
"Q": 595.82,
"w": 100.0,
"w_q": 73.23,
"h": 5.27,
"tau": 16.65,
"tau_c": 13.06,
"omega": 18.8,
"M": 1.27,
"D": 0.21,
"R": 0.96,
"sving": 0.34,
"os": 0.22,
"os_navn": "Ravassgjota",
"foss": 0.0,
"foss_drop": 0.0,
"juv": 0.0,
"B": 0.97,
"frac_fav": 0.53,
"d_gull_km": 16.22,
"berg": "Glimmerskifer | Glimmerskifer og granatglimmerskifer | Øverste kaledonske dekkeserie",
"p_raw": 0.36,
"A_km2": 3310.12,
"gate": 1.0,
"P": 68.26,
"rank": 11,
"klasse": "B",
"d_vei_m": 173,
"vei_navn": "Vestersidvegen",
"d_sti_m": 1600,
"d_parkering_m": 3684,
"adkomst": "Kort gange: bilvei 173 m unna.",
"navn": "Hamptjønna (Vefsna - Vaapstenjeanoe)",
"hvorfor": "τ = 17 Pa ≈ 1.3× terskelen: sand og grus flyttes ved flom, gull blir liggende (retensjon). Berggrunn: Glimmerskifer (53 % gunstig oppstrøms).",
"s2_anomali": 3.84,
"s2_feox_z": 0.57,
"satsjekk": "Automatisk bildeanalyse: grus/sandbanke synlig, dypt/mørkt vann."
}
},
{
"type": "Feature",
"geometry": {
"type": "Point",
"coordinates": [
13.24458,
65.68659
]
},
"properties": {
"elv": "Vefsna - Vaapstenjeanoe",
"km": 4.1,
"z": 17.05,
"S": 0.0,
"Q": 540.91,
"w": 132.0,
"w_q": 69.77,
"h": 3.52,
"tau": 19.02,
"tau_c": 17.1,
"omega": 22.17,
"M": 1.11,
"D": 0.5,
"R": 0.88,
"sving": 0.35,
"os": 0.0,
"os_navn": "",
"foss": 0.0,
"foss_drop": 0.0,
"juv": 0.0,
"B": 0.95,
"frac_fav": 0.51,
"d_gull_km": 14.82,
"berg": "Glimmerskifer | Glimmerskifer og granatglimmerskifer | Øverste kaledonske dekkeserie",
"p_raw": 0.36,
"A_km2": 3005.03,
"gate": 1.0,
"P": 68.14,
"rank": 12,
"klasse": "B",
"d_vei_m": 203,
"vei_navn": "Turmovegen",
"d_sti_m": 1789,
"d_parkering_m": 653,
"adkomst": "Kort gange: bilvei 203 m unna. Parkering 653 m unna.",
"navn": "Turmoia (Vefsna - Vaapstenjeanoe)",
"hvorfor": "Strømeffekten faller 50 % over strekningen – tungt materiale slipper her. τ = 19 Pa ≈ 1.1× terskelen: sand og grus flyttes ved flom, gull blir liggende (retensjon). Berggrunn: Glimmerskifer (51 % gunstig oppstrøms).",
"s2_anomali": 3.43,
"s2_feox_z": -1.63,
"satsjekk": "Automatisk bildeanalyse: dypt/mørkt vann."
}
},
{
"type": "Feature",
"geometry": {
"type": "Point",
"coordinates": [
13.21106,
65.82446
]
},
"properties": {
"elv": "Vefsna - Vaapstenjeanoe",
"km": 21.1,
"z": -0.04,
"S": 0.0,
"Q": 617.83,
"w": 206.21,
"w_q": 74.57,
"h": 1.93,
"tau": 39.57,
"tau_c": 33.33,
"omega": 61.53,
"M": 1.19,
"D": -0.0,
"R": 0.93,
"sving": 0.1,
"os": 0.76,
"os_navn": "Etterseterbekken",
"foss": 0.0,
"foss_drop": 0.0,
"juv": 0.0,
"B": 0.98,
"frac_fav": 0.55,
"d_gull_km": 21.38,
"berg": "Glimmerskifer | Glimmerskifer og granatglimmerskifer | Øverste kaledonske dekkeserie",
"p_raw": 0.35,
"A_km2": 3432.38,
"gate": 1.0,
"P": 67.6,
"rank": 13,
"klasse": "B",
"d_vei_m": 125,
"vei_navn": "service",
"d_sti_m": 447,
"d_parkering_m": 435,
"adkomst": "Lett: bilvei 125 m unna (service). Parkering 435 m unna.",
"navn": "Øya (Vefsna - Vaapstenjeanoe)",
"hvorfor": "Os: Etterseterbekken kommer inn her – grus og tyngre materiale legges i osen og bankehodet nedenfor. τ = 40 Pa ≈ 1.2× terskelen: sand og grus flyttes ved flom, gull blir liggende (retensjon). Berggrunn: Glimmerskifer (55 % gunstig oppstrøms).",
"s2_anomali": 2.47,
"s2_feox_z": 0.89,
"satsjekk": "Automatisk bildeanalyse: dypt/mørkt vann."
}
},
{
"type": "Feature",
"geometry": {
"type": "Point",
"coordinates": [
13.07196,
65.86441
]
},
"properties": {
"elv": "Vikdalselva",
"km": 0.7,
"z": 141.15,
"S": 0.11,
"Q": 5.6,
"w": 21.3,
"w_q": 7.1,
"h": 0.14,
"tau": 148.41,
"tau_c": 243.54,
"omega": 288.21,
"M": 0.61,
"D": 0.02,
"R": 0.32,
"sving": 0.32,
"os": 0.89,
"os_navn": "sideelv",
"foss": 1.0,
"foss_drop": 12.61,
"juv": 0.0,
"B": 0.84,
"frac_fav": 1.0,
"d_gull_km": 29.11,
"berg": "Glimmerskifer | Glimmerskifer og glimmergneis | Øverste kaledonske dekkeserie",
"p_raw": 0.35,
"A_km2": 31.1,
"gate": 1.0,
"P": 67.07,
"rank": 14,
"klasse": "B",
"d_vei_m": 209,
"vei_navn": "track",
"d_sti_m": 80,
"d_parkering_m": 5232,
"adkomst": "Kort gange: bilvei 209 m unna.",
"navn": "Vikdalselva, km 0.7",
"hvorfor": "Foss/stryk rett oppstrøms (13 m fall på 100 m) – fossekulp og fjell i dagen. Os: sideelv kommer inn her – grus og tyngre materiale legges i osen og bankehodet nedenfor. Berggrunn: Glimmerskifer (100 % gunstig oppstrøms).",
"s2_anomali": 1.63,
"s2_feox_z": 0.19,
"satsjekk": "Automatisk bildeanalyse: dypt/mørkt vann, tett vegetasjon – elva delvis skjult."
}
},
{
"type": "Feature",
"geometry": {
"type": "Point",
"coordinates": [
13.32659,
65.81474
]
},
"properties": {
"elv": "Skjervo",
"km": 3.7,
"z": 119.01,
"S": 0.05,
"Q": 9.6,
"w": 23.75,
"w_q": 9.29,
"h": 0.23,
"tau": 106.74,
"tau_c": 159.76,
"omega": 190.7,
"M": 0.67,
"D": 0.0,
"R": 0.4,
"sving": 0.32,
"os": 0.77,
"os_navn": "Regnfjellelva",
"foss": 1.0,
"foss_drop": 11.65,
"juv": 0.0,
"B": 0.84,
"frac_fav": 0.88,
"d_gull_km": 16.86,
"berg": "Grønnstein | Grønnskifer, grønnstein og amfibolitt, stedvis med lag fylitt og glimmerskifer | Øverste kaledonske dekkeserie",
"p_raw": 0.35,
"A_km2": 53.33,
"gate": 1.0,
"P": 66.63,
"rank": 15,
"klasse": "B",
"d_vei_m": 89,
"vei_navn": "track",
"d_sti_m": 564,
"d_parkering_m": 2946,
"adkomst": "Lett: bilvei 89 m unna (track).",
"navn": "Lian (Skjervo)",
"hvorfor": "Foss/stryk rett oppstrøms (12 m fall på 100 m) – fossekulp og fjell i dagen. Os: Regnfjellelva kommer inn her – grus og tyngre materiale legges i osen og bankehodet nedenfor. Berggrunn: Grønnstein (88 % gunstig oppstrøms).",
"s2_anomali": null,
"s2_feox_z": null,
"satsjekk": "Automatisk bildeanalyse: dypt/mørkt vann."
}
},
{
"type": "Feature",
"geometry": {
"type": "Point",
"coordinates": [
13.25047,
65.67635
]
},
"properties": {
"elv": "Vefsna - Vaapstenjeanoe",
"km": 2.9,
"z": 20.1,
"S": 0.0,
"Q": 540.41,
"w": 102.0,
"w_q": 69.74,
"h": 3.82,
"tau": 26.93,
"tau_c": 19.53,
"omega": 37.36,
"M": 1.38,
"D": -0.0,
"R": 0.99,
"sving": 0.06,
"os": 0.67,
"os_navn": "Smådalsbekken",
"foss": 0.0,
"foss_drop": 0.0,
"juv": 0.06,
"B": 0.95,
"frac_fav": 0.51,
"d_gull_km": 14.72,
"berg": "Glimmerskifer | Glimmerskifer og granatglimmerskifer | Øverste kaledonske dekkeserie",
"p_raw": 0.34,
"A_km2": 3002.3,
"gate": 1.0,
"P": 65.9,
"rank": 16,
"klasse": "B",
"d_vei_m": 86,
"vei_navn": "Fallmovegen",
"d_sti_m": 2953,
"d_parkering_m": 949,
"adkomst": "Lett: bilvei 86 m unna (Fallmovegen). Parkering 949 m unna.",
"navn": "Fallan hyttegrend (Vefsna - Vaapstenjeanoe)",
"hvorfor": "Os: Smådalsbekken kommer inn her – grus og tyngre materiale legges i osen og bankehodet nedenfor. τ = 27 Pa ≈ 1.4× terskelen: sand og grus flyttes ved flom, gull blir liggende (retensjon). Berggrunn: Glimmerskifer (51 % gunstig oppstrøms).",
"s2_anomali": 4.0,
"s2_feox_z": -0.07,
"satsjekk": "Automatisk bildeanalyse: dypt/mørkt vann."
}
},
{
"type": "Feature",
"geometry": {
"type": "Point",
"coordinates": [
13.28118,
65.82466
]
},
"properties": {
"elv": "Skjervo",
"km": 6.8,
"z": 66.33,
"S": 0.03,
"Q": 17.31,
"w": 33.19,
"w_q": 12.48,
"h": 0.3,
"tau": 92.93,
"tau_c": 129.75,
"omega": 162.37,
"M": 0.72,
"D": 0.12,
"R": 0.47,
"sving": 0.35,
"os": 0.85,
"os_navn": "Dølo",
"foss": 0.37,
"foss_drop": 11.97,
"juv": 0.0,
"B": 0.91,
"frac_fav": 0.92,
"d_gull_km": 19.07,
"berg": "Grønnstein | Grønnskifer, grønnstein og amfibolitt, stedvis med lag fylitt og glimmerskifer | Øverste kaledonske dekkeserie",
"p_raw": 0.34,
"A_km2": 96.17,
"gate": 1.0,
"P": 65.8,
"rank": 17,
"klasse": "B",
"d_vei_m": 82,
"vei_navn": "Austerbygdvegen",
"d_sti_m": 591,
"d_parkering_m": 1959,
"adkomst": "Lett: bilvei 82 m unna (Austerbygdvegen).",
"navn": "Åslia (Skjervo)",
"hvorfor": "Foss/stryk rett oppstrøms (12 m fall på 100 m) – fossekulp og fjell i dagen. Os: Dølo kommer inn her – grus og tyngre materiale legges i osen og bankehodet nedenfor. Berggrunn: Grønnstein (92 % gunstig oppstrøms).",
"s2_anomali": 1.03,
"s2_feox_z": -1.53,
"satsjekk": "Automatisk bildeanalyse: dypt/mørkt vann."
}
},
{
"type": "Feature",
"geometry": {
"type": "Point",
"coordinates": [
13.20876,
65.79956
]
},
"properties": {
"elv": "Vefsna - Vaapstenjeanoe",
"km": 18.3,
"z": 0.83,
"S": 0.0,
"Q": 609.26,
"w": 221.36,
"w_q": 74.05,
"h": 2.55,
"tau": 17.52,
"tau_c": 19.29,
"omega": 18.93,
"M": 0.91,
"D": 0.08,
"R": 0.7,
"sving": 0.15,
"os": 0.91,
"os_navn": "Tverråga",
"foss": 0.0,
"foss_drop": 0.0,
"juv": 0.0,
"B": 0.97,
"frac_fav": 0.54,
"d_gull_km": 19.78,
"berg": "Glimmerskifer | Glimmerskifer og granatglimmerskifer | Øverste kaledonske dekkeserie",
"p_raw": 0.34,
"A_km2": 3384.77,
"gate": 1.0,
"P": 65.41,
"rank": 18,
"klasse": "B",
"d_vei_m": 146,
"vei_navn": "Vestersidvegen",
"d_sti_m": 225,
"d_parkering_m": 1288,
"adkomst": "Lett: bilvei 146 m unna (Vestersidvegen). Parkering 1288 m unna.",
"navn": "Osheim (Vefsna - Vaapstenjeanoe)",
"hvorfor": "Os: Tverråga kommer inn her – grus og tyngre materiale legges i osen og bankehodet nedenfor. τ = 18 Pa ≈ 0.9× terskelen: sand og grus flyttes ved flom, gull blir liggende (retensjon). Berggrunn: Glimmerskifer (54 % gunstig oppstrøms).",
"s2_anomali": 1.8,
"s2_feox_z": 0.27,
"satsjekk": "Automatisk bildeanalyse: dypt/mørkt vann, tett vegetasjon – elva delvis skjult."
}
},
{
"type": "Feature",
"geometry": {
"type": "Point",
"coordinates": [
13.15454,
65.66399
]
},
"properties": {
"elv": "Eiteråga",
"km": 1.9,
"z": 124.94,
"S": 0.01,
"Q": 40.91,
"w": 52.56,
"w_q": 19.19,
"h": 0.61,
"tau": 39.43,
"tau_c": 59.16,
"omega": 50.37,
"M": 0.67,
"D": 0.0,
"R": 0.4,
"sving": 1.0,
"os": 0.82,
"os_navn": "Møllombekken",
"foss": 0.0,
"foss_drop": 0.0,
"juv": 0.0,
"B": 0.91,
"frac_fav": 0.78,
"d_gull_km": 19.31,
"berg": "Dioritt | Dioritt, dels med overgang til monzodioritt | Øverste kaledonske dekkeserie",
"p_raw": 0.34,
"A_km2": 227.28,
"gate": 1.0,
"P": 65.32,
"rank": 19,
"klasse": "B",
"d_vei_m": 189,
"vei_navn": "Påljordvegen",
"d_sti_m": 5870,
"d_parkering_m": 4917,
"adkomst": "Kort gange: bilvei 189 m unna.",
"navn": "Kroken (Eiteråga)",
"hvorfor": "Os: Møllombekken kommer inn her – grus og tyngre materiale legges i osen og bankehodet nedenfor. Skarp sving – grav på innersvingen og bak store steiner. Berggrunn: Dioritt (78 % gunstig oppstrøms).",
"s2_anomali": 3.59,
"s2_feox_z": 0.55,
"satsjekk": "Automatisk bildeanalyse: dypt/mørkt vann."
}
},
{
"type": "Feature",
"geometry": {
"type": "Point",
"coordinates": [
13.26885,
65.65676
]
},
"properties": {
"elv": "Vefsna - Vaapstenjeanoe",
"km": 0.5,
"z": 20.47,
"S": 0.0,
"Q": 537.84,
"w": 108.0,
"w_q": 69.57,
"h": 4.12,
"tau": 20.02,
"tau_c": 16.22,
"omega": 24.23,
"M": 1.23,
"D": 0.0,
"R": 0.95,
"sving": 0.02,
"os": 0.74,
"os_navn": "Hannabekken",
"foss": 0.0,
"foss_drop": 0.0,
"juv": 0.06,
"B": 0.94,
"frac_fav": 0.5,
"d_gull_km": 14.46,
"berg": "Glimmerskifer | Glimmerskifer og granatglimmerskifer | Øverste kaledonske dekkeserie",
"p_raw": 0.34,
"A_km2": 2987.99,
"gate": 1.0,
"P": 64.62,
"rank": 20,
"klasse": "B",
"d_vei_m": 196,
"vei_navn": "Turmovegen",
"d_sti_m": 5259,
"d_parkering_m": 618,
"adkomst": "Kort gange: bilvei 196 m unna. Parkering 618 m unna.",
"navn": "Spølremma (Vefsna - Vaapstenjeanoe)",
"hvorfor": "Os: Hannabekken kommer inn her – grus og tyngre materiale legges i osen og bankehodet nedenfor. τ = 20 Pa ≈ 1.2× terskelen: sand og grus flyttes ved flom, gull blir liggende (retensjon). Berggrunn: Glimmerskifer (50 % gunstig oppstrøms).",
"s2_anomali": 3.5,
"s2_feox_z": 0.36,
"satsjekk": "Automatisk bildeanalyse: dypt/mørkt vann."
}
}
]
}