{"type": "FeatureCollection", "features": [{"type": "Feature", "geometry": {"type": "Point", "coordinates": [13.28193, 65.71542]}, "properties": {"type": "basemetall", "s2_oh_z": 7.3, "s2_feox_z": -0.56}}, {"type": "Feature", "geometry": {"type": "Point", "coordinates": [13.37841, 65.80021]}, "properties": {"type": "basemetall", "s2_oh_z": null, "s2_feox_z": null}}, {"type": "Feature", "geometry": {"type": "Point", "coordinates": [13.27079, 65.69627]}, "properties": {"type": "basemetall", "s2_oh_z": null, "s2_feox_z": null}}, {"type": "Feature", "geometry": {"type": "Point", "coordinates": [13.27766, 65.78941]}, "properties": {"type": "basemetall", "s2_oh_z": null, "s2_feox_z": null}}]}