<?xml version="1.0" encoding="UTF-8"?>
<kml xmlns="http://www.opengis.net/kml/2.2"><Document>
<name>GULLØYE – Mosjøen</name>
<Style id="kA"><IconStyle><color>ff2b39c0</color><scale>1.1</scale></IconStyle></Style>
<Style id="kB"><IconStyle><color>ff227ee6</color><scale>1.1</scale></IconStyle></Style>
<Style id="kC"><IconStyle><color>ff0fc4f1</color><scale>1.1</scale></IconStyle></Style>
<Placemark><name>1A Torjorda (Mølnbekken)</name><styleUrl>#kA</styleUrl><description>P=100. Foss/stryk rett oppstrøms (28 m fall på 100 m) – fossekulp og fjell i dagen. Os: sideelv kommer inn her – grus og tyngre materiale legges i osen og bankehodet nedenfor. Skarp sving – grav på innersvingen og bak store steiner. τ = 410 Pa ≈ 1.5× terskelen: sand og grus flyttes ved flom, gull blir liggende (retensjon). Berggrunn: Glimmerskifer (64 % gunstig oppstrøms). Lett: bilvei 75 m unna (unclassified).</description><Point><coordinates>13.15605,65.67232,0</coordinates></Point></Placemark>
<Placemark><name>2A Stormoida (Klubbelva)</name><styleUrl>#kA</styleUrl><description>P=98. Foss/stryk rett oppstrøms (13 m fall på 100 m) – fossekulp og fjell i dagen. Os: Brennhaugbekken kommer inn her – grus og tyngre materiale legges i osen og bankehodet nedenfor. τ = 419 Pa ≈ 1.7× terskelen: sand og grus flyttes ved flom, gull blir liggende (retensjon). Berggrunn: Glimmerskifer (100 % gunstig oppstrøms). Lett: bilvei 102 m unna (Eiterådalsvegen).</description><Point><coordinates>13.19988,65.69353,0</coordinates></Point></Placemark>
<Placemark><name>3A Stigmoen (Vefsna - Vaapstenjeanoe)</name><styleUrl>#kA</styleUrl><description>P=98. Foss/stryk rett oppstrøms (5 m fall på 100 m) – fossekulp og fjell i dagen. Skarp sving – grav på innersvingen og bak store steiner. Strømeffekten faller 39 % over strekningen – tungt materiale slipper her. τ = 136 Pa ≈ 2.0× terskelen: sand og grus flyttes ved flom, gull blir liggende (retensjon). Berggrunn: Glimmerskifer (53 % gunstig oppstrøms). Kort gange: bilvei 223 m unna.</description><Point><coordinates>13.21763,65.72381,0</coordinates></Point></Placemark>
<Placemark><name>4A Stormoida (Eiteråga)</name><styleUrl>#kA</styleUrl><description>P=92. Foss/stryk rett oppstrøms (3 m fall på 100 m) – fossekulp og fjell i dagen. Skarp sving – grav på innersvingen og bak store steiner. τ = 93 Pa ≈ 1.2× terskelen: sand og grus flyttes ved flom, gull blir liggende (retensjon). Berggrunn: Dioritt (80 % gunstig oppstrøms). Kort gange: bilvei 242 m unna. Parkering 944 m unna.</description><Point><coordinates>13.21540,65.69389,0</coordinates></Point></Placemark>
<Placemark><name>5A Strupen (Eiteråga)</name><styleUrl>#kA</styleUrl><description>P=85. Foss/stryk rett oppstrøms (11 m fall på 100 m) – fossekulp og fjell i dagen. τ = 166 Pa ≈ 1.3× terskelen: sand og grus flyttes ved flom, gull blir liggende (retensjon). Berggrunn: Dioritt (79 % gunstig oppstrøms). Lett: bilvei 111 m unna (Eiterådalsvegen).</description><Point><coordinates>13.17671,65.69204,0</coordinates></Point></Placemark>
<Placemark><name>6A Stormyra (Eiteråga)</name><styleUrl>#kA</styleUrl><description>P=79. Foss/stryk rett oppstrøms (3 m fall på 100 m) – fossekulp og fjell i dagen. τ = 89 Pa ≈ 1.1× terskelen: sand og grus flyttes ved flom, gull blir liggende (retensjon). Berggrunn: Dioritt (79 % gunstig oppstrøms). Kort gange: bilvei 398 m unna.</description><Point><coordinates>13.16355,65.68692,0</coordinates></Point></Placemark>
<Placemark><name>7A Ramnåga (Vefsna - Vaapstenjeanoe)</name><styleUrl>#kA</styleUrl><description>P=73. Os: Ramnåga kommer inn her – grus og tyngre materiale legges i osen og bankehodet nedenfor. τ = 31 Pa ≈ 1.3× terskelen: sand og grus flyttes ved flom, gull blir liggende (retensjon). Berggrunn: Glimmerskifer (52 % gunstig oppstrøms). Lett: bilvei 98 m unna (service). Parkering 1359 m unna.</description><Point><coordinates>13.24244,65.70459,0</coordinates></Point></Placemark>
<Placemark><name>8A Setra (Herringelva)</name><styleUrl>#kA</styleUrl><description>P=71. Foss/stryk rett oppstrøms (6 m fall på 100 m) – fossekulp og fjell i dagen. τ = 152 Pa ≈ 1.0× terskelen: sand og grus flyttes ved flom, gull blir liggende (retensjon). Berggrunn: Glimmerskifer (67 % gunstig oppstrøms). Lett: bilvei 81 m unna (service).</description><Point><coordinates>13.50413,65.84287,0</coordinates></Point></Placemark>
<Placemark><name>9A Eiterånesholmen (Vefsna - Vaapstenjeanoe)</name><styleUrl>#kA</styleUrl><description>P=71. Os: Eiteråga kommer inn her – grus og tyngre materiale legges i osen og bankehodet nedenfor. τ = 55 Pa ≈ 1.5× terskelen: sand og grus flyttes ved flom, gull blir liggende (retensjon). Berggrunn: Glimmerskifer (52 % gunstig oppstrøms). Kort gange: bilvei 261 m unna. Parkering 483 m unna.</description><Point><coordinates>13.24617,65.69330,0</coordinates></Point></Placemark>
<Placemark><name>10B Moen (Vefsna - Vaapstenjeanoe)</name><styleUrl>#kB</styleUrl><description>P=70. Strømeffekten faller 40 % over strekningen – tungt materiale slipper her. τ = 23 Pa ≈ 1.6× terskelen: sand og grus flyttes ved flom, gull blir liggende (retensjon). Berggrunn: Glimmerskifer (52 % gunstig oppstrøms). Lett: bilvei 60 m unna (Ramnåvegen).</description><Point><coordinates>13.22702,65.71189,0</coordinates></Point></Placemark>
<Placemark><name>11B Hamptjønna (Vefsna - Vaapstenjeanoe)</name><styleUrl>#kB</styleUrl><description>P=68. τ = 17 Pa ≈ 1.3× terskelen: sand og grus flyttes ved flom, gull blir liggende (retensjon). Berggrunn: Glimmerskifer (53 % gunstig oppstrøms). Kort gange: bilvei 173 m unna.</description><Point><coordinates>13.22839,65.74322,0</coordinates></Point></Placemark>
<Placemark><name>12B Turmoia (Vefsna - Vaapstenjeanoe)</name><styleUrl>#kB</styleUrl><description>P=68. Strømeffekten faller 50 % over strekningen – tungt materiale slipper her. τ = 19 Pa ≈ 1.1× terskelen: sand og grus flyttes ved flom, gull blir liggende (retensjon). Berggrunn: Glimmerskifer (51 % gunstig oppstrøms). Kort gange: bilvei 203 m unna. Parkering 653 m unna.</description><Point><coordinates>13.24458,65.68659,0</coordinates></Point></Placemark>
<Placemark><name>13B Øya (Vefsna - Vaapstenjeanoe)</name><styleUrl>#kB</styleUrl><description>P=68. Os: Etterseterbekken kommer inn her – grus og tyngre materiale legges i osen og bankehodet nedenfor. τ = 40 Pa ≈ 1.2× terskelen: sand og grus flyttes ved flom, gull blir liggende (retensjon). Berggrunn: Glimmerskifer (55 % gunstig oppstrøms). Lett: bilvei 125 m unna (service). Parkering 435 m unna.</description><Point><coordinates>13.21106,65.82446,0</coordinates></Point></Placemark>
<Placemark><name>14B Vikdalselva, km 0.7</name><styleUrl>#kB</styleUrl><description>P=67. Foss/stryk rett oppstrøms (13 m fall på 100 m) – fossekulp og fjell i dagen. Os: sideelv kommer inn her – grus og tyngre materiale legges i osen og bankehodet nedenfor. Berggrunn: Glimmerskifer (100 % gunstig oppstrøms). Kort gange: bilvei 209 m unna.</description><Point><coordinates>13.07196,65.86441,0</coordinates></Point></Placemark>
<Placemark><name>15B Lian (Skjervo)</name><styleUrl>#kB</styleUrl><description>P=67. Foss/stryk rett oppstrøms (12 m fall på 100 m) – fossekulp og fjell i dagen. Os: Regnfjellelva kommer inn her – grus og tyngre materiale legges i osen og bankehodet nedenfor. Berggrunn: Grønnstein (88 % gunstig oppstrøms). Lett: bilvei 89 m unna (track).</description><Point><coordinates>13.32659,65.81474,0</coordinates></Point></Placemark>
<Placemark><name>16B Fallan hyttegrend (Vefsna - Vaapstenjeanoe)</name><styleUrl>#kB</styleUrl><description>P=66. Os: Smådalsbekken kommer inn her – grus og tyngre materiale legges i osen og bankehodet nedenfor. τ = 27 Pa ≈ 1.4× terskelen: sand og grus flyttes ved flom, gull blir liggende (retensjon). Berggrunn: Glimmerskifer (51 % gunstig oppstrøms). Lett: bilvei 86 m unna (Fallmovegen). Parkering 949 m unna.</description><Point><coordinates>13.25047,65.67635,0</coordinates></Point></Placemark>
<Placemark><name>17B Åslia (Skjervo)</name><styleUrl>#kB</styleUrl><description>P=66. Foss/stryk rett oppstrøms (12 m fall på 100 m) – fossekulp og fjell i dagen. Os: Dølo kommer inn her – grus og tyngre materiale legges i osen og bankehodet nedenfor. Berggrunn: Grønnstein (92 % gunstig oppstrøms). Lett: bilvei 82 m unna (Austerbygdvegen).</description><Point><coordinates>13.28118,65.82466,0</coordinates></Point></Placemark>
<Placemark><name>18B Osheim (Vefsna - Vaapstenjeanoe)</name><styleUrl>#kB</styleUrl><description>P=65. Os: Tverråga kommer inn her – grus og tyngre materiale legges i osen og bankehodet nedenfor. τ = 18 Pa ≈ 0.9× terskelen: sand og grus flyttes ved flom, gull blir liggende (retensjon). Berggrunn: Glimmerskifer (54 % gunstig oppstrøms). Lett: bilvei 146 m unna (Vestersidvegen). Parkering 1288 m unna.</description><Point><coordinates>13.20876,65.79956,0</coordinates></Point></Placemark>
<Placemark><name>19B Kroken (Eiteråga)</name><styleUrl>#kB</styleUrl><description>P=65. Os: Møllombekken kommer inn her – grus og tyngre materiale legges i osen og bankehodet nedenfor. Skarp sving – grav på innersvingen og bak store steiner. Berggrunn: Dioritt (78 % gunstig oppstrøms). Kort gange: bilvei 189 m unna.</description><Point><coordinates>13.15454,65.66399,0</coordinates></Point></Placemark>
<Placemark><name>20B Spølremma (Vefsna - Vaapstenjeanoe)</name><styleUrl>#kB</styleUrl><description>P=65. Os: Hannabekken kommer inn her – grus og tyngre materiale legges i osen og bankehodet nedenfor. τ = 20 Pa ≈ 1.2× terskelen: sand og grus flyttes ved flom, gull blir liggende (retensjon). Berggrunn: Glimmerskifer (50 % gunstig oppstrøms). Kort gange: bilvei 196 m unna. Parkering 618 m unna.</description><Point><coordinates>13.26885,65.65676,0</coordinates></Point></Placemark>
</Document></kml>