<?xml version="1.0" encoding="UTF-8"?>
<gpx version="1.1" creator="gulloye" xmlns="http://www.topografix.com/GPX/1/1">
  <wpt lat="65.67232" lon="13.15605"><name>1 A – Torjorda (Mølnbekken)</name><desc>Foss/stryk rett oppstrøms (28 m fall på 100 m) – fossekulp og fjell i dagen. Os: sideelv kommer inn her – grus og tyngre materiale legges i osen og bankehodet nedenfor. Skarp sving – grav på innersvingen og bak store steiner. τ = 410 Pa ≈ 1.5× terskelen: sand og grus flyttes ved flom, gull blir liggende (retensjon). Berggrunn: Glimmerskifer (64 % gunstig oppstrøms).</desc></wpt>
  <wpt lat="65.69353" lon="13.19988"><name>2 A – Stormoida (Klubbelva)</name><desc>Foss/stryk rett oppstrøms (13 m fall på 100 m) – fossekulp og fjell i dagen. Os: Brennhaugbekken kommer inn her – grus og tyngre materiale legges i osen og bankehodet nedenfor. τ = 419 Pa ≈ 1.7× terskelen: sand og grus flyttes ved flom, gull blir liggende (retensjon). Berggrunn: Glimmerskifer (100 % gunstig oppstrøms).</desc></wpt>
  <wpt lat="65.72381" lon="13.21763"><name>3 A – Stigmoen (Vefsna - Vaapstenjeanoe)</name><desc>Foss/stryk rett oppstrøms (5 m fall på 100 m) – fossekulp og fjell i dagen. Skarp sving – grav på innersvingen og bak store steiner. Strømeffekten faller 39 % over strekningen – tungt materiale slipper her. τ = 136 Pa ≈ 2.0× terskelen: sand og grus flyttes ved flom, gull blir liggende (retensjon). Berggrunn: Glimmerskifer (53 % gunstig oppstrøms).</desc></wpt>
  <wpt lat="65.69389" lon="13.21540"><name>4 A – Stormoida (Eiteråga)</name><desc>Foss/stryk rett oppstrøms (3 m fall på 100 m) – fossekulp og fjell i dagen. Skarp sving – grav på innersvingen og bak store steiner. τ = 93 Pa ≈ 1.2× terskelen: sand og grus flyttes ved flom, gull blir liggende (retensjon). Berggrunn: Dioritt (80 % gunstig oppstrøms).</desc></wpt>
  <wpt lat="65.69204" lon="13.17671"><name>5 A – Strupen (Eiteråga)</name><desc>Foss/stryk rett oppstrøms (11 m fall på 100 m) – fossekulp og fjell i dagen. τ = 166 Pa ≈ 1.3× terskelen: sand og grus flyttes ved flom, gull blir liggende (retensjon). Berggrunn: Dioritt (79 % gunstig oppstrøms).</desc></wpt>
  <wpt lat="65.68692" lon="13.16355"><name>6 A – Stormyra (Eiteråga)</name><desc>Foss/stryk rett oppstrøms (3 m fall på 100 m) – fossekulp og fjell i dagen. τ = 89 Pa ≈ 1.1× terskelen: sand og grus flyttes ved flom, gull blir liggende (retensjon). Berggrunn: Dioritt (79 % gunstig oppstrøms).</desc></wpt>
  <wpt lat="65.70459" lon="13.24244"><name>7 A – Ramnåga (Vefsna - Vaapstenjeanoe)</name><desc>Os: Ramnåga kommer inn her – grus og tyngre materiale legges i osen og bankehodet nedenfor. τ = 31 Pa ≈ 1.3× terskelen: sand og grus flyttes ved flom, gull blir liggende (retensjon). Berggrunn: Glimmerskifer (52 % gunstig oppstrøms).</desc></wpt>
  <wpt lat="65.84287" lon="13.50413"><name>8 A – Setra (Herringelva)</name><desc>Foss/stryk rett oppstrøms (6 m fall på 100 m) – fossekulp og fjell i dagen. τ = 152 Pa ≈ 1.0× terskelen: sand og grus flyttes ved flom, gull blir liggende (retensjon). Berggrunn: Glimmerskifer (67 % gunstig oppstrøms).</desc></wpt>
  <wpt lat="65.69330" lon="13.24617"><name>9 A – Eiterånesholmen (Vefsna - Vaapstenjeanoe)</name><desc>Os: Eiteråga kommer inn her – grus og tyngre materiale legges i osen og bankehodet nedenfor. τ = 55 Pa ≈ 1.5× terskelen: sand og grus flyttes ved flom, gull blir liggende (retensjon). Berggrunn: Glimmerskifer (52 % gunstig oppstrøms).</desc></wpt>
  <wpt lat="65.71189" lon="13.22702"><name>10 B – Moen (Vefsna - Vaapstenjeanoe)</name><desc>Strømeffekten faller 40 % over strekningen – tungt materiale slipper her. τ = 23 Pa ≈ 1.6× terskelen: sand og grus flyttes ved flom, gull blir liggende (retensjon). Berggrunn: Glimmerskifer (52 % gunstig oppstrøms).</desc></wpt>
  <wpt lat="65.74322" lon="13.22839"><name>11 B – Hamptjønna (Vefsna - Vaapstenjeanoe)</name><desc>τ = 17 Pa ≈ 1.3× terskelen: sand og grus flyttes ved flom, gull blir liggende (retensjon). Berggrunn: Glimmerskifer (53 % gunstig oppstrøms).</desc></wpt>
  <wpt lat="65.68659" lon="13.24458"><name>12 B – Turmoia (Vefsna - Vaapstenjeanoe)</name><desc>Strømeffekten faller 50 % over strekningen – tungt materiale slipper her. τ = 19 Pa ≈ 1.1× terskelen: sand og grus flyttes ved flom, gull blir liggende (retensjon). Berggrunn: Glimmerskifer (51 % gunstig oppstrøms).</desc></wpt>
  <wpt lat="65.82446" lon="13.21106"><name>13 B – Øya (Vefsna - Vaapstenjeanoe)</name><desc>Os: Etterseterbekken kommer inn her – grus og tyngre materiale legges i osen og bankehodet nedenfor. τ = 40 Pa ≈ 1.2× terskelen: sand og grus flyttes ved flom, gull blir liggende (retensjon). Berggrunn: Glimmerskifer (55 % gunstig oppstrøms).</desc></wpt>
  <wpt lat="65.86441" lon="13.07196"><name>14 B – Vikdalselva, km 0.7</name><desc>Foss/stryk rett oppstrøms (13 m fall på 100 m) – fossekulp og fjell i dagen. Os: sideelv kommer inn her – grus og tyngre materiale legges i osen og bankehodet nedenfor. Berggrunn: Glimmerskifer (100 % gunstig oppstrøms).</desc></wpt>
  <wpt lat="65.81474" lon="13.32659"><name>15 B – Lian (Skjervo)</name><desc>Foss/stryk rett oppstrøms (12 m fall på 100 m) – fossekulp og fjell i dagen. Os: Regnfjellelva kommer inn her – grus og tyngre materiale legges i osen og bankehodet nedenfor. Berggrunn: Grønnstein (88 % gunstig oppstrøms).</desc></wpt>
  <wpt lat="65.67635" lon="13.25047"><name>16 B – Fallan hyttegrend (Vefsna - Vaapstenjeanoe)</name><desc>Os: Smådalsbekken kommer inn her – grus og tyngre materiale legges i osen og bankehodet nedenfor. τ = 27 Pa ≈ 1.4× terskelen: sand og grus flyttes ved flom, gull blir liggende (retensjon). Berggrunn: Glimmerskifer (51 % gunstig oppstrøms).</desc></wpt>
  <wpt lat="65.82466" lon="13.28118"><name>17 B – Åslia (Skjervo)</name><desc>Foss/stryk rett oppstrøms (12 m fall på 100 m) – fossekulp og fjell i dagen. Os: Dølo kommer inn her – grus og tyngre materiale legges i osen og bankehodet nedenfor. Berggrunn: Grønnstein (92 % gunstig oppstrøms).</desc></wpt>
  <wpt lat="65.79956" lon="13.20876"><name>18 B – Osheim (Vefsna - Vaapstenjeanoe)</name><desc>Os: Tverråga kommer inn her – grus og tyngre materiale legges i osen og bankehodet nedenfor. τ = 18 Pa ≈ 0.9× terskelen: sand og grus flyttes ved flom, gull blir liggende (retensjon). Berggrunn: Glimmerskifer (54 % gunstig oppstrøms).</desc></wpt>
  <wpt lat="65.66399" lon="13.15454"><name>19 B – Kroken (Eiteråga)</name><desc>Os: Møllombekken kommer inn her – grus og tyngre materiale legges i osen og bankehodet nedenfor. Skarp sving – grav på innersvingen og bak store steiner. Berggrunn: Dioritt (78 % gunstig oppstrøms).</desc></wpt>
  <wpt lat="65.65676" lon="13.26885"><name>20 B – Spølremma (Vefsna - Vaapstenjeanoe)</name><desc>Os: Hannabekken kommer inn her – grus og tyngre materiale legges i osen og bankehodet nedenfor. τ = 20 Pa ≈ 1.2× terskelen: sand og grus flyttes ved flom, gull blir liggende (retensjon). Berggrunn: Glimmerskifer (50 % gunstig oppstrøms).</desc></wpt>
</gpx>