{
"type": "FeatureCollection",
"features": [
{
"type": "Feature",
"geometry": {
"type": "Point",
"coordinates": [
11.52016,
60.16792
]
},
"properties": {
"elv": "Glomma",
"km": 0.5,
"z": 120.79,
"S": 0.0,
"Q": 1800.0,
"w": 209.6,
"w_q": 120.0,
"h": 6.58,
"tau": 9.89,
"tau_c": 11.65,
"omega": 12.9,
"M": 0.85,
"D": 0.69,
"R": 0.64,
"sving": 0.2,
"os": 0.99,
"os_navn": "sideelv",
"foss": 0.0,
"foss_drop": 0.0,
"juv": 0.15,
"B": 0.99,
"frac_fav": 0.56,
"d_gull_km": 18.01,
"berg": "Glimmergneis | Biotitt-hornblendegneis, migmatittisk, stedvis med bånd av amfibolitt | Idefjorden litotektoniske enhet",
"p_raw": 0.49,
"A_km2": 4137.55,
"gate": 1.0,
"P": 86.86,
"rank": 1,
"klasse": "A",
"d_vei_m": 142,
"vei_navn": "track",
"d_sti_m": 84,
"d_parkering_m": 774,
"adkomst": "Lett: bilvei 142 m unna (track). Parkering 774 m unna.",
"navn": "Østre Funni (Glomma)",
"hvorfor": "Os: sideelv kommer inn her – grus og tyngre materiale legges i osen og bankehodet nedenfor. Strømeffekten faller 69 % over strekningen – tungt materiale slipper her. τ = 10 Pa ≈ 0.8× terskelen: sand og grus flyttes ved flom, gull blir liggende (retensjon). Berggrunn: Glimmergneis (56 % gunstig oppstrøms).",
"s2_anomali": 4.0,
"s2_feox_z": 0.8,
"satsjekk": "Automatisk bildeanalyse: dypt/mørkt vann."
}
},
{
"type": "Feature",
"geometry": {
"type": "Point",
"coordinates": [
11.56055,
60.16738
]
},
"properties": {
"elv": "Glomma",
"km": 29.7,
"z": 130.61,
"S": 0.0,
"Q": 1800.0,
"w": 212.0,
"w_q": 120.0,
"h": 4.45,
"tau": 23.49,
"tau_c": 16.9,
"omega": 44.81,
"M": 1.39,
"D": 0.22,
"R": 0.99,
"sving": 0.36,
"os": 0.4,
"os_navn": "sideelv",
"foss": 0.0,
"foss_drop": 0.0,
"juv": 0.0,
"B": 0.99,
"frac_fav": 0.56,
"d_gull_km": 18.86,
"berg": "Glimmerskifer | Glimmerskifer, metagråvakke, meta-arkose, kvartsitt, metaryolitt og hornblendeskifer/amfibolitt | Østre segment (&#39;Eastern Segment&#39;)",
"p_raw": 0.4,
"A_km2": 4128.22,
"gate": 1.0,
"P": 71.62,
"rank": 2,
"klasse": "A",
"d_vei_m": 173,
"vei_navn": "Seterstøavegen",
"d_sti_m": 117,
"d_parkering_m": 1528,
"adkomst": "Kort gange: bilvei 173 m unna.",
"navn": "Skogheim (Glomma)",
"hvorfor": "τ = 23 Pa ≈ 1.4× terskelen: sand og grus flyttes ved flom, gull blir liggende (retensjon). Berggrunn: Glimmerskifer (56 % gunstig oppstrøms).",
"s2_anomali": 4.0,
"s2_feox_z": 1.63,
"satsjekk": "Automatisk bildeanalyse: dypt/mørkt vann."
}
},
{
"type": "Feature",
"geometry": {
"type": "Point",
"coordinates": [
11.68044,
60.25717
]
},
"properties": {
"elv": "Glomma",
"km": 15.9,
"z": 131.74,
"S": 0.0,
"Q": 1800.0,
"w": 266.0,
"w_q": 120.0,
"h": 4.76,
"tau": 12.67,
"tau_c": 12.0,
"omega": 18.02,
"M": 1.06,
"D": 0.09,
"R": 0.84,
"sving": 0.29,
"os": 0.65,
"os_navn": "Oppstadåa",
"foss": 0.0,
"foss_drop": 0.0,
"juv": 0.0,
"B": 0.98,
"frac_fav": 0.54,
"d_gull_km": 16.02,
"berg": "Glimmerskifer | Glimmerskifer, metagråvakke, meta-arkose, kvartsitt, metaryolitt og hornblendeskifer/amfibolitt | Østre segment (&#39;Eastern Segment&#39;)",
"p_raw": 0.36,
"A_km2": 3943.09,
"gate": 1.0,
"P": 64.62,
"rank": 3,
"klasse": "B",
"d_vei_m": 116,
"vei_navn": "Glomvegen",
"d_sti_m": 202,
"d_parkering_m": 233,
"adkomst": "Lett: bilvei 116 m unna (Glomvegen). Parkering 233 m unna.",
"navn": "Korsmo (Glomma)",
"hvorfor": "Os: Oppstadåa kommer inn her – grus og tyngre materiale legges i osen og bankehodet nedenfor. τ = 13 Pa ≈ 1.1× terskelen: sand og grus flyttes ved flom, gull blir liggende (retensjon). Berggrunn: Glimmerskifer (54 % gunstig oppstrøms).",
"s2_anomali": 4.0,
"s2_feox_z": -0.46,
"satsjekk": "Automatisk bildeanalyse: dypt/mørkt vann."
}
},
{
"type": "Feature",
"geometry": {
"type": "Point",
"coordinates": [
11.8874,
60.20341
]
},
"properties": {
"elv": "Glomma",
"km": 1.9,
"z": 132.55,
"S": 0.0,
"Q": 1800.0,
"w": 268.0,
"w_q": 120.0,
"h": 2.29,
"tau": 67.07,
"tau_c": 39.8,
"omega": 196.75,
"M": 1.69,
"D": 0.52,
"R": 0.98,
"sving": 0.15,
"os": 0.05,
"os_navn": "sideelv",
"foss": 0.0,
"foss_drop": 0.0,
"juv": 0.0,
"B": 0.94,
"frac_fav": 0.52,
"d_gull_km": 22.48,
"berg": "Glimmerskifer | Glimmerskifer, metagråvakke, meta-arkose, kvartsitt, metaryolitt og hornblendeskifer/amfibolitt | Østre segment (&#39;Eastern Segment&#39;)",
"p_raw": 0.36,
"A_km2": 2942.88,
"gate": 1.0,
"P": 64.26,
"rank": 4,
"klasse": "B",
"d_vei_m": 161,
"vei_navn": "Fuluvegen",
"d_sti_m": 295,
"d_parkering_m": 3989,
"adkomst": "Kort gange: bilvei 161 m unna.",
"navn": "Sandbakken (Glomma)",
"hvorfor": "Strømeffekten faller 52 % over strekningen – tungt materiale slipper her. τ = 67 Pa ≈ 1.7× terskelen: sand og grus flyttes ved flom, gull blir liggende (retensjon). Berggrunn: Glimmerskifer (52 % gunstig oppstrøms).",
"s2_anomali": 4.0,
"s2_feox_z": -1.57,
"satsjekk": "Automatisk bildeanalyse: dypt/mørkt vann."
}
},
{
"type": "Feature",
"geometry": {
"type": "Point",
"coordinates": [
11.48814,
60.18302
]
},
"properties": {
"elv": "bekk",
"km": 1.0,
"z": 126.44,
"S": 0.02,
"Q": 18.68,
"w": 22.05,
"w_q": 12.96,
"h": 0.37,
"tau": 76.38,
"tau_c": 105.59,
"omega": 174.62,
"M": 0.72,
"D": 0.0,
"R": 0.48,
"sving": 0.39,
"os": 0.54,
"os_navn": "Kampåa",
"foss": 1.0,
"foss_drop": 5.61,
"juv": 0.0,
"B": 0.87,
"frac_fav": 0.73,
"d_gull_km": 15.92,
"berg": "Granittisk gneis | Granittisk til tonalittisk gneis, glimmerskifer og metasandstein, amfibolitt. Som regel migmatittisk med slirer, linser eller mindre kropper av granitt og pegmatitt | Idefjorden litotektoniske enhet",
"p_raw": 0.36,
"A_km2": 186.75,
"gate": 1.0,
"P": 63.87,
"rank": 5,
"klasse": "B",
"d_vei_m": 267,
"vei_navn": "Skålerudvegen",
"d_sti_m": 1016,
"d_parkering_m": 1467,
"adkomst": "Kort gange: bilvei 267 m unna. Parkering 1467 m unna.",
"navn": "Skålerud (bekk)",
"hvorfor": "Foss/stryk rett oppstrøms (6 m fall på 100 m) – fossekulp og fjell i dagen. Os: Kampåa kommer inn her – grus og tyngre materiale legges i osen og bankehodet nedenfor. Berggrunn: Granittisk gneis (73 % gunstig oppstrøms).",
"s2_anomali": 3.34,
"s2_feox_z": 0.1,
"satsjekk": "Automatisk bildeanalyse: grus/sandbanke synlig."
}
},
{
"type": "Feature",
"geometry": {
"type": "Point",
"coordinates": [
11.66854,
60.23048
]
},
"properties": {
"elv": "bekk",
"km": 0.6,
"z": 131.43,
"S": 0.01,
"Q": 395.21,
"w": 109.75,
"w_q": 59.64,
"h": 1.09,
"tau": 108.64,
"tau_c": 73.32,
"omega": 357.89,
"M": 1.48,
"D": 0.0,
"R": 1.0,
"sving": 0.3,
"os": 0.0,
"os_navn": "",
"foss": 0.72,
"foss_drop": 4.05,
"juv": 0.0,
"B": 0.86,
"frac_fav": 0.39,
"d_gull_km": 17.03,
"berg": "Granittisk gneis | Granittisk gneis og øyegneis, rød, middels- til grovkornet, stedvis mylonittisk | Østre segment (&#39;Eastern Segment&#39;)",
"p_raw": 0.35,
"A_km2": 3952.1,
"gate": 1.0,
"P": 61.75,
"rank": 6,
"klasse": "B",
"d_vei_m": 92,
"vei_navn": "service",
"d_sti_m": 590,
"d_parkering_m": 1635,
"adkomst": "Lett: bilvei 92 m unna (service).",
"navn": "Lukmoen (bekk)",
"hvorfor": "Foss/stryk rett oppstrøms (4 m fall på 100 m) – fossekulp og fjell i dagen. τ = 109 Pa ≈ 1.5× terskelen: sand og grus flyttes ved flom, gull blir liggende (retensjon). Berggrunn: Granittisk gneis (39 % gunstig oppstrøms).",
"s2_anomali": 4.0,
"s2_feox_z": 0.39,
"satsjekk": "Automatisk bildeanalyse: grus/sandbanke synlig, dypt/mørkt vann."
}
},
{
"type": "Feature",
"geometry": {
"type": "Point",
"coordinates": [
11.53302,
60.16695
]
},
"properties": {
"elv": "Glomma",
"km": 31.3,
"z": 130.45,
"S": 0.0,
"Q": 1800.0,
"w": 278.0,
"w_q": 120.0,
"h": 4.53,
"tau": 12.94,
"tau_c": 12.43,
"omega": 18.5,
"M": 1.04,
"D": -0.0,
"R": 0.83,
"sving": 0.17,
"os": 0.33,
"os_navn": "sideelv",
"foss": 0.41,
"foss_drop": 0.0,
"juv": 0.0,
"B": 0.99,
"frac_fav": 0.56,
"d_gull_km": 18.34,
"berg": "Glimmerskifer | Glimmerskifer, metagråvakke, meta-arkose, kvartsitt, metaryolitt og hornblendeskifer/amfibolitt | Østre segment (&#39;Eastern Segment&#39;)",
"p_raw": 0.34,
"A_km2": 4135.31,
"gate": 1.0,
"P": 60.7,
"rank": 7,
"klasse": "B",
"d_vei_m": 156,
"vei_navn": "service",
"d_sti_m": 244,
"d_parkering_m": 333,
"adkomst": "Kort gange: bilvei 156 m unna. Parkering 333 m unna.",
"navn": "Funnefoss (Glomma)",
"hvorfor": "Bratt stryk like oppstrøms – kulper og fjellsprekker. τ = 13 Pa ≈ 1.0× terskelen: sand og grus flyttes ved flom, gull blir liggende (retensjon). Berggrunn: Glimmerskifer (56 % gunstig oppstrøms).",
"s2_anomali": 4.0,
"s2_feox_z": -1.29,
"satsjekk": "Automatisk bildeanalyse: dypt/mørkt vann."
}
},
{
"type": "Feature",
"geometry": {
"type": "Point",
"coordinates": [
11.66472,
60.28913
]
},
"properties": {
"elv": "Oppstadåa",
"km": 4.7,
"z": 132.17,
"S": 0.0,
"Q": 80.68,
"w": 32.4,
"w_q": 26.95,
"h": 1.83,
"tau": 17.54,
"tau_c": 22.77,
"omega": 23.86,
"M": 0.77,
"D": 0.0,
"R": 0.54,
"sving": 0.71,
"os": 0.91,
"os_navn": "sideelv",
"foss": 0.0,
"foss_drop": 0.0,
"juv": 0.0,
"B": 0.89,
"frac_fav": 0.57,
"d_gull_km": 13.91,
"berg": "Monzonittisk gneis | Monzodiorittisk til granodiorittisk øyegneis, middels- til grovkornet med biotitt og hornblende, grå til rosa øyne av mikroklin | Østre segment (&#39;Eastern Segment&#39;)",
"p_raw": 0.34,
"A_km2": 806.77,
"gate": 1.0,
"P": 60.38,
"rank": 8,
"klasse": "B",
"d_vei_m": 71,
"vei_navn": "service",
"d_sti_m": 824,
"d_parkering_m": 287,
"adkomst": "Lett: bilvei 71 m unna (service). Parkering 287 m unna.",
"navn": "Ringnes (Oppstadåa)",
"hvorfor": "Os: sideelv kommer inn her – grus og tyngre materiale legges i osen og bankehodet nedenfor. Skarp sving – grav på innersvingen og bak store steiner. Berggrunn: Monzonittisk gneis (57 % gunstig oppstrøms).",
"s2_anomali": 2.89,
"s2_feox_z": 0.53,
"satsjekk": "Automatisk bildeanalyse: dypt/mørkt vann."
}
},
{
"type": "Feature",
"geometry": {
"type": "Point",
"coordinates": [
11.64247,
60.21224
]
},
"properties": {
"elv": "Glomma",
"km": 21.9,
"z": 131.23,
"S": 0.0,
"Q": 1800.0,
"w": 330.0,
"w_q": 120.0,
"h": 4.29,
"tau": 10.32,
"tau_c": 11.65,
"omega": 13.11,
"M": 0.89,
"D": 0.16,
"R": 0.68,
"sving": 0.12,
"os": 0.53,
"os_navn": "Sæteråa",
"foss": 0.0,
"foss_drop": 0.0,
"juv": 0.0,
"B": 0.98,
"frac_fav": 0.55,
"d_gull_km": 17.28,
"berg": "Glimmerskifer | Glimmerskifer, metagråvakke, meta-arkose, kvartsitt, metaryolitt og hornblendeskifer/amfibolitt | Østre segment (&#39;Eastern Segment&#39;)",
"p_raw": 0.29,
"A_km2": 4051.21,
"gate": 1.0,
"P": 52.6,
"rank": 9,
"klasse": "B",
"d_vei_m": 174,
"vei_navn": "service",
"d_sti_m": 636,
"d_parkering_m": 2196,
"adkomst": "Kort gange: bilvei 174 m unna.",
"navn": "Sundvoll (Glomma)",
"hvorfor": "Os: Sæteråa kommer inn her – grus og tyngre materiale legges i osen og bankehodet nedenfor. τ = 10 Pa ≈ 0.9× terskelen: sand og grus flyttes ved flom, gull blir liggende (retensjon). Berggrunn: Glimmerskifer (55 % gunstig oppstrøms).",
"s2_anomali": 4.0,
"s2_feox_z": -1.65,
"satsjekk": "Automatisk bildeanalyse: dypt/mørkt vann."
}
},
{
"type": "Feature",
"geometry": {
"type": "Point",
"coordinates": [
11.79234,
60.23669
]
},
"properties": {
"elv": "bekk",
"km": 1.9,
"z": 133.22,
"S": 0.01,
"Q": 307.95,
"w": 97.16,
"w_q": 52.65,
"h": 0.96,
"tau": 114.6,
"tau_c": 80.45,
"omega": 379.31,
"M": 1.42,
"D": 0.0,
"R": 1.0,
"sving": 0.04,
"os": 0.0,
"os_navn": "",
"foss": 0.51,
"foss_drop": 4.04,
"juv": 0.0,
"B": 0.83,
"frac_fav": 0.36,
"d_gull_km": 22.07,
"berg": "Granittisk gneis | Granittisk gneis og øyegneis, rød, middels- til grovkornet, stedvis mylonittisk | Østre segment (&#39;Eastern Segment&#39;)",
"p_raw": 0.27,
"A_km2": 3079.46,
"gate": 1.0,
"P": 49.15,
"rank": 10,
"klasse": "B",
"d_vei_m": 142,
"vei_navn": "service",
"d_sti_m": 724,
"d_parkering_m": 1516,
"adkomst": "Lett: bilvei 142 m unna (service).",
"navn": "Øverstrøm (bekk)",
"hvorfor": "Foss/stryk rett oppstrøms (4 m fall på 100 m) – fossekulp og fjell i dagen. τ = 115 Pa ≈ 1.4× terskelen: sand og grus flyttes ved flom, gull blir liggende (retensjon). Berggrunn: Granittisk gneis (36 % gunstig oppstrøms).",
"s2_anomali": 4.0,
"s2_feox_z": 1.43,
"satsjekk": "Automatisk bildeanalyse: dypt/mørkt vann."
}
},
{
"type": "Feature",
"geometry": {
"type": "Point",
"coordinates": [
11.76497,
60.2406
]
},
"properties": {
"elv": "Glomma",
"km": 10.6,
"z": 131.9,
"S": 0.0,
"Q": 1800.0,
"w": 310.0,
"w_q": 120.0,
"h": 4.05,
"tau": 13.43,
"tau_c": 13.39,
"omega": 19.26,
"M": 1.0,
"D": 0.31,
"R": 0.8,
"sving": 0.12,
"os": 0.0,
"os_navn": "",
"foss": 0.0,
"foss_drop": 0.0,
"juv": 0.0,
"B": 0.96,
"frac_fav": 0.53,
"d_gull_km": 21.03,
"berg": "Glimmerskifer | Glimmerskifer, metagråvakke, meta-arkose, kvartsitt, metaryolitt og hornblendeskifer/amfibolitt | Østre segment (&#39;Eastern Segment&#39;)",
"p_raw": 0.27,
"A_km2": 3083.85,
"gate": 1.0,
"P": 48.23,
"rank": 11,
"klasse": "B",
"d_vei_m": 130,
"vei_navn": "Sandervegen",
"d_sti_m": 1062,
"d_parkering_m": 1455,
"adkomst": "Lett: bilvei 130 m unna (Sandervegen). Parkering 1455 m unna.",
"navn": "Moen (Glomma)",
"hvorfor": "Strømeffekten faller 31 % over strekningen – tungt materiale slipper her. τ = 13 Pa ≈ 1.0× terskelen: sand og grus flyttes ved flom, gull blir liggende (retensjon). Berggrunn: Glimmerskifer (53 % gunstig oppstrøms).",
"s2_anomali": 4.0,
"s2_feox_z": -1.63,
"satsjekk": "Automatisk bildeanalyse: dypt/mørkt vann."
}
},
{
"type": "Feature",
"geometry": {
"type": "Point",
"coordinates": [
11.5781,
60.19655
]
},
"properties": {
"elv": "Glomma",
"km": 26.0,
"z": 131.16,
"S": 0.0,
"Q": 1800.0,
"w": 210.0,
"w_q": 120.0,
"h": 7.5,
"tau": 7.35,
"tau_c": 11.65,
"omega": 8.41,
"M": 0.63,
"D": -0.0,
"R": 0.35,
"sving": 0.28,
"os": 0.94,
"os_navn": "Dyståa",
"foss": 0.0,
"foss_drop": 0.0,
"juv": 0.0,
"B": 0.99,
"frac_fav": 0.56,
"d_gull_km": 16.44,
"berg": "Glimmerskifer | Glimmerskifer, metagråvakke, meta-arkose, kvartsitt, metaryolitt og hornblendeskifer/amfibolitt | Østre segment (&#39;Eastern Segment&#39;)",
"p_raw": 0.27,
"A_km2": 4108.25,
"gate": 1.0,
"P": 47.87,
"rank": 12,
"klasse": "B",
"d_vei_m": 130,
"vei_navn": "Oslovegen",
"d_sti_m": 255,
"d_parkering_m": 2395,
"adkomst": "Lett: bilvei 130 m unna (Oslovegen).",
"navn": "Staksrud (Glomma)",
"hvorfor": "Os: Dyståa kommer inn her – grus og tyngre materiale legges i osen og bankehodet nedenfor. Berggrunn: Glimmerskifer (56 % gunstig oppstrøms).",
"s2_anomali": 4.0,
"s2_feox_z": -0.15,
"satsjekk": "Automatisk bildeanalyse: dypt/mørkt vann."
}
},
{
"type": "Feature",
"geometry": {
"type": "Point",
"coordinates": [
11.55952,
60.17904
]
},
"properties": {
"elv": "Glomma",
"km": 28.3,
"z": 130.94,
"S": 0.0,
"Q": 1800.0,
"w": 320.0,
"w_q": 120.0,
"h": 4.06,
"tau": 12.51,
"tau_c": 12.91,
"omega": 17.35,
"M": 0.97,
"D": 0.18,
"R": 0.77,
"sving": 0.21,
"os": 0.06,
"os_navn": "sideelv",
"foss": 0.0,
"foss_drop": 0.0,
"juv": 0.0,
"B": 0.99,
"frac_fav": 0.56,
"d_gull_km": 17.66,
"berg": "Glimmerskifer | Glimmerskifer, metagråvakke, meta-arkose, kvartsitt, metaryolitt og hornblendeskifer/amfibolitt | Østre segment (&#39;Eastern Segment&#39;)",
"p_raw": 0.26,
"A_km2": 4125.38,
"gate": 1.0,
"P": 47.42,
"rank": 13,
"klasse": "B",
"d_vei_m": 284,
"vei_navn": "service",
"d_sti_m": 318,
"d_parkering_m": 1431,
"adkomst": "Kort gange: bilvei 284 m unna. Parkering 1431 m unna.",
"navn": "Øvre Bjertnes (Glomma)",
"hvorfor": "τ = 13 Pa ≈ 1.0× terskelen: sand og grus flyttes ved flom, gull blir liggende (retensjon). Berggrunn: Glimmerskifer (56 % gunstig oppstrøms).",
"s2_anomali": 4.0,
"s2_feox_z": -2.27,
"satsjekk": "Automatisk bildeanalyse: dypt/mørkt vann."
}
},
{
"type": "Feature",
"geometry": {
"type": "Point",
"coordinates": [
11.66892,
60.22192
]
},
"properties": {
"elv": "Glomma",
"km": 20.0,
"z": 131.42,
"S": 0.0,
"Q": 1800.0,
"w": 234.0,
"w_q": 120.0,
"h": 7.0,
"tau": 6.86,
"tau_c": 11.65,
"omega": 7.55,
"M": 0.59,
"D": 0.01,
"R": 0.3,
"sving": 0.42,
"os": 0.82,
"os_navn": "Sjøåa",
"foss": 0.0,
"foss_drop": 0.0,
"juv": 0.0,
"B": 0.98,
"frac_fav": 0.55,
"d_gull_km": 17.64,
"berg": "Glimmerskifer | Glimmerskifer, metagråvakke, meta-arkose, kvartsitt, metaryolitt og hornblendeskifer/amfibolitt | Østre segment (&#39;Eastern Segment&#39;)",
"p_raw": 0.26,
"A_km2": 3976.46,
"gate": 1.0,
"P": 46.04,
"rank": 14,
"klasse": "B",
"d_vei_m": 133,
"vei_navn": "Norddisivegen",
"d_sti_m": 565,
"d_parkering_m": 2504,
"adkomst": "Lett: bilvei 133 m unna (Norddisivegen).",
"navn": "Lillesetbrua (Glomma)",
"hvorfor": "Os: Sjøåa kommer inn her – grus og tyngre materiale legges i osen og bankehodet nedenfor. Berggrunn: Glimmerskifer (55 % gunstig oppstrøms).",
"s2_anomali": 4.0,
"s2_feox_z": -1.25,
"satsjekk": "Automatisk bildeanalyse: dypt/mørkt vann."
}
},
{
"type": "Feature",
"geometry": {
"type": "Point",
"coordinates": [
11.83951,
60.22896
]
},
"properties": {
"elv": "Glomma",
"km": 6.0,
"z": 132.43,
"S": 0.0,
"Q": 1800.0,
"w": 240.0,
"w_q": 120.0,
"h": 6.88,
"tau": 6.75,
"tau_c": 11.65,
"omega": 7.36,
"M": 0.58,
"D": 0.0,
"R": 0.28,
"sving": 0.32,
"os": 0.96,
"os_navn": "sideelv",
"foss": 0.0,
"foss_drop": 0.0,
"juv": 0.0,
"B": 0.95,
"frac_fav": 0.52,
"d_gull_km": 21.21,
"berg": "Glimmerskifer | Glimmerskifer, metagråvakke, meta-arkose, kvartsitt, metaryolitt og hornblendeskifer/amfibolitt | Østre segment (&#39;Eastern Segment&#39;)",
"p_raw": 0.25,
"A_km2": 3046.28,
"gate": 1.0,
"P": 45.07,
"rank": 15,
"klasse": "B",
"d_vei_m": 140,
"vei_navn": "service",
"d_sti_m": 1185,
"d_parkering_m": 150,
"adkomst": "Lett: bilvei 140 m unna (service). Parkering 150 m unna.",
"navn": "Ytre Hærnes (Glomma)",
"hvorfor": "Os: sideelv kommer inn her – grus og tyngre materiale legges i osen og bankehodet nedenfor. Berggrunn: Glimmerskifer (52 % gunstig oppstrøms).",
"s2_anomali": 4.0,
"s2_feox_z": -1.71,
"satsjekk": "Automatisk bildeanalyse: dypt/mørkt vann."
}
},
{
"type": "Feature",
"geometry": {
"type": "Point",
"coordinates": [
11.67277,
60.23768
]
},
"properties": {
"elv": "Glomma",
"km": 18.2,
"z": 131.73,
"S": 0.0,
"Q": 1800.0,
"w": 124.0,
"w_q": 120.0,
"h": 6.66,
"tau": 29.1,
"tau_c": 15.38,
"omega": 63.46,
"M": 1.89,
"D": 0.0,
"R": 0.93,
"sving": 0.11,
"os": 0.0,
"os_navn": "",
"foss": 0.0,
"foss_drop": 0.0,
"juv": 0.05,
"B": 0.98,
"frac_fav": 0.55,
"d_gull_km": 16.76,
"berg": "Glimmerskifer | Glimmerskifer, metagråvakke, meta-arkose, kvartsitt, metaryolitt og hornblendeskifer/amfibolitt | Østre segment (&#39;Eastern Segment&#39;)",
"p_raw": 0.25,
"A_km2": 3949.43,
"gate": 1.0,
"P": 44.28,
"rank": 16,
"klasse": "C",
"d_vei_m": 74,
"vei_navn": "track",
"d_sti_m": 305,
"d_parkering_m": 817,
"adkomst": "Lett: bilvei 74 m unna (track). Parkering 817 m unna.",
"navn": "Huken (Glomma)",
"hvorfor": "τ = 29 Pa ≈ 1.9× terskelen: sand og grus flyttes ved flom, gull blir liggende (retensjon). Berggrunn: Glimmerskifer (55 % gunstig oppstrøms).",
"s2_anomali": 4.0,
"s2_feox_z": -1.87,
"satsjekk": "Automatisk bildeanalyse: dypt/mørkt vann."
}
},
{
"type": "Feature",
"geometry": {
"type": "Point",
"coordinates": [
11.50576,
60.21303
]
},
"properties": {
"elv": "Uåa",
"km": 6.2,
"z": 120.11,
"S": 0.01,
"Q": 8.5,
"w": 24.99,
"w_q": 8.74,
"h": 0.26,
"tau": 27.36,
"tau_c": 75.26,
"omega": 35.6,
"M": 0.36,
"D": 0.34,
"R": 0.06,
"sving": 0.29,
"os": 0.52,
"os_navn": "sideelv",
"foss": 0.37,
"foss_drop": 5.22,
"juv": 0.0,
"B": 0.94,
"frac_fav": 1.0,
"d_gull_km": 13.0,
"berg": "Granittisk gneis | Granittisk til tonalittisk gneis, glimmerskifer og metasandstein, amfibolitt. Som regel migmatittisk med slirer, linser eller mindre kropper av granitt og pegmatitt | Idefjorden litotektoniske enhet",
"p_raw": 0.25,
"A_km2": 84.96,
"gate": 1.0,
"P": 43.91,
"rank": 17,
"klasse": "C",
"d_vei_m": 259,
"vei_navn": "service",
"d_sti_m": 158,
"d_parkering_m": 1812,
"adkomst": "Kort gange: bilvei 259 m unna.",
"navn": "Skårerflaen (Uåa)",
"hvorfor": "Foss/stryk rett oppstrøms (5 m fall på 100 m) – fossekulp og fjell i dagen. Os: sideelv kommer inn her – grus og tyngre materiale legges i osen og bankehodet nedenfor. Strømeffekten faller 34 % over strekningen – tungt materiale slipper her. Berggrunn: Granittisk gneis (100 % gunstig oppstrøms).",
"s2_anomali": 3.1,
"s2_feox_z": 0.47,
"satsjekk": "Automatisk bildeanalyse: dypt/mørkt vann."
}
},
{
"type": "Feature",
"geometry": {
"type": "Point",
"coordinates": [
11.56671,
60.18786
]
},
"properties": {
"elv": "Glomma",
"km": 27.2,
"z": 131.14,
"S": 0.0,
"Q": 1800.0,
"w": 230.0,
"w_q": 120.0,
"h": 7.07,
"tau": 6.94,
"tau_c": 11.65,
"omega": 7.68,
"M": 0.6,
"D": 0.06,
"R": 0.31,
"sving": 0.1,
"os": 0.81,
"os_navn": "Hørjua",
"foss": 0.0,
"foss_drop": 0.0,
"juv": 0.0,
"B": 0.99,
"frac_fav": 0.56,
"d_gull_km": 16.96,
"berg": "Glimmerskifer | Glimmerskifer, metagråvakke, meta-arkose, kvartsitt, metaryolitt og hornblendeskifer/amfibolitt | Østre segment (&#39;Eastern Segment&#39;)",
"p_raw": 0.22,
"A_km2": 4123.02,
"gate": 1.0,
"P": 39.43,
"rank": 18,
"klasse": "C",
"d_vei_m": 132,
"vei_navn": "track",
"d_sti_m": 986,
"d_parkering_m": 1519,
"adkomst": "Lett: bilvei 132 m unna (track).",
"navn": "Semingsrud (Glomma)",
"hvorfor": "Os: Hørjua kommer inn her – grus og tyngre materiale legges i osen og bankehodet nedenfor. Berggrunn: Glimmerskifer (56 % gunstig oppstrøms).",
"s2_anomali": 4.0,
"s2_feox_z": -2.57,
"satsjekk": "Automatisk bildeanalyse: dypt/mørkt vann."
}
},
{
"type": "Feature",
"geometry": {
"type": "Point",
"coordinates": [
11.73996,
60.24464
]
},
"properties": {
"elv": "Sloa",
"km": 0.6,
"z": 132.0,
"S": 0.0,
"Q": 309.62,
"w": 98.27,
"w_q": 52.79,
"h": 1.3,
"tau": 56.32,
"tau_c": 48.47,
"omega": 136.85,
"M": 1.16,
"D": 0.0,
"R": 0.91,
"sving": 0.01,
"os": 0.23,
"os_navn": "Mangåa",
"foss": 0.0,
"foss_drop": 0.0,
"juv": 0.0,
"B": 0.82,
"frac_fav": 0.35,
"d_gull_km": 19.59,
"berg": "Granittisk gneis | Granittisk gneis og øyegneis, rød, middels- til grovkornet, stedvis mylonittisk | Østre segment (&#39;Eastern Segment&#39;)",
"p_raw": 0.22,
"A_km2": 3096.23,
"gate": 1.0,
"P": 38.99,
"rank": 19,
"klasse": "C",
"d_vei_m": 175,
"vei_navn": "Snekkermovegen",
"d_sti_m": 207,
"d_parkering_m": 346,
"adkomst": "Kort gange: bilvei 175 m unna. Parkering 346 m unna.",
"navn": "Øvre Krybelsrud (Sloa)",
"hvorfor": "τ = 56 Pa ≈ 1.2× terskelen: sand og grus flyttes ved flom, gull blir liggende (retensjon). Berggrunn: Granittisk gneis (35 % gunstig oppstrøms).",
"s2_anomali": 4.0,
"s2_feox_z": 0.74,
"satsjekk": "Automatisk bildeanalyse: dypt/mørkt vann."
}
},
{
"type": "Feature",
"geometry": {
"type": "Point",
"coordinates": [
11.86813,
60.20969
]
},
"properties": {
"elv": "Glomma",
"km": 3.2,
"z": 132.46,
"S": 0.0,
"Q": 1800.0,
"w": 220.0,
"w_q": 120.0,
"h": 7.18,
"tau": 7.35,
"tau_c": 11.65,
"omega": 8.38,
"M": 0.63,
"D": 0.0,
"R": 0.35,
"sving": 0.0,
"os": 0.91,
"os_navn": "sideelv",
"foss": 0.0,
"foss_drop": 0.0,
"juv": 0.0,
"B": 0.95,
"frac_fav": 0.52,
"d_gull_km": 22.29,
"berg": "Glimmerskifer | Glimmerskifer, metagråvakke, meta-arkose, kvartsitt, metaryolitt og hornblendeskifer/amfibolitt | Østre segment (&#39;Eastern Segment&#39;)",
"p_raw": 0.21,
"A_km2": 2982.27,
"gate": 1.0,
"P": 38.08,
"rank": 20,
"klasse": "C",
"d_vei_m": 267,
"vei_navn": "service",
"d_sti_m": 912,
"d_parkering_m": 2779,
"adkomst": "Kort gange: bilvei 267 m unna.",
"navn": "Velta (Glomma)",
"hvorfor": "Os: sideelv kommer inn her – grus og tyngre materiale legges i osen og bankehodet nedenfor. Berggrunn: Glimmerskifer (52 % gunstig oppstrøms).",
"s2_anomali": 4.0,
"s2_feox_z": -1.68,
"satsjekk": "Automatisk bildeanalyse: dypt/mørkt vann."
}
}
]
}