<?xml version="1.0" encoding="UTF-8"?>
<kml xmlns="http://www.opengis.net/kml/2.2"><Document>
<name>GULLØYE – Skarnes</name>
<Style id="kA"><IconStyle><color>ff2b39c0</color><scale>1.1</scale></IconStyle></Style>
<Style id="kB"><IconStyle><color>ff227ee6</color><scale>1.1</scale></IconStyle></Style>
<Style id="kC"><IconStyle><color>ff0fc4f1</color><scale>1.1</scale></IconStyle></Style>
<Placemark><name>1A Østre Funni (Glomma)</name><styleUrl>#kA</styleUrl><description>P=87. Os: sideelv kommer inn her – grus og tyngre materiale legges i osen og bankehodet nedenfor. Strømeffekten faller 69 % over strekningen – tungt materiale slipper her. τ = 10 Pa ≈ 0.8× terskelen: sand og grus flyttes ved flom, gull blir liggende (retensjon). Berggrunn: Glimmergneis (56 % gunstig oppstrøms). Lett: bilvei 142 m unna (track). Parkering 774 m unna.</description><Point><coordinates>11.52016,60.16792,0</coordinates></Point></Placemark>
<Placemark><name>2A Skogheim (Glomma)</name><styleUrl>#kA</styleUrl><description>P=72. τ = 23 Pa ≈ 1.4× terskelen: sand og grus flyttes ved flom, gull blir liggende (retensjon). Berggrunn: Glimmerskifer (56 % gunstig oppstrøms). Kort gange: bilvei 173 m unna.</description><Point><coordinates>11.56055,60.16738,0</coordinates></Point></Placemark>
<Placemark><name>3B Korsmo (Glomma)</name><styleUrl>#kB</styleUrl><description>P=65. Os: Oppstadåa kommer inn her – grus og tyngre materiale legges i osen og bankehodet nedenfor. τ = 13 Pa ≈ 1.1× terskelen: sand og grus flyttes ved flom, gull blir liggende (retensjon). Berggrunn: Glimmerskifer (54 % gunstig oppstrøms). Lett: bilvei 116 m unna (Glomvegen). Parkering 233 m unna.</description><Point><coordinates>11.68044,60.25717,0</coordinates></Point></Placemark>
<Placemark><name>4B Sandbakken (Glomma)</name><styleUrl>#kB</styleUrl><description>P=64. Strømeffekten faller 52 % over strekningen – tungt materiale slipper her. τ = 67 Pa ≈ 1.7× terskelen: sand og grus flyttes ved flom, gull blir liggende (retensjon). Berggrunn: Glimmerskifer (52 % gunstig oppstrøms). Kort gange: bilvei 161 m unna.</description><Point><coordinates>11.88740,60.20341,0</coordinates></Point></Placemark>
<Placemark><name>5B Skålerud (bekk)</name><styleUrl>#kB</styleUrl><description>P=64. Foss/stryk rett oppstrøms (6 m fall på 100 m) – fossekulp og fjell i dagen. Os: Kampåa kommer inn her – grus og tyngre materiale legges i osen og bankehodet nedenfor. Berggrunn: Granittisk gneis (73 % gunstig oppstrøms). Kort gange: bilvei 267 m unna. Parkering 1467 m unna.</description><Point><coordinates>11.48814,60.18302,0</coordinates></Point></Placemark>
<Placemark><name>6B Lukmoen (bekk)</name><styleUrl>#kB</styleUrl><description>P=62. Foss/stryk rett oppstrøms (4 m fall på 100 m) – fossekulp og fjell i dagen. τ = 109 Pa ≈ 1.5× terskelen: sand og grus flyttes ved flom, gull blir liggende (retensjon). Berggrunn: Granittisk gneis (39 % gunstig oppstrøms). Lett: bilvei 92 m unna (service).</description><Point><coordinates>11.66854,60.23048,0</coordinates></Point></Placemark>
<Placemark><name>7B Funnefoss (Glomma)</name><styleUrl>#kB</styleUrl><description>P=61. Bratt stryk like oppstrøms – kulper og fjellsprekker. τ = 13 Pa ≈ 1.0× terskelen: sand og grus flyttes ved flom, gull blir liggende (retensjon). Berggrunn: Glimmerskifer (56 % gunstig oppstrøms). Kort gange: bilvei 156 m unna. Parkering 333 m unna.</description><Point><coordinates>11.53302,60.16695,0</coordinates></Point></Placemark>
<Placemark><name>8B Ringnes (Oppstadåa)</name><styleUrl>#kB</styleUrl><description>P=60. Os: sideelv kommer inn her – grus og tyngre materiale legges i osen og bankehodet nedenfor. Skarp sving – grav på innersvingen og bak store steiner. Berggrunn: Monzonittisk gneis (57 % gunstig oppstrøms). Lett: bilvei 71 m unna (service). Parkering 287 m unna.</description><Point><coordinates>11.66472,60.28913,0</coordinates></Point></Placemark>
<Placemark><name>9B Sundvoll (Glomma)</name><styleUrl>#kB</styleUrl><description>P=53. Os: Sæteråa kommer inn her – grus og tyngre materiale legges i osen og bankehodet nedenfor. τ = 10 Pa ≈ 0.9× terskelen: sand og grus flyttes ved flom, gull blir liggende (retensjon). Berggrunn: Glimmerskifer (55 % gunstig oppstrøms). Kort gange: bilvei 174 m unna.</description><Point><coordinates>11.64247,60.21224,0</coordinates></Point></Placemark>
<Placemark><name>10B Øverstrøm (bekk)</name><styleUrl>#kB</styleUrl><description>P=49. Foss/stryk rett oppstrøms (4 m fall på 100 m) – fossekulp og fjell i dagen. τ = 115 Pa ≈ 1.4× terskelen: sand og grus flyttes ved flom, gull blir liggende (retensjon). Berggrunn: Granittisk gneis (36 % gunstig oppstrøms). Lett: bilvei 142 m unna (service).</description><Point><coordinates>11.79234,60.23669,0</coordinates></Point></Placemark>
<Placemark><name>11B Moen (Glomma)</name><styleUrl>#kB</styleUrl><description>P=48. Strømeffekten faller 31 % over strekningen – tungt materiale slipper her. τ = 13 Pa ≈ 1.0× terskelen: sand og grus flyttes ved flom, gull blir liggende (retensjon). Berggrunn: Glimmerskifer (53 % gunstig oppstrøms). Lett: bilvei 130 m unna (Sandervegen). Parkering 1455 m unna.</description><Point><coordinates>11.76497,60.24060,0</coordinates></Point></Placemark>
<Placemark><name>12B Staksrud (Glomma)</name><styleUrl>#kB</styleUrl><description>P=48. Os: Dyståa kommer inn her – grus og tyngre materiale legges i osen og bankehodet nedenfor. Berggrunn: Glimmerskifer (56 % gunstig oppstrøms). Lett: bilvei 130 m unna (Oslovegen).</description><Point><coordinates>11.57810,60.19655,0</coordinates></Point></Placemark>
<Placemark><name>13B Øvre Bjertnes (Glomma)</name><styleUrl>#kB</styleUrl><description>P=47. τ = 13 Pa ≈ 1.0× terskelen: sand og grus flyttes ved flom, gull blir liggende (retensjon). Berggrunn: Glimmerskifer (56 % gunstig oppstrøms). Kort gange: bilvei 284 m unna. Parkering 1431 m unna.</description><Point><coordinates>11.55952,60.17904,0</coordinates></Point></Placemark>
<Placemark><name>14B Lillesetbrua (Glomma)</name><styleUrl>#kB</styleUrl><description>P=46. Os: Sjøåa kommer inn her – grus og tyngre materiale legges i osen og bankehodet nedenfor. Berggrunn: Glimmerskifer (55 % gunstig oppstrøms). Lett: bilvei 133 m unna (Norddisivegen).</description><Point><coordinates>11.66892,60.22192,0</coordinates></Point></Placemark>
<Placemark><name>15B Ytre Hærnes (Glomma)</name><styleUrl>#kB</styleUrl><description>P=45. Os: sideelv kommer inn her – grus og tyngre materiale legges i osen og bankehodet nedenfor. Berggrunn: Glimmerskifer (52 % gunstig oppstrøms). Lett: bilvei 140 m unna (service). Parkering 150 m unna.</description><Point><coordinates>11.83951,60.22896,0</coordinates></Point></Placemark>
<Placemark><name>16C Huken (Glomma)</name><styleUrl>#kC</styleUrl><description>P=44. τ = 29 Pa ≈ 1.9× terskelen: sand og grus flyttes ved flom, gull blir liggende (retensjon). Berggrunn: Glimmerskifer (55 % gunstig oppstrøms). Lett: bilvei 74 m unna (track). Parkering 817 m unna.</description><Point><coordinates>11.67277,60.23768,0</coordinates></Point></Placemark>
<Placemark><name>17C Skårerflaen (Uåa)</name><styleUrl>#kC</styleUrl><description>P=44. Foss/stryk rett oppstrøms (5 m fall på 100 m) – fossekulp og fjell i dagen. Os: sideelv kommer inn her – grus og tyngre materiale legges i osen og bankehodet nedenfor. Strømeffekten faller 34 % over strekningen – tungt materiale slipper her. Berggrunn: Granittisk gneis (100 % gunstig oppstrøms). Kort gange: bilvei 259 m unna.</description><Point><coordinates>11.50576,60.21303,0</coordinates></Point></Placemark>
<Placemark><name>18C Semingsrud (Glomma)</name><styleUrl>#kC</styleUrl><description>P=39. Os: Hørjua kommer inn her – grus og tyngre materiale legges i osen og bankehodet nedenfor. Berggrunn: Glimmerskifer (56 % gunstig oppstrøms). Lett: bilvei 132 m unna (track).</description><Point><coordinates>11.56671,60.18786,0</coordinates></Point></Placemark>
<Placemark><name>19C Øvre Krybelsrud (Sloa)</name><styleUrl>#kC</styleUrl><description>P=39. τ = 56 Pa ≈ 1.2× terskelen: sand og grus flyttes ved flom, gull blir liggende (retensjon). Berggrunn: Granittisk gneis (35 % gunstig oppstrøms). Kort gange: bilvei 175 m unna. Parkering 346 m unna.</description><Point><coordinates>11.73996,60.24464,0</coordinates></Point></Placemark>
<Placemark><name>20C Velta (Glomma)</name><styleUrl>#kC</styleUrl><description>P=38. Os: sideelv kommer inn her – grus og tyngre materiale legges i osen og bankehodet nedenfor. Berggrunn: Glimmerskifer (52 % gunstig oppstrøms). Kort gange: bilvei 267 m unna.</description><Point><coordinates>11.86813,60.20969,0</coordinates></Point></Placemark>
</Document></kml>