<?xml version="1.0" encoding="UTF-8"?>
<gpx version="1.1" creator="gulloye" xmlns="http://www.topografix.com/GPX/1/1">
  <wpt lat="60.16792" lon="11.52016"><name>1 A – Østre Funni (Glomma)</name><desc>Os: sideelv kommer inn her – grus og tyngre materiale legges i osen og bankehodet nedenfor. Strømeffekten faller 69 % over strekningen – tungt materiale slipper her. τ = 10 Pa ≈ 0.8× terskelen: sand og grus flyttes ved flom, gull blir liggende (retensjon). Berggrunn: Glimmergneis (56 % gunstig oppstrøms).</desc></wpt>
  <wpt lat="60.16738" lon="11.56055"><name>2 A – Skogheim (Glomma)</name><desc>τ = 23 Pa ≈ 1.4× terskelen: sand og grus flyttes ved flom, gull blir liggende (retensjon). Berggrunn: Glimmerskifer (56 % gunstig oppstrøms).</desc></wpt>
  <wpt lat="60.25717" lon="11.68044"><name>3 B – Korsmo (Glomma)</name><desc>Os: Oppstadåa kommer inn her – grus og tyngre materiale legges i osen og bankehodet nedenfor. τ = 13 Pa ≈ 1.1× terskelen: sand og grus flyttes ved flom, gull blir liggende (retensjon). Berggrunn: Glimmerskifer (54 % gunstig oppstrøms).</desc></wpt>
  <wpt lat="60.20341" lon="11.88740"><name>4 B – Sandbakken (Glomma)</name><desc>Strømeffekten faller 52 % over strekningen – tungt materiale slipper her. τ = 67 Pa ≈ 1.7× terskelen: sand og grus flyttes ved flom, gull blir liggende (retensjon). Berggrunn: Glimmerskifer (52 % gunstig oppstrøms).</desc></wpt>
  <wpt lat="60.18302" lon="11.48814"><name>5 B – Skålerud (bekk)</name><desc>Foss/stryk rett oppstrøms (6 m fall på 100 m) – fossekulp og fjell i dagen. Os: Kampåa kommer inn her – grus og tyngre materiale legges i osen og bankehodet nedenfor. Berggrunn: Granittisk gneis (73 % gunstig oppstrøms).</desc></wpt>
  <wpt lat="60.23048" lon="11.66854"><name>6 B – Lukmoen (bekk)</name><desc>Foss/stryk rett oppstrøms (4 m fall på 100 m) – fossekulp og fjell i dagen. τ = 109 Pa ≈ 1.5× terskelen: sand og grus flyttes ved flom, gull blir liggende (retensjon). Berggrunn: Granittisk gneis (39 % gunstig oppstrøms).</desc></wpt>
  <wpt lat="60.16695" lon="11.53302"><name>7 B – Funnefoss (Glomma)</name><desc>Bratt stryk like oppstrøms – kulper og fjellsprekker. τ = 13 Pa ≈ 1.0× terskelen: sand og grus flyttes ved flom, gull blir liggende (retensjon). Berggrunn: Glimmerskifer (56 % gunstig oppstrøms).</desc></wpt>
  <wpt lat="60.28913" lon="11.66472"><name>8 B – Ringnes (Oppstadåa)</name><desc>Os: sideelv kommer inn her – grus og tyngre materiale legges i osen og bankehodet nedenfor. Skarp sving – grav på innersvingen og bak store steiner. Berggrunn: Monzonittisk gneis (57 % gunstig oppstrøms).</desc></wpt>
  <wpt lat="60.21224" lon="11.64247"><name>9 B – Sundvoll (Glomma)</name><desc>Os: Sæteråa kommer inn her – grus og tyngre materiale legges i osen og bankehodet nedenfor. τ = 10 Pa ≈ 0.9× terskelen: sand og grus flyttes ved flom, gull blir liggende (retensjon). Berggrunn: Glimmerskifer (55 % gunstig oppstrøms).</desc></wpt>
  <wpt lat="60.23669" lon="11.79234"><name>10 B – Øverstrøm (bekk)</name><desc>Foss/stryk rett oppstrøms (4 m fall på 100 m) – fossekulp og fjell i dagen. τ = 115 Pa ≈ 1.4× terskelen: sand og grus flyttes ved flom, gull blir liggende (retensjon). Berggrunn: Granittisk gneis (36 % gunstig oppstrøms).</desc></wpt>
  <wpt lat="60.24060" lon="11.76497"><name>11 B – Moen (Glomma)</name><desc>Strømeffekten faller 31 % over strekningen – tungt materiale slipper her. τ = 13 Pa ≈ 1.0× terskelen: sand og grus flyttes ved flom, gull blir liggende (retensjon). Berggrunn: Glimmerskifer (53 % gunstig oppstrøms).</desc></wpt>
  <wpt lat="60.19655" lon="11.57810"><name>12 B – Staksrud (Glomma)</name><desc>Os: Dyståa kommer inn her – grus og tyngre materiale legges i osen og bankehodet nedenfor. Berggrunn: Glimmerskifer (56 % gunstig oppstrøms).</desc></wpt>
  <wpt lat="60.17904" lon="11.55952"><name>13 B – Øvre Bjertnes (Glomma)</name><desc>τ = 13 Pa ≈ 1.0× terskelen: sand og grus flyttes ved flom, gull blir liggende (retensjon). Berggrunn: Glimmerskifer (56 % gunstig oppstrøms).</desc></wpt>
  <wpt lat="60.22192" lon="11.66892"><name>14 B – Lillesetbrua (Glomma)</name><desc>Os: Sjøåa kommer inn her – grus og tyngre materiale legges i osen og bankehodet nedenfor. Berggrunn: Glimmerskifer (55 % gunstig oppstrøms).</desc></wpt>
  <wpt lat="60.22896" lon="11.83951"><name>15 B – Ytre Hærnes (Glomma)</name><desc>Os: sideelv kommer inn her – grus og tyngre materiale legges i osen og bankehodet nedenfor. Berggrunn: Glimmerskifer (52 % gunstig oppstrøms).</desc></wpt>
  <wpt lat="60.23768" lon="11.67277"><name>16 C – Huken (Glomma)</name><desc>τ = 29 Pa ≈ 1.9× terskelen: sand og grus flyttes ved flom, gull blir liggende (retensjon). Berggrunn: Glimmerskifer (55 % gunstig oppstrøms).</desc></wpt>
  <wpt lat="60.21303" lon="11.50576"><name>17 C – Skårerflaen (Uåa)</name><desc>Foss/stryk rett oppstrøms (5 m fall på 100 m) – fossekulp og fjell i dagen. Os: sideelv kommer inn her – grus og tyngre materiale legges i osen og bankehodet nedenfor. Strømeffekten faller 34 % over strekningen – tungt materiale slipper her. Berggrunn: Granittisk gneis (100 % gunstig oppstrøms).</desc></wpt>
  <wpt lat="60.18786" lon="11.56671"><name>18 C – Semingsrud (Glomma)</name><desc>Os: Hørjua kommer inn her – grus og tyngre materiale legges i osen og bankehodet nedenfor. Berggrunn: Glimmerskifer (56 % gunstig oppstrøms).</desc></wpt>
  <wpt lat="60.24464" lon="11.73996"><name>19 C – Øvre Krybelsrud (Sloa)</name><desc>τ = 56 Pa ≈ 1.2× terskelen: sand og grus flyttes ved flom, gull blir liggende (retensjon). Berggrunn: Granittisk gneis (35 % gunstig oppstrøms).</desc></wpt>
  <wpt lat="60.20969" lon="11.86813"><name>20 C – Velta (Glomma)</name><desc>Os: sideelv kommer inn her – grus og tyngre materiale legges i osen og bankehodet nedenfor. Berggrunn: Glimmerskifer (52 % gunstig oppstrøms).</desc></wpt>
</gpx>