{
"type": "FeatureCollection",
"features": [
{
"type": "Feature",
"geometry": {
"type": "Point",
"coordinates": [
9.5621,
59.29676
]
},
"properties": {
"elv": "bekk",
"km": 0.2,
"z": 86.76,
"S": 0.1,
"Q": 19.65,
"w": 35.94,
"w_q": 13.3,
"h": 0.22,
"tau": 217.81,
"tau_c": 234.04,
"omega": 553.84,
"M": 0.93,
"D": 0.0,
"R": 0.73,
"sving": 0.38,
"os": 0.47,
"os_navn": "sideelv",
"foss": 1.0,
"foss_drop": 16.68,
"juv": 0.0,
"B": 0.84,
"frac_fav": 0.71,
"d_gull_km": 29.42,
"berg": "Sandstein | Sandstein og konglomerat",
"p_raw": 0.39,
"A_km2": 163.78,
"gate": 1.0,
"P": 87.48,
"rank": 1,
"klasse": "A",
"d_vei_m": 189,
"vei_navn": "Luksefjellvegen",
"d_sti_m": 1029,
"d_parkering_m": 1165,
"adkomst": "Kort gange: bilvei 189 m unna. Parkering 1165 m unna.",
"navn": "Sverige (bekk)",
"hvorfor": "Foss/stryk rett oppstrøms (17 m fall på 100 m) – fossekulp og fjell i dagen. τ = 218 Pa ≈ 0.9× terskelen: sand og grus flyttes ved flom, gull blir liggende (retensjon). Berggrunn: Sandstein (71 % gunstig oppstrøms).",
"s2_anomali": 2.68,
"s2_feox_z": 0.23,
"satsjekk": "Automatisk bildeanalyse: dypt/mørkt vann, tett vegetasjon – elva delvis skjult."
}
},
{
"type": "Feature",
"geometry": {
"type": "Point",
"coordinates": [
9.55073,
59.32187
]
},
"properties": {
"elv": "bekk",
"km": 0.6,
"z": 148.41,
"S": 0.02,
"Q": 18.45,
"w": 29.45,
"w_q": 12.89,
"h": 0.39,
"tau": 73.71,
"tau_c": 101.41,
"omega": 119.17,
"M": 0.73,
"D": 0.11,
"R": 0.48,
"sving": 0.38,
"os": 0.58,
"os_navn": "sideelv",
"foss": 1.0,
"foss_drop": 3.64,
"juv": 0.0,
"B": 0.73,
"frac_fav": 0.53,
"d_gull_km": 26.8,
"berg": "Sandstein | Sandstein og konglomerat",
"p_raw": 0.32,
"A_km2": 153.76,
"gate": 1.0,
"P": 72.19,
"rank": 2,
"klasse": "A",
"d_vei_m": 98,
"vei_navn": "Luksefjellvegen",
"d_sti_m": 1057,
"d_parkering_m": 977,
"adkomst": "Lett: bilvei 98 m unna (Luksefjellvegen). Parkering 977 m unna.",
"navn": "Bøkkeren (bekk)",
"hvorfor": "Foss/stryk rett oppstrøms (4 m fall på 100 m) – fossekulp og fjell i dagen. Os: sideelv kommer inn her – grus og tyngre materiale legges i osen og bankehodet nedenfor. Berggrunn: Sandstein (53 % gunstig oppstrøms).",
"s2_anomali": 0.3,
"s2_feox_z": 0.09,
"satsjekk": "Automatisk bildeanalyse: dypt/mørkt vann, tett vegetasjon – elva delvis skjult."
}
},
{
"type": "Feature",
"geometry": {
"type": "Point",
"coordinates": [
9.69416,
59.37561
]
},
"properties": {
"elv": "bekk",
"km": 0.4,
"z": 331.03,
"S": 0.11,
"Q": 13.96,
"w": 22.58,
"w_q": 11.21,
"h": 0.23,
"tau": 245.34,
"tau_c": 241.2,
"omega": 665.0,
"M": 1.02,
"D": 0.0,
"R": 0.81,
"sving": 0.7,
"os": 0.47,
"os_navn": "sideelv",
"foss": 0.72,
"foss_drop": 23.06,
"juv": 0.0,
"B": 0.63,
"frac_fav": 0.4,
"d_gull_km": 29.07,
"berg": "Larvikitt | Larvikitt, massiv",
"p_raw": 0.31,
"A_km2": 116.31,
"gate": 1.0,
"P": 69.89,
"rank": 3,
"klasse": "B",
"d_vei_m": 11,
"vei_navn": "Grorudveien",
"d_sti_m": 1692,
"d_parkering_m": 10492,
"adkomst": "Lett: bilvei 11 m unna (Grorudveien).",
"navn": "Hakhaug (bekk)",
"hvorfor": "Foss/stryk rett oppstrøms (23 m fall på 100 m) – fossekulp og fjell i dagen. Skarp sving – grav på innersvingen og bak store steiner. τ = 245 Pa ≈ 1.0× terskelen: sand og grus flyttes ved flom, gull blir liggende (retensjon). Berggrunn: Larvikitt (40 % gunstig oppstrøms).",
"s2_anomali": 3.08,
"s2_feox_z": -0.87,
"satsjekk": "Automatisk bildeanalyse: dypt/mørkt vann, tett vegetasjon – elva delvis skjult."
}
},
{
"type": "Feature",
"geometry": {
"type": "Point",
"coordinates": [
9.53927,
59.26503
]
},
"properties": {
"elv": "Grønsteinbekken",
"km": 0.4,
"z": 17.12,
"S": 0.08,
"Q": 11.67,
"w": 21.15,
"w_q": 10.25,
"h": 0.23,
"tau": 191.38,
"tau_c": 211.99,
"omega": 458.45,
"M": 0.9,
"D": 0.0,
"R": 0.7,
"sving": 0.68,
"os": 0.39,
"os_navn": "sideelv",
"foss": 1.0,
"foss_drop": 14.72,
"juv": 0.0,
"B": 0.61,
"frac_fav": 0.37,
"d_gull_km": 31.65,
"berg": "Granittisk gneis | Granitt - granodioritt - granittisk og granodiorittisk gneis - udifferensiert | Telemark litotektoniske enhet",
"p_raw": 0.29,
"A_km2": 97.23,
"gate": 1.0,
"P": 66.96,
"rank": 4,
"klasse": "B",
"d_vei_m": 49,
"vei_navn": "Valebøvegen",
"d_sti_m": 65,
"d_parkering_m": 66,
"adkomst": "Lett: bilvei 49 m unna (Valebøvegen). Parkering 66 m unna.",
"navn": "Skridua (Grønsteinbekken)",
"hvorfor": "Foss/stryk rett oppstrøms (15 m fall på 100 m) – fossekulp og fjell i dagen. Skarp sving – grav på innersvingen og bak store steiner. τ = 191 Pa ≈ 0.9× terskelen: sand og grus flyttes ved flom, gull blir liggende (retensjon). Berggrunn: Granittisk gneis (37 % gunstig oppstrøms).",
"s2_anomali": 0.64,
"s2_feox_z": 0.34,
"satsjekk": "Automatisk bildeanalyse: grus/sandbanke synlig."
}
},
{
"type": "Feature",
"geometry": {
"type": "Point",
"coordinates": [
9.65875,
59.32155
]
},
"properties": {
"elv": "Vanebuelva",
"km": 2.8,
"z": 123.68,
"S": 0.05,
"Q": 17.2,
"w": 35.82,
"w_q": 12.44,
"h": 0.24,
"tau": 126.52,
"tau_c": 167.79,
"omega": 249.97,
"M": 0.75,
"D": 0.09,
"R": 0.52,
"sving": 0.34,
"os": 0.93,
"os_navn": "sideelv",
"foss": 0.72,
"foss_drop": 13.12,
"juv": 0.0,
"B": 0.65,
"frac_fav": 0.4,
"d_gull_km": 31.06,
"berg": "Latitt | Latitt (rombeporfyr)",
"p_raw": 0.29,
"A_km2": 143.34,
"gate": 1.0,
"P": 65.68,
"rank": 5,
"klasse": "B",
"d_vei_m": 98,
"vei_navn": "service",
"d_sti_m": 209,
"d_parkering_m": 4584,
"adkomst": "Lett: bilvei 98 m unna (service).",
"navn": "Hogstad, nedre (Vanebuelva)",
"hvorfor": "Foss/stryk rett oppstrøms (13 m fall på 100 m) – fossekulp og fjell i dagen. Os: sideelv kommer inn her – grus og tyngre materiale legges i osen og bankehodet nedenfor. Berggrunn: Latitt (40 % gunstig oppstrøms).",
"s2_anomali": 0.47,
"s2_feox_z": -0.01,
"satsjekk": "Automatisk bildeanalyse: dypt/mørkt vann."
}
},
{
"type": "Feature",
"geometry": {
"type": "Point",
"coordinates": [
9.6664,
59.3283
]
},
"properties": {
"elv": "bekk",
"km": 1.7,
"z": 172.27,
"S": 0.18,
"Q": 17.0,
"w": 24.66,
"w_q": 12.37,
"h": 0.21,
"tau": 363.2,
"tau_c": 304.95,
"omega": 1185.0,
"M": 1.19,
"D": 0.0,
"R": 0.93,
"sving": 0.15,
"os": 0.25,
"os_navn": "sideelv",
"foss": 1.0,
"foss_drop": 41.41,
"juv": 0.0,
"B": 0.65,
"frac_fav": 0.4,
"d_gull_km": 30.89,
"berg": "",
"p_raw": 0.29,
"A_km2": 141.66,
"gate": 1.0,
"P": 65.02,
"rank": 6,
"klasse": "B",
"d_vei_m": 133,
"vei_navn": "Grorudveien",
"d_sti_m": 457,
"d_parkering_m": 5235,
"adkomst": "Lett: bilvei 133 m unna (Grorudveien).",
"navn": "Skogstue (bekk)",
"hvorfor": "Foss/stryk rett oppstrøms (41 m fall på 100 m) – fossekulp og fjell i dagen. τ = 363 Pa ≈ 1.2× terskelen: sand og grus flyttes ved flom, gull blir liggende (retensjon).",
"s2_anomali": null,
"s2_feox_z": null,
"satsjekk": "Automatisk bildeanalyse: tett vegetasjon – elva delvis skjult."
}
},
{
"type": "Feature",
"geometry": {
"type": "Point",
"coordinates": [
9.55426,
59.33275
]
},
"properties": {
"elv": "bekk",
"km": 1.8,
"z": 202.29,
"S": 0.06,
"Q": 17.71,
"w": 37.9,
"w_q": 12.62,
"h": 0.23,
"tau": 132.85,
"tau_c": 175.87,
"omega": 267.19,
"M": 0.76,
"D": 0.0,
"R": 0.52,
"sving": 0.26,
"os": 0.72,
"os_navn": "Hellerbekken",
"foss": 1.0,
"foss_drop": 12.28,
"juv": 0.0,
"B": 0.65,
"frac_fav": 0.4,
"d_gull_km": 26.0,
"berg": "Syenitt | Syenitt-larvikitthybrid",
"p_raw": 0.28,
"A_km2": 147.56,
"gate": 1.0,
"P": 63.09,
"rank": 7,
"klasse": "B",
"d_vei_m": 9,
"vei_navn": "Grønnsjøvegen",
"d_sti_m": 2284,
"d_parkering_m": 2195,
"adkomst": "Lett: bilvei 9 m unna (Grønnsjøvegen).",
"navn": "bekk, km 1.8",
"hvorfor": "Foss/stryk rett oppstrøms (12 m fall på 100 m) – fossekulp og fjell i dagen. Os: Hellerbekken kommer inn her – grus og tyngre materiale legges i osen og bankehodet nedenfor. Berggrunn: Syenitt (40 % gunstig oppstrøms).",
"s2_anomali": null,
"s2_feox_z": null,
"satsjekk": "Automatisk bildeanalyse: dypt/mørkt vann, tett vegetasjon – elva delvis skjult."
}
},
{
"type": "Feature",
"geometry": {
"type": "Point",
"coordinates": [
9.6995,
59.16019
]
},
"properties": {
"elv": "Ønnabekken",
"km": 1.6,
"z": 15.11,
"S": 0.13,
"Q": 6.8,
"w": 16.49,
"w_q": 7.82,
"h": 0.17,
"tau": 218.55,
"tau_c": 264.12,
"omega": 531.98,
"M": 0.83,
"D": 0.0,
"R": 0.61,
"sving": 0.84,
"os": 0.29,
"os_navn": "Leirkup",
"foss": 1.0,
"foss_drop": 29.29,
"juv": 0.0,
"B": 0.59,
"frac_fav": 0.4,
"d_gull_km": 46.41,
"berg": "",
"p_raw": 0.28,
"A_km2": 56.66,
"gate": 1.0,
"P": 62.98,
"rank": 8,
"klasse": "B",
"d_vei_m": 171,
"vei_navn": "service",
"d_sti_m": 779,
"d_parkering_m": 1578,
"adkomst": "Kort gange: bilvei 171 m unna.",
"navn": "Lid (Ønnabekken)",
"hvorfor": "Foss/stryk rett oppstrøms (29 m fall på 100 m) – fossekulp og fjell i dagen. Skarp sving – grav på innersvingen og bak store steiner. τ = 219 Pa ≈ 0.8× terskelen: sand og grus flyttes ved flom, gull blir liggende (retensjon).",
"s2_anomali": null,
"s2_feox_z": null,
"satsjekk": "Automatisk bildeanalyse: tett vegetasjon – elva delvis skjult."
}
},
{
"type": "Feature",
"geometry": {
"type": "Point",
"coordinates": [
9.66465,
59.36222
]
},
"properties": {
"elv": "bekk",
"km": 1.4,
"z": 264.96,
"S": 0.01,
"Q": 14.98,
"w": 33.75,
"w_q": 11.61,
"h": 0.37,
"tau": 39.84,
"tau_c": 75.85,
"omega": 47.21,
"M": 0.53,
"D": 0.13,
"R": 0.22,
"sving": 0.69,
"os": 0.52,
"os_navn": "sideelv",
"foss": 1.0,
"foss_drop": 3.46,
"juv": 0.0,
"B": 0.64,
"frac_fav": 0.4,
"d_gull_km": 28.48,
"berg": "Larvikitt | Larvikitt, massiv",
"p_raw": 0.26,
"A_km2": 124.83,
"gate": 1.0,
"P": 59.75,
"rank": 9,
"klasse": "B",
"d_vei_m": 121,
"vei_navn": "Grorudveien",
"d_sti_m": 1576,
"d_parkering_m": 8456,
"adkomst": "Lett: bilvei 121 m unna (Grorudveien).",
"navn": "Tokleiv (bekk)",
"hvorfor": "Foss/stryk rett oppstrøms (3 m fall på 100 m) – fossekulp og fjell i dagen. Os: sideelv kommer inn her – grus og tyngre materiale legges i osen og bankehodet nedenfor. Skarp sving – grav på innersvingen og bak store steiner. Berggrunn: Larvikitt (40 % gunstig oppstrøms).",
"s2_anomali": 0.04,
"s2_feox_z": -0.32,
"satsjekk": "Automatisk bildeanalyse: dypt/mørkt vann, tett vegetasjon – elva delvis skjult."
}
},
{
"type": "Feature",
"geometry": {
"type": "Point",
"coordinates": [
9.6662,
59.33853
]
},
"properties": {
"elv": "Vanebuelva",
"km": 0.5,
"z": 210.7,
"S": 0.07,
"Q": 16.04,
"w": 28.44,
"w_q": 12.02,
"h": 0.25,
"tau": 164.81,
"tau_c": 188.94,
"omega": 372.34,
"M": 0.87,
"D": 0.11,
"R": 0.66,
"sving": 0.36,
"os": 0.08,
"os_navn": "sideelv",
"foss": 1.0,
"foss_drop": 12.98,
"juv": 0.0,
"B": 0.64,
"frac_fav": 0.4,
"d_gull_km": 30.14,
"berg": "Latitt | Latitt (rombeporfyr)",
"p_raw": 0.26,
"A_km2": 133.68,
"gate": 1.0,
"P": 59.17,
"rank": 10,
"klasse": "B",
"d_vei_m": 160,
"vei_navn": "Grorudveien",
"d_sti_m": 1389,
"d_parkering_m": 6368,
"adkomst": "Kort gange: bilvei 160 m unna.",
"navn": "Vanebuelva, km 0.5",
"hvorfor": "Foss/stryk rett oppstrøms (13 m fall på 100 m) – fossekulp og fjell i dagen. τ = 165 Pa ≈ 0.9× terskelen: sand og grus flyttes ved flom, gull blir liggende (retensjon). Berggrunn: Latitt (40 % gunstig oppstrøms).",
"s2_anomali": 1.39,
"s2_feox_z": 1.29,
"satsjekk": "Automatisk bildeanalyse: tett vegetasjon – elva delvis skjult."
}
},
{
"type": "Feature",
"geometry": {
"type": "Point",
"coordinates": [
9.4588,
59.30916
]
},
"properties": {
"elv": "Sagtjernelva",
"km": 1.8,
"z": 112.47,
"S": 0.03,
"Q": 4.47,
"w": 17.19,
"w_q": 6.34,
"h": 0.2,
"tau": 56.3,
"tau_c": 122.09,
"omega": 71.6,
"M": 0.46,
"D": 0.09,
"R": 0.14,
"sving": 0.32,
"os": 0.23,
"os_navn": "sideelv",
"foss": 1.0,
"foss_drop": 5.74,
"juv": 0.0,
"B": 0.86,
"frac_fav": 1.0,
"d_gull_km": 25.11,
"berg": "Ryolitt | Finkornet granittisk gneis av suprakrustal opprinnelse. Lokalt porfyrisk metarhyolitt og kvartsskifer og amfibolitt | Telemark litotektoniske enhet",
"p_raw": 0.25,
"A_km2": 37.22,
"gate": 1.0,
"P": 55.83,
"rank": 11,
"klasse": "B",
"d_vei_m": 521,
"vei_navn": "Valebøvegen",
"d_sti_m": 249,
"d_parkering_m": 628,
"adkomst": "Kort gange: bilvei 521 m unna. Parkering 628 m unna.",
"navn": "Såta (Sagtjernelva)",
"hvorfor": "Foss/stryk rett oppstrøms (6 m fall på 100 m) – fossekulp og fjell i dagen. Berggrunn: Ryolitt (100 % gunstig oppstrøms).",
"s2_anomali": 0.48,
"s2_feox_z": 0.11,
"satsjekk": "Automatisk bildeanalyse: dypt/mørkt vann, tett vegetasjon – elva delvis skjult."
}
},
{
"type": "Feature",
"geometry": {
"type": "Point",
"coordinates": [
9.55312,
59.31351
]
},
"properties": {
"elv": "bekk",
"km": 1.6,
"z": 127.77,
"S": 0.01,
"Q": 19.1,
"w": 39.12,
"w_q": 13.11,
"h": 0.36,
"tau": 51.16,
"tau_c": 87.13,
"omega": 68.53,
"M": 0.59,
"D": 0.17,
"R": 0.29,
"sving": 0.37,
"os": 0.59,
"os_navn": "sideelv",
"foss": 0.37,
"foss_drop": 3.1,
"juv": 0.0,
"B": 0.77,
"frac_fav": 0.6,
"d_gull_km": 27.62,
"berg": "Sandstein | Sandstein og konglomerat",
"p_raw": 0.24,
"A_km2": 159.14,
"gate": 1.0,
"P": 53.71,
"rank": 12,
"klasse": "B",
"d_vei_m": 49,
"vei_navn": "track",
"d_sti_m": 415,
"d_parkering_m": 103,
"adkomst": "Lett: bilvei 49 m unna (track). Parkering 103 m unna.",
"navn": "Eikornrød (bekk)",
"hvorfor": "Foss/stryk rett oppstrøms (3 m fall på 100 m) – fossekulp og fjell i dagen. Os: sideelv kommer inn her – grus og tyngre materiale legges i osen og bankehodet nedenfor. Berggrunn: Sandstein (60 % gunstig oppstrøms).",
"s2_anomali": 0.9,
"s2_feox_z": 0.41,
"satsjekk": "Automatisk bildeanalyse: dypt/mørkt vann, tett vegetasjon – elva delvis skjult."
}
},
{
"type": "Feature",
"geometry": {
"type": "Point",
"coordinates": [
9.44554,
59.31114
]
},
"properties": {
"elv": "Sagtjernelva",
"km": 0.7,
"z": 130.89,
"S": 0.01,
"Q": 4.2,
"w": 18.43,
"w_q": 6.15,
"h": 0.27,
"tau": 23.02,
"tau_c": 68.07,
"omega": 19.52,
"M": 0.34,
"D": 0.02,
"R": 0.05,
"sving": 0.16,
"os": 0.87,
"os_navn": "Persholbekken",
"foss": 0.72,
"foss_drop": 3.97,
"juv": 0.0,
"B": 0.85,
"frac_fav": 1.0,
"d_gull_km": 24.57,
"berg": "Ryolitt | Finkornet granittisk gneis av suprakrustal opprinnelse. Lokalt porfyrisk metarhyolitt og kvartsskifer og amfibolitt | Telemark litotektoniske enhet",
"p_raw": 0.24,
"A_km2": 35.01,
"gate": 1.0,
"P": 53.65,
"rank": 13,
"klasse": "B",
"d_vei_m": 248,
"vei_navn": "Valebøvegen",
"d_sti_m": 961,
"d_parkering_m": 952,
"adkomst": "Kort gange: bilvei 248 m unna. Parkering 952 m unna.",
"navn": "Sagtjernelva, km 0.7",
"hvorfor": "Foss/stryk rett oppstrøms (4 m fall på 100 m) – fossekulp og fjell i dagen. Os: Persholbekken kommer inn her – grus og tyngre materiale legges i osen og bankehodet nedenfor. Berggrunn: Ryolitt (100 % gunstig oppstrøms).",
"s2_anomali": null,
"s2_feox_z": null,
"satsjekk": "Automatisk bildeanalyse: dypt/mørkt vann, tett vegetasjon – elva delvis skjult."
}
},
{
"type": "Feature",
"geometry": {
"type": "Point",
"coordinates": [
9.73229,
59.27774
]
},
"properties": {
"elv": "Siljanelva",
"km": 3.9,
"z": 81.15,
"S": 0.0,
"Q": 24.77,
"w": 44.78,
"w_q": 14.93,
"h": 1.05,
"tau": 5.82,
"tau_c": 17.35,
"omega": 3.08,
"M": 0.34,
"D": 0.59,
"R": 0.04,
"sving": 0.57,
"os": 0.49,
"os_navn": "sideelv",
"foss": 0.39,
"foss_drop": 0.0,
"juv": 0.0,
"B": 0.67,
"frac_fav": 0.4,
"d_gull_km": 37.46,
"berg": "Syenitt | Kvartssyenitt",
"p_raw": 0.23,
"A_km2": 206.38,
"gate": 1.0,
"P": 52.94,
"rank": 14,
"klasse": "B",
"d_vei_m": 49,
"vei_navn": "service",
"d_sti_m": 156,
"d_parkering_m": 127,
"adkomst": "Lett: bilvei 49 m unna (service). Parkering 127 m unna.",
"navn": "Siljan (Siljanelva)",
"hvorfor": "Skarp sving – grav på innersvingen og bak store steiner. Strømeffekten faller 59 % over strekningen – tungt materiale slipper her. Berggrunn: Syenitt (40 % gunstig oppstrøms).",
"s2_anomali": 2.39,
"s2_feox_z": 2.29,
"satsjekk": "Automatisk bildeanalyse: grus/sandbanke synlig, dypt/mørkt vann."
}
},
{
"type": "Feature",
"geometry": {
"type": "Point",
"coordinates": [
9.47535,
59.30622
]
},
"properties": {
"elv": "Sagtjernelva",
"km": 2.9,
"z": 86.38,
"S": 0.01,
"Q": 4.69,
"w": 19.5,
"w_q": 6.5,
"h": 0.26,
"tau": 28.61,
"tau_c": 77.74,
"omega": 26.9,
"M": 0.37,
"D": 0.41,
"R": 0.06,
"sving": 0.6,
"os": 0.18,
"os_navn": "sideelv",
"foss": 0.37,
"foss_drop": 6.24,
"juv": 0.0,
"B": 0.86,
"frac_fav": 1.0,
"d_gull_km": 25.85,
"berg": "Ryolitt | Finkornet granittisk gneis av suprakrustal opprinnelse. Lokalt porfyrisk metarhyolitt og kvartsskifer og amfibolitt | Telemark litotektoniske enhet",
"p_raw": 0.23,
"A_km2": 39.12,
"gate": 1.0,
"P": 52.8,
"rank": 15,
"klasse": "B",
"d_vei_m": 194,
"vei_navn": "Valebøvegen",
"d_sti_m": 819,
"d_parkering_m": 1211,
"adkomst": "Kort gange: bilvei 194 m unna. Parkering 1211 m unna.",
"navn": "Såta (Sagtjernelva)",
"hvorfor": "Foss/stryk rett oppstrøms (6 m fall på 100 m) – fossekulp og fjell i dagen. Skarp sving – grav på innersvingen og bak store steiner. Strømeffekten faller 41 % over strekningen – tungt materiale slipper her. Berggrunn: Ryolitt (100 % gunstig oppstrøms).",
"s2_anomali": 0.41,
"s2_feox_z": -0.21,
"satsjekk": "Automatisk bildeanalyse: dypt/mørkt vann."
}
},
{
"type": "Feature",
"geometry": {
"type": "Point",
"coordinates": [
9.55302,
59.33949
]
},
"properties": {
"elv": "bekk",
"km": 1.0,
"z": 243.02,
"S": 0.04,
"Q": 17.63,
"w": 28.68,
"w_q": 12.6,
"h": 0.3,
"tau": 130.26,
"tau_c": 153.8,
"omega": 268.86,
"M": 0.85,
"D": 0.02,
"R": 0.64,
"sving": 0.23,
"os": 0.0,
"os_navn": "",
"foss": 1.0,
"foss_drop": 6.41,
"juv": 0.04,
"B": 0.65,
"frac_fav": 0.4,
"d_gull_km": 25.39,
"berg": "Syenitt | Syenitt-larvikitthybrid",
"p_raw": 0.23,
"A_km2": 146.9,
"gate": 1.0,
"P": 52.07,
"rank": 16,
"klasse": "B",
"d_vei_m": 18,
"vei_navn": "Grønnsjøvegen",
"d_sti_m": 2888,
"d_parkering_m": 2942,
"adkomst": "Lett: bilvei 18 m unna (Grønnsjøvegen).",
"navn": "bekk, km 1.0",
"hvorfor": "Foss/stryk rett oppstrøms (6 m fall på 100 m) – fossekulp og fjell i dagen. τ = 130 Pa ≈ 0.8× terskelen: sand og grus flyttes ved flom, gull blir liggende (retensjon). Berggrunn: Syenitt (40 % gunstig oppstrøms).",
"s2_anomali": null,
"s2_feox_z": null,
"satsjekk": "Automatisk bildeanalyse: dypt/mørkt vann, tett vegetasjon – elva delvis skjult."
}
},
{
"type": "Feature",
"geometry": {
"type": "Point",
"coordinates": [
9.41191,
59.32384
]
},
"properties": {
"elv": "Garvannselva",
"km": 0.3,
"z": 218.28,
"S": 0.05,
"Q": 2.75,
"w": 13.94,
"w_q": 4.97,
"h": 0.14,
"tau": 73.52,
"tau_c": 166.47,
"omega": 100.96,
"M": 0.44,
"D": 0.16,
"R": 0.13,
"sving": 0.34,
"os": 0.13,
"os_navn": "Delerøysbekken",
"foss": 1.0,
"foss_drop": 13.82,
"juv": 0.0,
"B": 0.81,
"frac_fav": 1.0,
"d_gull_km": 22.48,
"berg": "Ryolitt | Finkornet granittisk gneis av suprakrustal opprinnelse. Lokalt porfyrisk metarhyolitt og kvartsskifer og amfibolitt | Telemark litotektoniske enhet",
"p_raw": 0.23,
"A_km2": 22.89,
"gate": 1.0,
"P": 52.0,
"rank": 17,
"klasse": "B",
"d_vei_m": 114,
"vei_navn": "Garvannsvegen",
"d_sti_m": 177,
"d_parkering_m": 1633,
"adkomst": "Lett: bilvei 114 m unna (Garvannsvegen).",
"navn": "Garvannsfossene (Garvannselva)",
"hvorfor": "Foss/stryk rett oppstrøms (14 m fall på 100 m) – fossekulp og fjell i dagen. Berggrunn: Ryolitt (100 % gunstig oppstrøms).",
"s2_anomali": null,
"s2_feox_z": null,
"satsjekk": "Automatisk bildeanalyse: ingen tydelige trekk."
}
},
{
"type": "Feature",
"geometry": {
"type": "Point",
"coordinates": [
9.41827,
59.31255
]
},
"properties": {
"elv": "Garvannselva",
"km": 1.7,
"z": 145.39,
"S": 0.01,
"Q": 2.86,
"w": 16.13,
"w_q": 5.07,
"h": 0.22,
"tau": 22.19,
"tau_c": 73.86,
"omega": 17.89,
"M": 0.3,
"D": 0.2,
"R": 0.03,
"sving": 0.69,
"os": 0.15,
"os_navn": "Elgtjennbekken",
"foss": 0.72,
"foss_drop": 4.1,
"juv": 0.0,
"B": 0.81,
"frac_fav": 1.0,
"d_gull_km": 23.78,
"berg": "Ryolitt | Finkornet granittisk gneis av suprakrustal opprinnelse. Lokalt porfyrisk metarhyolitt og kvartsskifer og amfibolitt | Telemark litotektoniske enhet",
"p_raw": 0.23,
"A_km2": 23.84,
"gate": 1.0,
"P": 51.6,
"rank": 18,
"klasse": "B",
"d_vei_m": 13,
"vei_navn": "Garvannsvegen",
"d_sti_m": 334,
"d_parkering_m": 405,
"adkomst": "Lett: bilvei 13 m unna (Garvannsvegen). Parkering 405 m unna.",
"navn": "Valeseter (Garvannselva)",
"hvorfor": "Foss/stryk rett oppstrøms (4 m fall på 100 m) – fossekulp og fjell i dagen. Skarp sving – grav på innersvingen og bak store steiner. Berggrunn: Ryolitt (100 % gunstig oppstrøms).",
"s2_anomali": 0.74,
"s2_feox_z": 0.23,
"satsjekk": "Automatisk bildeanalyse: dypt/mørkt vann."
}
},
{
"type": "Feature",
"geometry": {
"type": "Point",
"coordinates": [
9.80564,
59.36916
]
},
"properties": {
"elv": "bekk",
"km": 0.6,
"z": 337.06,
"S": 0.05,
"Q": 3.89,
"w": 15.29,
"w_q": 5.91,
"h": 0.17,
"tau": 86.05,
"tau_c": 166.94,
"omega": 131.01,
"M": 0.52,
"D": 0.0,
"R": 0.21,
"sving": 0.42,
"os": 0.94,
"os_navn": "Kolselva",
"foss": 1.0,
"foss_drop": 9.89,
"juv": 0.0,
"B": 0.55,
"frac_fav": 0.4,
"d_gull_km": 34.98,
"berg": "",
"p_raw": 0.22,
"A_km2": 32.39,
"gate": 1.0,
"P": 50.38,
"rank": 19,
"klasse": "B",
"d_vei_m": 48,
"vei_navn": "service",
"d_sti_m": 416,
"d_parkering_m": 9804,
"adkomst": "Lett: bilvei 48 m unna (service).",
"navn": "Tvigreina (bekk)",
"hvorfor": "Foss/stryk rett oppstrøms (10 m fall på 100 m) – fossekulp og fjell i dagen. Os: Kolselva kommer inn her – grus og tyngre materiale legges i osen og bankehodet nedenfor.",
"s2_anomali": null,
"s2_feox_z": null,
"satsjekk": "Automatisk bildeanalyse: dypt/mørkt vann."
}
},
{
"type": "Feature",
"geometry": {
"type": "Point",
"coordinates": [
9.61282,
59.20272
]
},
"properties": {
"elv": "Skienselva",
"km": 0.2,
"z": 0.0,
"S": 0.0,
"Q": 438.03,
"w": 181.01,
"w_q": 62.79,
"h": 2.7,
"tau": 11.87,
"tau_c": 15.41,
"omega": 10.63,
"M": 0.77,
"D": 0.21,
"R": 0.54,
"sving": 0.26,
"os": 0.32,
"os_navn": "Farelva",
"foss": 0.57,
"foss_drop": 0.0,
"juv": 0.0,
"B": 0.63,
"frac_fav": 0.1,
"d_gull_km": 39.77,
"berg": "Kalkstein | Kalkstein, knollekalk, leirskifer og kalkholdig sandstein",
"p_raw": 0.22,
"A_km2": 3650.23,
"gate": 1.0,
"P": 49.74,
"rank": 20,
"klasse": "B",
"d_vei_m": 129,
"vei_navn": "Jernbanebrygga",
"d_sti_m": 132,
"d_parkering_m": 161,
"adkomst": "Lett: bilvei 129 m unna (Jernbanebrygga). Parkering 161 m unna.",
"navn": "Hjellen (Skienselva)",
"hvorfor": "Bratt stryk like oppstrøms – kulper og fjellsprekker. Berggrunn: Kalkstein (10 % gunstig oppstrøms).",
"s2_anomali": 4.0,
"s2_feox_z": 0.43,
"satsjekk": "Automatisk bildeanalyse: dypt/mørkt vann."
}
}
]
}