{"type": "FeatureCollection", "features": [{"type": "Feature", "geometry": {"type": "Point", "coordinates": [9.72646, 59.17973]}, "properties": {"type": "basemetall", "s2_oh_z": null, "s2_feox_z": null}}, {"type": "Feature", "geometry": {"type": "Point", "coordinates": [9.56662, 59.30131]}, "properties": {"type": "basemetall", "s2_oh_z": 3.54, "s2_feox_z": -0.73}}, {"type": "Feature", "geometry": {"type": "Point", "coordinates": [9.4715, 59.34211]}, "properties": {"type": "basemetall", "s2_oh_z": 2.64, "s2_feox_z": 1.05}}, {"type": "Feature", "geometry": {"type": "Point", "coordinates": [9.53696, 59.25789]}, "properties": {"type": "basemetall", "s2_oh_z": -0.57, "s2_feox_z": 0.15}}, {"type": "Feature", "geometry": {"type": "Point", "coordinates": [9.5812, 59.202]}, "properties": {"type": "basemetall", "s2_oh_z": 1.1, "s2_feox_z": 1.18}}, {"type": "Feature", "geometry": {"type": "Point", "coordinates": [9.66677, 59.24656]}, "properties": {"type": "basemetall", "s2_oh_z": 0.58, "s2_feox_z": -0.05}}, {"type": "Feature", "geometry": {"type": "Point", "coordinates": [9.59812, 59.27267]}, "properties": {"type": "basemetall", "s2_oh_z": 0.98, "s2_feox_z": 0.61}}, {"type": "Feature", "geometry": {"type": "Point", "coordinates": [9.66542, 59.2582]}, "properties": {"type": "basemetall", "s2_oh_z": 3.94, "s2_feox_z": -0.28}}, {"type": "Feature", "geometry": {"type": "Point", "coordinates": [9.67075, 59.25827]}, "properties": {"type": "basemetall", "s2_oh_z": 3.69, "s2_feox_z": -0.19}}, {"type": "Feature", "geometry": {"type": "Point", "coordinates": [9.66066, 59.25951]}, "properties": {"type": "basemetall", "s2_oh_z": 6.12, "s2_feox_z": -1.12}}, {"type": "Feature", "geometry": {"type": "Point", "coordinates": [9.46066, 59.31971]}, "properties": {"type": "basemetall", "s2_oh_z": -0.01, "s2_feox_z": 0.21}}, {"type": "Feature", "geometry": {"type": "Point", "coordinates": [9.50014, 59.31897]}, "properties": {"type": "basemetall", "s2_oh_z": -0.57, "s2_feox_z": 0.13}}, {"type": "Feature", "geometry": {"type": "Point", "coordinates": [9.50524, 59.31526]}, "properties": {"type": "basemetall", "s2_oh_z": 2.72, "s2_feox_z": -0.0}}, {"type": "Feature", "geometry": {"type": "Point", "coordinates": [9.40419, 59.2755]}, "properties": {"type": "basemetall", "s2_oh_z": null, "s2_feox_z": null}}, {"type": "Feature", "geometry": {"type": "Point", "coordinates": [9.55219, 59.19605]}, "properties": {"type": "basemetall", "s2_oh_z": null, "s2_feox_z": null}}, {"type": "Feature", "geometry": {"type": "Point", "coordinates": [9.54877, 59.31851]}, "properties": {"type": "basemetall", "s2_oh_z": null, "s2_feox_z": null}}]}