<?xml version="1.0" encoding="UTF-8"?>
<kml xmlns="http://www.opengis.net/kml/2.2"><Document>
<name>GULLØYE – Skien</name>
<Style id="kA"><IconStyle><color>ff2b39c0</color><scale>1.1</scale></IconStyle></Style>
<Style id="kB"><IconStyle><color>ff227ee6</color><scale>1.1</scale></IconStyle></Style>
<Style id="kC"><IconStyle><color>ff0fc4f1</color><scale>1.1</scale></IconStyle></Style>
<Placemark><name>1A Sverige (bekk)</name><styleUrl>#kA</styleUrl><description>P=87. Foss/stryk rett oppstrøms (17 m fall på 100 m) – fossekulp og fjell i dagen. τ = 218 Pa ≈ 0.9× terskelen: sand og grus flyttes ved flom, gull blir liggende (retensjon). Berggrunn: Sandstein (71 % gunstig oppstrøms). Kort gange: bilvei 189 m unna. Parkering 1165 m unna.</description><Point><coordinates>9.56210,59.29676,0</coordinates></Point></Placemark>
<Placemark><name>2A Bøkkeren (bekk)</name><styleUrl>#kA</styleUrl><description>P=72. Foss/stryk rett oppstrøms (4 m fall på 100 m) – fossekulp og fjell i dagen. Os: sideelv kommer inn her – grus og tyngre materiale legges i osen og bankehodet nedenfor. Berggrunn: Sandstein (53 % gunstig oppstrøms). Lett: bilvei 98 m unna (Luksefjellvegen). Parkering 977 m unna.</description><Point><coordinates>9.55073,59.32187,0</coordinates></Point></Placemark>
<Placemark><name>3B Hakhaug (bekk)</name><styleUrl>#kB</styleUrl><description>P=70. Foss/stryk rett oppstrøms (23 m fall på 100 m) – fossekulp og fjell i dagen. Skarp sving – grav på innersvingen og bak store steiner. τ = 245 Pa ≈ 1.0× terskelen: sand og grus flyttes ved flom, gull blir liggende (retensjon). Berggrunn: Larvikitt (40 % gunstig oppstrøms). Lett: bilvei 11 m unna (Grorudveien).</description><Point><coordinates>9.69416,59.37561,0</coordinates></Point></Placemark>
<Placemark><name>4B Skridua (Grønsteinbekken)</name><styleUrl>#kB</styleUrl><description>P=67. Foss/stryk rett oppstrøms (15 m fall på 100 m) – fossekulp og fjell i dagen. Skarp sving – grav på innersvingen og bak store steiner. τ = 191 Pa ≈ 0.9× terskelen: sand og grus flyttes ved flom, gull blir liggende (retensjon). Berggrunn: Granittisk gneis (37 % gunstig oppstrøms). Lett: bilvei 49 m unna (Valebøvegen). Parkering 66 m unna.</description><Point><coordinates>9.53927,59.26503,0</coordinates></Point></Placemark>
<Placemark><name>5B Hogstad, nedre (Vanebuelva)</name><styleUrl>#kB</styleUrl><description>P=66. Foss/stryk rett oppstrøms (13 m fall på 100 m) – fossekulp og fjell i dagen. Os: sideelv kommer inn her – grus og tyngre materiale legges i osen og bankehodet nedenfor. Berggrunn: Latitt (40 % gunstig oppstrøms). Lett: bilvei 98 m unna (service).</description><Point><coordinates>9.65875,59.32155,0</coordinates></Point></Placemark>
<Placemark><name>6B Skogstue (bekk)</name><styleUrl>#kB</styleUrl><description>P=65. Foss/stryk rett oppstrøms (41 m fall på 100 m) – fossekulp og fjell i dagen. τ = 363 Pa ≈ 1.2× terskelen: sand og grus flyttes ved flom, gull blir liggende (retensjon). Lett: bilvei 133 m unna (Grorudveien).</description><Point><coordinates>9.66640,59.32830,0</coordinates></Point></Placemark>
<Placemark><name>7B bekk, km 1.8</name><styleUrl>#kB</styleUrl><description>P=63. Foss/stryk rett oppstrøms (12 m fall på 100 m) – fossekulp og fjell i dagen. Os: Hellerbekken kommer inn her – grus og tyngre materiale legges i osen og bankehodet nedenfor. Berggrunn: Syenitt (40 % gunstig oppstrøms). Lett: bilvei 9 m unna (Grønnsjøvegen).</description><Point><coordinates>9.55426,59.33275,0</coordinates></Point></Placemark>
<Placemark><name>8B Lid (Ønnabekken)</name><styleUrl>#kB</styleUrl><description>P=63. Foss/stryk rett oppstrøms (29 m fall på 100 m) – fossekulp og fjell i dagen. Skarp sving – grav på innersvingen og bak store steiner. τ = 219 Pa ≈ 0.8× terskelen: sand og grus flyttes ved flom, gull blir liggende (retensjon). Kort gange: bilvei 171 m unna.</description><Point><coordinates>9.69950,59.16019,0</coordinates></Point></Placemark>
<Placemark><name>9B Tokleiv (bekk)</name><styleUrl>#kB</styleUrl><description>P=60. Foss/stryk rett oppstrøms (3 m fall på 100 m) – fossekulp og fjell i dagen. Os: sideelv kommer inn her – grus og tyngre materiale legges i osen og bankehodet nedenfor. Skarp sving – grav på innersvingen og bak store steiner. Berggrunn: Larvikitt (40 % gunstig oppstrøms). Lett: bilvei 121 m unna (Grorudveien).</description><Point><coordinates>9.66465,59.36222,0</coordinates></Point></Placemark>
<Placemark><name>10B Vanebuelva, km 0.5</name><styleUrl>#kB</styleUrl><description>P=59. Foss/stryk rett oppstrøms (13 m fall på 100 m) – fossekulp og fjell i dagen. τ = 165 Pa ≈ 0.9× terskelen: sand og grus flyttes ved flom, gull blir liggende (retensjon). Berggrunn: Latitt (40 % gunstig oppstrøms). Kort gange: bilvei 160 m unna.</description><Point><coordinates>9.66620,59.33853,0</coordinates></Point></Placemark>
<Placemark><name>11B Såta (Sagtjernelva)</name><styleUrl>#kB</styleUrl><description>P=56. Foss/stryk rett oppstrøms (6 m fall på 100 m) – fossekulp og fjell i dagen. Berggrunn: Ryolitt (100 % gunstig oppstrøms). Kort gange: bilvei 521 m unna. Parkering 628 m unna.</description><Point><coordinates>9.45880,59.30916,0</coordinates></Point></Placemark>
<Placemark><name>12B Eikornrød (bekk)</name><styleUrl>#kB</styleUrl><description>P=54. Foss/stryk rett oppstrøms (3 m fall på 100 m) – fossekulp og fjell i dagen. Os: sideelv kommer inn her – grus og tyngre materiale legges i osen og bankehodet nedenfor. Berggrunn: Sandstein (60 % gunstig oppstrøms). Lett: bilvei 49 m unna (track). Parkering 103 m unna.</description><Point><coordinates>9.55312,59.31351,0</coordinates></Point></Placemark>
<Placemark><name>13B Sagtjernelva, km 0.7</name><styleUrl>#kB</styleUrl><description>P=54. Foss/stryk rett oppstrøms (4 m fall på 100 m) – fossekulp og fjell i dagen. Os: Persholbekken kommer inn her – grus og tyngre materiale legges i osen og bankehodet nedenfor. Berggrunn: Ryolitt (100 % gunstig oppstrøms). Kort gange: bilvei 248 m unna. Parkering 952 m unna.</description><Point><coordinates>9.44554,59.31114,0</coordinates></Point></Placemark>
<Placemark><name>14B Siljan (Siljanelva)</name><styleUrl>#kB</styleUrl><description>P=53. Skarp sving – grav på innersvingen og bak store steiner. Strømeffekten faller 59 % over strekningen – tungt materiale slipper her. Berggrunn: Syenitt (40 % gunstig oppstrøms). Lett: bilvei 49 m unna (service). Parkering 127 m unna.</description><Point><coordinates>9.73229,59.27774,0</coordinates></Point></Placemark>
<Placemark><name>15B Såta (Sagtjernelva)</name><styleUrl>#kB</styleUrl><description>P=53. Foss/stryk rett oppstrøms (6 m fall på 100 m) – fossekulp og fjell i dagen. Skarp sving – grav på innersvingen og bak store steiner. Strømeffekten faller 41 % over strekningen – tungt materiale slipper her. Berggrunn: Ryolitt (100 % gunstig oppstrøms). Kort gange: bilvei 194 m unna. Parkering 1211 m unna.</description><Point><coordinates>9.47535,59.30622,0</coordinates></Point></Placemark>
<Placemark><name>16B bekk, km 1.0</name><styleUrl>#kB</styleUrl><description>P=52. Foss/stryk rett oppstrøms (6 m fall på 100 m) – fossekulp og fjell i dagen. τ = 130 Pa ≈ 0.8× terskelen: sand og grus flyttes ved flom, gull blir liggende (retensjon). Berggrunn: Syenitt (40 % gunstig oppstrøms). Lett: bilvei 18 m unna (Grønnsjøvegen).</description><Point><coordinates>9.55302,59.33949,0</coordinates></Point></Placemark>
<Placemark><name>17B Garvannsfossene (Garvannselva)</name><styleUrl>#kB</styleUrl><description>P=52. Foss/stryk rett oppstrøms (14 m fall på 100 m) – fossekulp og fjell i dagen. Berggrunn: Ryolitt (100 % gunstig oppstrøms). Lett: bilvei 114 m unna (Garvannsvegen).</description><Point><coordinates>9.41191,59.32384,0</coordinates></Point></Placemark>
<Placemark><name>18B Valeseter (Garvannselva)</name><styleUrl>#kB</styleUrl><description>P=52. Foss/stryk rett oppstrøms (4 m fall på 100 m) – fossekulp og fjell i dagen. Skarp sving – grav på innersvingen og bak store steiner. Berggrunn: Ryolitt (100 % gunstig oppstrøms). Lett: bilvei 13 m unna (Garvannsvegen). Parkering 405 m unna.</description><Point><coordinates>9.41827,59.31255,0</coordinates></Point></Placemark>
<Placemark><name>19B Tvigreina (bekk)</name><styleUrl>#kB</styleUrl><description>P=50. Foss/stryk rett oppstrøms (10 m fall på 100 m) – fossekulp og fjell i dagen. Os: Kolselva kommer inn her – grus og tyngre materiale legges i osen og bankehodet nedenfor. Lett: bilvei 48 m unna (service).</description><Point><coordinates>9.80564,59.36916,0</coordinates></Point></Placemark>
<Placemark><name>20B Hjellen (Skienselva)</name><styleUrl>#kB</styleUrl><description>P=50. Bratt stryk like oppstrøms – kulper og fjellsprekker. Berggrunn: Kalkstein (10 % gunstig oppstrøms). Lett: bilvei 129 m unna (Jernbanebrygga). Parkering 161 m unna.</description><Point><coordinates>9.61282,59.20272,0</coordinates></Point></Placemark>
</Document></kml>