<?xml version="1.0" encoding="UTF-8"?>
<gpx version="1.1" creator="gulloye" xmlns="http://www.topografix.com/GPX/1/1">
  <wpt lat="59.29676" lon="9.56210"><name>1 A – Sverige (bekk)</name><desc>Foss/stryk rett oppstrøms (17 m fall på 100 m) – fossekulp og fjell i dagen. τ = 218 Pa ≈ 0.9× terskelen: sand og grus flyttes ved flom, gull blir liggende (retensjon). Berggrunn: Sandstein (71 % gunstig oppstrøms).</desc></wpt>
  <wpt lat="59.32187" lon="9.55073"><name>2 A – Bøkkeren (bekk)</name><desc>Foss/stryk rett oppstrøms (4 m fall på 100 m) – fossekulp og fjell i dagen. Os: sideelv kommer inn her – grus og tyngre materiale legges i osen og bankehodet nedenfor. Berggrunn: Sandstein (53 % gunstig oppstrøms).</desc></wpt>
  <wpt lat="59.37561" lon="9.69416"><name>3 B – Hakhaug (bekk)</name><desc>Foss/stryk rett oppstrøms (23 m fall på 100 m) – fossekulp og fjell i dagen. Skarp sving – grav på innersvingen og bak store steiner. τ = 245 Pa ≈ 1.0× terskelen: sand og grus flyttes ved flom, gull blir liggende (retensjon). Berggrunn: Larvikitt (40 % gunstig oppstrøms).</desc></wpt>
  <wpt lat="59.26503" lon="9.53927"><name>4 B – Skridua (Grønsteinbekken)</name><desc>Foss/stryk rett oppstrøms (15 m fall på 100 m) – fossekulp og fjell i dagen. Skarp sving – grav på innersvingen og bak store steiner. τ = 191 Pa ≈ 0.9× terskelen: sand og grus flyttes ved flom, gull blir liggende (retensjon). Berggrunn: Granittisk gneis (37 % gunstig oppstrøms).</desc></wpt>
  <wpt lat="59.32155" lon="9.65875"><name>5 B – Hogstad, nedre (Vanebuelva)</name><desc>Foss/stryk rett oppstrøms (13 m fall på 100 m) – fossekulp og fjell i dagen. Os: sideelv kommer inn her – grus og tyngre materiale legges i osen og bankehodet nedenfor. Berggrunn: Latitt (40 % gunstig oppstrøms).</desc></wpt>
  <wpt lat="59.32830" lon="9.66640"><name>6 B – Skogstue (bekk)</name><desc>Foss/stryk rett oppstrøms (41 m fall på 100 m) – fossekulp og fjell i dagen. τ = 363 Pa ≈ 1.2× terskelen: sand og grus flyttes ved flom, gull blir liggende (retensjon).</desc></wpt>
  <wpt lat="59.33275" lon="9.55426"><name>7 B – bekk, km 1.8</name><desc>Foss/stryk rett oppstrøms (12 m fall på 100 m) – fossekulp og fjell i dagen. Os: Hellerbekken kommer inn her – grus og tyngre materiale legges i osen og bankehodet nedenfor. Berggrunn: Syenitt (40 % gunstig oppstrøms).</desc></wpt>
  <wpt lat="59.16019" lon="9.69950"><name>8 B – Lid (Ønnabekken)</name><desc>Foss/stryk rett oppstrøms (29 m fall på 100 m) – fossekulp og fjell i dagen. Skarp sving – grav på innersvingen og bak store steiner. τ = 219 Pa ≈ 0.8× terskelen: sand og grus flyttes ved flom, gull blir liggende (retensjon).</desc></wpt>
  <wpt lat="59.36222" lon="9.66465"><name>9 B – Tokleiv (bekk)</name><desc>Foss/stryk rett oppstrøms (3 m fall på 100 m) – fossekulp og fjell i dagen. Os: sideelv kommer inn her – grus og tyngre materiale legges i osen og bankehodet nedenfor. Skarp sving – grav på innersvingen og bak store steiner. Berggrunn: Larvikitt (40 % gunstig oppstrøms).</desc></wpt>
  <wpt lat="59.33853" lon="9.66620"><name>10 B – Vanebuelva, km 0.5</name><desc>Foss/stryk rett oppstrøms (13 m fall på 100 m) – fossekulp og fjell i dagen. τ = 165 Pa ≈ 0.9× terskelen: sand og grus flyttes ved flom, gull blir liggende (retensjon). Berggrunn: Latitt (40 % gunstig oppstrøms).</desc></wpt>
  <wpt lat="59.30916" lon="9.45880"><name>11 B – Såta (Sagtjernelva)</name><desc>Foss/stryk rett oppstrøms (6 m fall på 100 m) – fossekulp og fjell i dagen. Berggrunn: Ryolitt (100 % gunstig oppstrøms).</desc></wpt>
  <wpt lat="59.31351" lon="9.55312"><name>12 B – Eikornrød (bekk)</name><desc>Foss/stryk rett oppstrøms (3 m fall på 100 m) – fossekulp og fjell i dagen. Os: sideelv kommer inn her – grus og tyngre materiale legges i osen og bankehodet nedenfor. Berggrunn: Sandstein (60 % gunstig oppstrøms).</desc></wpt>
  <wpt lat="59.31114" lon="9.44554"><name>13 B – Sagtjernelva, km 0.7</name><desc>Foss/stryk rett oppstrøms (4 m fall på 100 m) – fossekulp og fjell i dagen. Os: Persholbekken kommer inn her – grus og tyngre materiale legges i osen og bankehodet nedenfor. Berggrunn: Ryolitt (100 % gunstig oppstrøms).</desc></wpt>
  <wpt lat="59.27774" lon="9.73229"><name>14 B – Siljan (Siljanelva)</name><desc>Skarp sving – grav på innersvingen og bak store steiner. Strømeffekten faller 59 % over strekningen – tungt materiale slipper her. Berggrunn: Syenitt (40 % gunstig oppstrøms).</desc></wpt>
  <wpt lat="59.30622" lon="9.47535"><name>15 B – Såta (Sagtjernelva)</name><desc>Foss/stryk rett oppstrøms (6 m fall på 100 m) – fossekulp og fjell i dagen. Skarp sving – grav på innersvingen og bak store steiner. Strømeffekten faller 41 % over strekningen – tungt materiale slipper her. Berggrunn: Ryolitt (100 % gunstig oppstrøms).</desc></wpt>
  <wpt lat="59.33949" lon="9.55302"><name>16 B – bekk, km 1.0</name><desc>Foss/stryk rett oppstrøms (6 m fall på 100 m) – fossekulp og fjell i dagen. τ = 130 Pa ≈ 0.8× terskelen: sand og grus flyttes ved flom, gull blir liggende (retensjon). Berggrunn: Syenitt (40 % gunstig oppstrøms).</desc></wpt>
  <wpt lat="59.32384" lon="9.41191"><name>17 B – Garvannsfossene (Garvannselva)</name><desc>Foss/stryk rett oppstrøms (14 m fall på 100 m) – fossekulp og fjell i dagen. Berggrunn: Ryolitt (100 % gunstig oppstrøms).</desc></wpt>
  <wpt lat="59.31255" lon="9.41827"><name>18 B – Valeseter (Garvannselva)</name><desc>Foss/stryk rett oppstrøms (4 m fall på 100 m) – fossekulp og fjell i dagen. Skarp sving – grav på innersvingen og bak store steiner. Berggrunn: Ryolitt (100 % gunstig oppstrøms).</desc></wpt>
  <wpt lat="59.36916" lon="9.80564"><name>19 B – Tvigreina (bekk)</name><desc>Foss/stryk rett oppstrøms (10 m fall på 100 m) – fossekulp og fjell i dagen. Os: Kolselva kommer inn her – grus og tyngre materiale legges i osen og bankehodet nedenfor.</desc></wpt>
  <wpt lat="59.20272" lon="9.61282"><name>20 B – Hjellen (Skienselva)</name><desc>Bratt stryk like oppstrøms – kulper og fjellsprekker. Berggrunn: Kalkstein (10 % gunstig oppstrøms).</desc></wpt>
</gpx>