{
"type": "FeatureCollection",
"features": [
{
"type": "Feature",
"geometry": {
"type": "Point",
"coordinates": [
5.46954,
59.84529
]
},
"properties": {
"elv": "Vadelva",
"km": 0.7,
"z": 216.68,
"S": 0.11,
"Q": 1.33,
"w": 10.4,
"w_q": 3.46,
"h": 0.09,
"tau": 97.16,
"tau_c": 244.57,
"omega": 141.69,
"M": 0.4,
"D": 0.1,
"R": 0.09,
"sving": 0.78,
"os": 0.86,
"os_navn": "sideelv",
"foss": 1.0,
"foss_drop": 19.98,
"juv": 0.0,
"B": 0.65,
"frac_fav": 1.0,
"d_gull_km": 15.03,
"berg": "Grønnskifer | Grønnskifer og grønnstein, grønn fyllitt og sandstein (antatt turbiditt), stedvis lag av rødbåndet radiolariekiselstein | Øvre kaledonske dekkeserie",
"p_raw": 0.29,
"A_km2": 5.33,
"gate": 1.0,
"P": 85.07,
"rank": 1,
"klasse": "A",
"d_vei_m": 82,
"vei_navn": "service",
"d_sti_m": 3,
"d_parkering_m": 76,
"adkomst": "Lett: bilvei 82 m unna (service). Parkering 76 m unna.",
"navn": "Steingjelsheddo (Vadelva)",
"hvorfor": "Foss/stryk rett oppstrøms (20 m fall på 100 m) – fossekulp og fjell i dagen. Os: sideelv kommer inn her – grus og tyngre materiale legges i osen og bankehodet nedenfor. Skarp sving – grav på innersvingen og bak store steiner. Berggrunn: Grønnskifer (100 % gunstig oppstrøms).",
"s2_anomali": 0.9,
"s2_feox_z": 0.9,
"satsjekk": "Automatisk bildeanalyse: dypt/mørkt vann."
}
},
{
"type": "Feature",
"geometry": {
"type": "Point",
"coordinates": [
5.4769,
59.8172
]
},
"properties": {
"elv": "Vatnaelva",
"km": 0.2,
"z": 46.59,
"S": 0.02,
"Q": 3.96,
"w": 17.61,
"w_q": 5.97,
"h": 0.2,
"tau": 43.52,
"tau_c": 108.06,
"omega": 48.58,
"M": 0.4,
"D": 0.11,
"R": 0.09,
"sving": 0.72,
"os": 0.94,
"os_navn": "sideelv",
"foss": 0.51,
"foss_drop": 6.76,
"juv": 0.0,
"B": 0.77,
"frac_fav": 1.0,
"d_gull_km": 13.74,
"berg": "Sandstein | Grå sandstein og sandig fyllitt, stedvis med lag av kiselstein | Øvre kaledonske dekkeserie",
"p_raw": 0.28,
"A_km2": 15.85,
"gate": 1.0,
"P": 84.78,
"rank": 2,
"klasse": "A",
"d_vei_m": 97,
"vei_navn": "Vadvegen",
"d_sti_m": 218,
"d_parkering_m": 1804,
"adkomst": "Lett: bilvei 97 m unna (Vadvegen).",
"navn": "Vad (Vatnaelva)",
"hvorfor": "Foss/stryk rett oppstrøms (7 m fall på 100 m) – fossekulp og fjell i dagen. Os: sideelv kommer inn her – grus og tyngre materiale legges i osen og bankehodet nedenfor. Skarp sving – grav på innersvingen og bak store steiner. Berggrunn: Sandstein (100 % gunstig oppstrøms).",
"s2_anomali": 1.84,
"s2_feox_z": 0.08,
"satsjekk": "Automatisk bildeanalyse: dypt/mørkt vann."
}
},
{
"type": "Feature",
"geometry": {
"type": "Point",
"coordinates": [
5.35493,
59.87819
]
},
"properties": {
"elv": "Tveitaelva",
"km": 3.2,
"z": 78.51,
"S": 0.04,
"Q": 2.45,
"w": 14.25,
"w_q": 4.7,
"h": 0.15,
"tau": 51.74,
"tau_c": 137.26,
"omega": 59.94,
"M": 0.38,
"D": 0.21,
"R": 0.07,
"sving": 1.0,
"os": 0.52,
"os_navn": "sideelv",
"foss": 1.0,
"foss_drop": 6.24,
"juv": 0.0,
"B": 0.59,
"frac_fav": 0.68,
"d_gull_km": 13.92,
"berg": "Grønnstein | Grønnstein/grønnskifer, basaltisk andesitt | Øvre kaledonske dekkeserie",
"p_raw": 0.26,
"A_km2": 9.81,
"gate": 1.0,
"P": 76.7,
"rank": 3,
"klasse": "A",
"d_vei_m": 140,
"vei_navn": "track",
"d_sti_m": 142,
"d_parkering_m": 576,
"adkomst": "Lett: bilvei 140 m unna (track). Parkering 576 m unna.",
"navn": "Årbø (Tveitaelva)",
"hvorfor": "Foss/stryk rett oppstrøms (6 m fall på 100 m) – fossekulp og fjell i dagen. Os: sideelv kommer inn her – grus og tyngre materiale legges i osen og bankehodet nedenfor. Skarp sving – grav på innersvingen og bak store steiner. Berggrunn: Grønnstein (68 % gunstig oppstrøms).",
"s2_anomali": null,
"s2_feox_z": null,
"satsjekk": "Automatisk bildeanalyse: dypt/mørkt vann."
}
},
{
"type": "Feature",
"geometry": {
"type": "Point",
"coordinates": [
5.47141,
59.80394
]
},
"properties": {
"elv": "Vatnaelva",
"km": 1.9,
"z": 10.97,
"S": 0.01,
"Q": 5.22,
"w": 20.84,
"w_q": 6.85,
"h": 0.24,
"tau": 34.39,
"tau_c": 87.24,
"omega": 35.22,
"M": 0.39,
"D": 0.28,
"R": 0.08,
"sving": 0.18,
"os": 0.3,
"os_navn": "Gauksløken",
"foss": 1.0,
"foss_drop": 4.56,
"juv": 0.0,
"B": 0.8,
"frac_fav": 1.0,
"d_gull_km": 12.88,
"berg": "Sandstein | Grå sandstein og sandig fyllitt, stedvis med lag av kiselstein | Øvre kaledonske dekkeserie",
"p_raw": 0.24,
"A_km2": 20.87,
"gate": 1.0,
"P": 70.94,
"rank": 4,
"klasse": "A",
"d_vei_m": 17,
"vei_navn": "Vatnadalsvegen",
"d_sti_m": 867,
"d_parkering_m": 1730,
"adkomst": "Lett: bilvei 17 m unna (Vatnadalsvegen).",
"navn": "Vatna (Vatnaelva)",
"hvorfor": "Foss/stryk rett oppstrøms (5 m fall på 100 m) – fossekulp og fjell i dagen. Berggrunn: Sandstein (100 % gunstig oppstrøms).",
"s2_anomali": 2.28,
"s2_feox_z": 0.5,
"satsjekk": "Automatisk bildeanalyse: dypt/mørkt vann, tett vegetasjon – elva delvis skjult."
}
},
{
"type": "Feature",
"geometry": {
"type": "Point",
"coordinates": [
5.35557,
59.87088
]
},
"properties": {
"elv": "Rydlandselva",
"km": 1.1,
"z": 53.1,
"S": 0.04,
"Q": 4.69,
"w": 19.52,
"w_q": 6.5,
"h": 0.18,
"tau": 63.89,
"tau_c": 138.41,
"omega": 85.07,
"M": 0.46,
"D": 0.24,
"R": 0.15,
"sving": 0.36,
"os": 0.0,
"os_navn": "",
"foss": 1.0,
"foss_drop": 4.94,
"juv": 0.0,
"B": 0.79,
"frac_fav": 1.0,
"d_gull_km": 13.19,
"berg": "Felsisk vulkansk bergart | Kvartskeratofyr, lys grå til grønngrå, vanligvis porfyrisk, også lag av kvartsitt og glimmerskifer | Øvre kaledonske dekkeserie",
"p_raw": 0.23,
"A_km2": 18.75,
"gate": 1.0,
"P": 67.46,
"rank": 5,
"klasse": "B",
"d_vei_m": 187,
"vei_navn": "Fitjarvegen",
"d_sti_m": 957,
"d_parkering_m": 1149,
"adkomst": "Kort gange: bilvei 187 m unna. Parkering 1149 m unna.",
"navn": "Jøtulbrutjørna (Rydlandselva)",
"hvorfor": "Foss/stryk rett oppstrøms (5 m fall på 100 m) – fossekulp og fjell i dagen. Berggrunn: Felsisk vulkansk bergart (100 % gunstig oppstrøms).",
"s2_anomali": 1.36,
"s2_feox_z": 1.36,
"satsjekk": "Automatisk bildeanalyse: ingen tydelige trekk."
}
},
{
"type": "Feature",
"geometry": {
"type": "Point",
"coordinates": [
5.47991,
59.83556
]
},
"properties": {
"elv": "Vadelva",
"km": 2.7,
"z": 145.17,
"S": 0.11,
"Q": 2.46,
"w": 14.16,
"w_q": 4.71,
"h": 0.11,
"tau": 112.04,
"tau_c": 237.71,
"omega": 181.56,
"M": 0.47,
"D": 0.07,
"R": 0.16,
"sving": 0.71,
"os": 0.0,
"os_navn": "",
"foss": 1.0,
"foss_drop": 15.93,
"juv": 0.0,
"B": 0.72,
"frac_fav": 1.0,
"d_gull_km": 14.89,
"berg": "Grønnskifer | Grønnskifer og grønnstein, grønn fyllitt og sandstein (antatt turbiditt), stedvis lag av rødbåndet radiolariekiselstein | Øvre kaledonske dekkeserie",
"p_raw": 0.22,
"A_km2": 9.84,
"gate": 1.0,
"P": 65.91,
"rank": 6,
"klasse": "B",
"d_vei_m": 331,
"vei_navn": "Nedre Lundsseter bru",
"d_sti_m": 362,
"d_parkering_m": 359,
"adkomst": "Kort gange: bilvei 331 m unna. Parkering 359 m unna.",
"navn": "Eikekleiv (Vadelva)",
"hvorfor": "Foss/stryk rett oppstrøms (16 m fall på 100 m) – fossekulp og fjell i dagen. Skarp sving – grav på innersvingen og bak store steiner. Berggrunn: Grønnskifer (100 % gunstig oppstrøms).",
"s2_anomali": 1.56,
"s2_feox_z": 0.25,
"satsjekk": "Automatisk bildeanalyse: dypt/mørkt vann."
}
},
{
"type": "Feature",
"geometry": {
"type": "Point",
"coordinates": [
5.40667,
59.93229
]
},
"properties": {
"elv": "Vistvikelva",
"km": 1.2,
"z": 246.23,
"S": 0.1,
"Q": 0.94,
"w": 8.71,
"w_q": 2.91,
"h": 0.08,
"tau": 80.35,
"tau_c": 229.36,
"omega": 105.32,
"M": 0.35,
"D": 0.02,
"R": 0.05,
"sving": 0.17,
"os": 0.94,
"os_navn": "sideelv",
"foss": 1.0,
"foss_drop": 15.58,
"juv": 0.0,
"B": 0.62,
"frac_fav": 1.0,
"d_gull_km": 16.3,
"berg": "Metagabbro | Metagabbro, stedvis olivinførende, middels- til finkornet, oppbygd av lagganger, stedvis gabbronoritt, dioritt, kvartsmonzodioritt, tonalitt, granitt og syenitt | Øvre kaledonske dekkeserie",
"p_raw": 0.21,
"A_km2": 3.77,
"gate": 1.0,
"P": 61.61,
"rank": 7,
"klasse": "B",
"d_vei_m": 39,
"vei_navn": "track",
"d_sti_m": 79,
"d_parkering_m": 4204,
"adkomst": "Lett: bilvei 39 m unna (track).",
"navn": "Vistvikelva, km 1.2",
"hvorfor": "Foss/stryk rett oppstrøms (16 m fall på 100 m) – fossekulp og fjell i dagen. Os: sideelv kommer inn her – grus og tyngre materiale legges i osen og bankehodet nedenfor. Berggrunn: Metagabbro (100 % gunstig oppstrøms).",
"s2_anomali": null,
"s2_feox_z": null,
"satsjekk": "Automatisk bildeanalyse: dypt/mørkt vann."
}
},
{
"type": "Feature",
"geometry": {
"type": "Point",
"coordinates": [
5.47417,
59.82462
]
},
"properties": {
"elv": "Vadelva",
"km": 4.3,
"z": 79.65,
"S": 0.03,
"Q": 3.38,
"w": 16.29,
"w_q": 5.52,
"h": 0.17,
"tau": 56.41,
"tau_c": 134.7,
"omega": 69.67,
"M": 0.42,
"D": 0.06,
"R": 0.1,
"sving": 0.5,
"os": 0.0,
"os_navn": "",
"foss": 1.0,
"foss_drop": 5.12,
"juv": 0.0,
"B": 0.75,
"frac_fav": 1.0,
"d_gull_km": 13.99,
"berg": "Grønnskifer | Grønnskifer og grønnstein, grønn fyllitt og sandstein (antatt turbiditt), stedvis lag av rødbåndet radiolariekiselstein | Øvre kaledonske dekkeserie",
"p_raw": 0.2,
"A_km2": 13.53,
"gate": 1.0,
"P": 59.0,
"rank": 8,
"klasse": "B",
"d_vei_m": 17,
"vei_navn": "track",
"d_sti_m": 67,
"d_parkering_m": 1461,
"adkomst": "Lett: bilvei 17 m unna (track). Parkering 1461 m unna.",
"navn": "Hauglandskverna (Vadelva)",
"hvorfor": "Foss/stryk rett oppstrøms (5 m fall på 100 m) – fossekulp og fjell i dagen. Berggrunn: Grønnskifer (100 % gunstig oppstrøms).",
"s2_anomali": null,
"s2_feox_z": null,
"satsjekk": "Automatisk bildeanalyse: dypt/mørkt vann."
}
},
{
"type": "Feature",
"geometry": {
"type": "Point",
"coordinates": [
5.50514,
59.89619
]
},
"properties": {
"elv": "Bortveitelva",
"km": 2.7,
"z": 104.41,
"S": 0.14,
"Q": 1.7,
"w": 11.05,
"w_q": 3.91,
"h": 0.09,
"tau": 127.73,
"tau_c": 274.81,
"omega": 215.04,
"M": 0.46,
"D": 0.01,
"R": 0.15,
"sving": 0.68,
"os": 0.0,
"os_navn": "",
"foss": 1.0,
"foss_drop": 20.43,
"juv": 0.0,
"B": 0.68,
"frac_fav": 1.0,
"d_gull_km": 20.34,
"berg": "Metagabbro | Metagabbro, stedvis olivinførende, middels- til finkornet, oppbygd av lagganger, stedvis gabbronoritt, dioritt, kvartsmonzodioritt, tonalitt, granitt og syenitt | Øvre kaledonske dekkeserie",
"p_raw": 0.2,
"A_km2": 6.81,
"gate": 1.0,
"P": 58.81,
"rank": 9,
"klasse": "B",
"d_vei_m": 59,
"vei_navn": "Børtveit",
"d_sti_m": 324,
"d_parkering_m": 1285,
"adkomst": "Lett: bilvei 59 m unna (Børtveit). Parkering 1285 m unna.",
"navn": "Bortveit (Bortveitelva)",
"hvorfor": "Foss/stryk rett oppstrøms (20 m fall på 100 m) – fossekulp og fjell i dagen. Skarp sving – grav på innersvingen og bak store steiner. Berggrunn: Metagabbro (100 % gunstig oppstrøms).",
"s2_anomali": null,
"s2_feox_z": null,
"satsjekk": "Automatisk bildeanalyse: dypt/mørkt vann."
}
},
{
"type": "Feature",
"geometry": {
"type": "Point",
"coordinates": [
5.48681,
59.89022
]
},
"properties": {
"elv": "Bortveitelva",
"km": 0.8,
"z": 289.98,
"S": 0.05,
"Q": 1.16,
"w": 8.52,
"w_q": 3.22,
"h": 0.12,
"tau": 53.49,
"tau_c": 155.35,
"omega": 60.51,
"M": 0.34,
"D": 0.01,
"R": 0.05,
"sving": 0.79,
"os": 0.59,
"os_navn": "sideelv",
"foss": 0.51,
"foss_drop": 8.35,
"juv": 0.0,
"B": 0.64,
"frac_fav": 1.0,
"d_gull_km": 19.15,
"berg": "Metagabbro | Metagabbro, stedvis olivinførende, middels- til finkornet, oppbygd av lagganger, stedvis gabbronoritt, dioritt, kvartsmonzodioritt, tonalitt, granitt og syenitt | Øvre kaledonske dekkeserie",
"p_raw": 0.19,
"A_km2": 4.62,
"gate": 1.0,
"P": 56.73,
"rank": 10,
"klasse": "B",
"d_vei_m": 67,
"vei_navn": "Børtveit",
"d_sti_m": 433,
"d_parkering_m": 1864,
"adkomst": "Lett: bilvei 67 m unna (Børtveit).",
"navn": "Bortveitsetra (Bortveitelva)",
"hvorfor": "Foss/stryk rett oppstrøms (8 m fall på 100 m) – fossekulp og fjell i dagen. Os: sideelv kommer inn her – grus og tyngre materiale legges i osen og bankehodet nedenfor. Skarp sving – grav på innersvingen og bak store steiner. Berggrunn: Metagabbro (100 % gunstig oppstrøms).",
"s2_anomali": null,
"s2_feox_z": null,
"satsjekk": "Automatisk bildeanalyse: dypt/mørkt vann, tett vegetasjon – elva delvis skjult."
}
},
{
"type": "Feature",
"geometry": {
"type": "Point",
"coordinates": [
5.33592,
59.93869
]
},
"properties": {
"elv": "Årskogelva",
"km": 1.2,
"z": 35.93,
"S": 0.1,
"Q": 1.37,
"w": 10.88,
"w_q": 3.51,
"h": 0.09,
"tau": 89.81,
"tau_c": 232.97,
"omega": 126.33,
"M": 0.39,
"D": 0.17,
"R": 0.08,
"sving": 0.56,
"os": 0.0,
"os_navn": "",
"foss": 1.0,
"foss_drop": 19.68,
"juv": 0.0,
"B": 0.66,
"frac_fav": 1.0,
"d_gull_km": 16.54,
"berg": "Metagabbro | Metagabbro, stedvis olivinførende, middels- til finkornet, oppbygd av lagganger, stedvis gabbronoritt, dioritt, kvartsmonzodioritt, tonalitt, granitt og syenitt | Øvre kaledonske dekkeserie",
"p_raw": 0.19,
"A_km2": 5.48,
"gate": 1.0,
"P": 56.02,
"rank": 11,
"klasse": "B",
"d_vei_m": 65,
"vei_navn": "Sandvikvågvegen",
"d_sti_m": 145,
"d_parkering_m": 1543,
"adkomst": "Lett: bilvei 65 m unna (Sandvikvågvegen).",
"navn": "Årskog (Årskogelva)",
"hvorfor": "Foss/stryk rett oppstrøms (20 m fall på 100 m) – fossekulp og fjell i dagen. Skarp sving – grav på innersvingen og bak store steiner. Berggrunn: Metagabbro (100 % gunstig oppstrøms).",
"s2_anomali": 1.14,
"s2_feox_z": 1.14,
"satsjekk": "Automatisk bildeanalyse: tett vegetasjon – elva delvis skjult."
}
},
{
"type": "Feature",
"geometry": {
"type": "Point",
"coordinates": [
5.34773,
59.93387
]
},
"properties": {
"elv": "Årskogelva",
"km": 0.2,
"z": 203.06,
"S": 0.09,
"Q": 1.34,
"w": 10.36,
"w_q": 3.47,
"h": 0.09,
"tau": 84.1,
"tau_c": 219.55,
"omega": 115.36,
"M": 0.38,
"D": 0.0,
"R": 0.08,
"sving": 0.79,
"os": 0.0,
"os_navn": "",
"foss": 1.0,
"foss_drop": 10.98,
"juv": 0.0,
"B": 0.66,
"frac_fav": 1.0,
"d_gull_km": 16.83,
"berg": "Metagabbro | Metagabbro, stedvis olivinførende, middels- til finkornet, oppbygd av lagganger, stedvis gabbronoritt, dioritt, kvartsmonzodioritt, tonalitt, granitt og syenitt | Øvre kaledonske dekkeserie",
"p_raw": 0.19,
"A_km2": 5.36,
"gate": 1.0,
"P": 55.99,
"rank": 12,
"klasse": "B",
"d_vei_m": 442,
"vei_navn": "service",
"d_sti_m": 91,
"d_parkering_m": 1355,
"adkomst": "Kort gange: bilvei 442 m unna. Parkering 1355 m unna.",
"navn": "Lomatjørna (Årskogelva)",
"hvorfor": "Foss/stryk rett oppstrøms (11 m fall på 100 m) – fossekulp og fjell i dagen. Skarp sving – grav på innersvingen og bak store steiner. Berggrunn: Metagabbro (100 % gunstig oppstrøms).",
"s2_anomali": null,
"s2_feox_z": null,
"satsjekk": "Automatisk bildeanalyse: ingen tydelige trekk."
}
},
{
"type": "Feature",
"geometry": {
"type": "Point",
"coordinates": [
5.40953,
59.94226
]
},
"properties": {
"elv": "Vistvikelva",
"km": 2.4,
"z": 100.35,
"S": 0.18,
"Q": 1.25,
"w": 10.03,
"w_q": 3.35,
"h": 0.07,
"tau": 132.62,
"tau_c": 309.73,
"omega": 220.22,
"M": 0.43,
"D": 0.0,
"R": 0.11,
"sving": 0.51,
"os": 0.2,
"os_navn": "sideelv",
"foss": 1.0,
"foss_drop": 22.21,
"juv": 0.0,
"B": 0.65,
"frac_fav": 1.0,
"d_gull_km": 15.18,
"berg": "Metagabbro | Metagabbro, stedvis olivinførende, middels- til finkornet, oppbygd av lagganger, stedvis gabbronoritt, dioritt, kvartsmonzodioritt, tonalitt, granitt og syenitt | Øvre kaledonske dekkeserie",
"p_raw": 0.18,
"A_km2": 4.98,
"gate": 1.0,
"P": 54.88,
"rank": 13,
"klasse": "B",
"d_vei_m": 16,
"vei_navn": "track",
"d_sti_m": 482,
"d_parkering_m": 4722,
"adkomst": "Lett: bilvei 16 m unna (track).",
"navn": "Grønestølen (Vistvikelva)",
"hvorfor": "Foss/stryk rett oppstrøms (22 m fall på 100 m) – fossekulp og fjell i dagen. Skarp sving – grav på innersvingen og bak store steiner. Berggrunn: Metagabbro (100 % gunstig oppstrøms).",
"s2_anomali": null,
"s2_feox_z": null,
"satsjekk": "Automatisk bildeanalyse: dypt/mørkt vann."
}
},
{
"type": "Feature",
"geometry": {
"type": "Point",
"coordinates": [
5.33917,
59.90022
]
},
"properties": {
"elv": "bekk",
"km": 1.6,
"z": 30.07,
"S": 0.09,
"Q": 1.25,
"w": 8.49,
"w_q": 3.36,
"h": 0.1,
"tau": 90.19,
"tau_c": 217.67,
"omega": 129.48,
"M": 0.41,
"D": 0.0,
"R": 0.1,
"sving": 0.66,
"os": 0.05,
"os_navn": "Vikeelva",
"foss": 1.0,
"foss_drop": 14.56,
"juv": 0.0,
"B": 0.65,
"frac_fav": 1.0,
"d_gull_km": 15.93,
"berg": "Grønnstein | Grønnstein/grønnskifer, basaltisk andesitt | Øvre kaledonske dekkeserie",
"p_raw": 0.18,
"A_km2": 5.02,
"gate": 1.0,
"P": 54.51,
"rank": 14,
"klasse": "B",
"d_vei_m": 12,
"vei_navn": "Nygardsvegen",
"d_sti_m": 582,
"d_parkering_m": 860,
"adkomst": "Lett: bilvei 12 m unna (Nygardsvegen). Parkering 860 m unna.",
"navn": "Søldreid (bekk)",
"hvorfor": "Foss/stryk rett oppstrøms (15 m fall på 100 m) – fossekulp og fjell i dagen. Skarp sving – grav på innersvingen og bak store steiner. Berggrunn: Grønnstein (100 % gunstig oppstrøms).",
"s2_anomali": 0.8,
"s2_feox_z": 0.8,
"satsjekk": "Automatisk bildeanalyse: tett vegetasjon – elva delvis skjult."
}
},
{
"type": "Feature",
"geometry": {
"type": "Point",
"coordinates": [
5.39231,
59.88044
]
},
"properties": {
"elv": "bekk",
"km": 0.2,
"z": 268.63,
"S": 0.15,
"Q": 1.49,
"w": 10.99,
"w_q": 3.66,
"h": 0.08,
"tau": 124.52,
"tau_c": 284.94,
"omega": 203.82,
"M": 0.44,
"D": 0.07,
"R": 0.12,
"sving": 0.48,
"os": 0.0,
"os_navn": "",
"foss": 1.0,
"foss_drop": 25.89,
"juv": 0.0,
"B": 0.67,
"frac_fav": 1.0,
"d_gull_km": 15.09,
"berg": "Grønnstein | Grønnstein/grønnskifer, basaltisk andesitt | Øvre kaledonske dekkeserie",
"p_raw": 0.18,
"A_km2": 5.97,
"gate": 1.0,
"P": 52.57,
"rank": 15,
"klasse": "B",
"d_vei_m": 1013,
"vei_navn": "track",
"d_sti_m": 112,
"d_parkering_m": 2597,
"adkomst": "Gange 1.0 km fra nærmeste bilvei.",
"navn": "bekk, km 0.2",
"hvorfor": "Foss/stryk rett oppstrøms (26 m fall på 100 m) – fossekulp og fjell i dagen. Berggrunn: Grønnstein (100 % gunstig oppstrøms).",
"s2_anomali": null,
"s2_feox_z": null,
"satsjekk": "Automatisk bildeanalyse: tett vegetasjon – elva delvis skjult."
}
},
{
"type": "Feature",
"geometry": {
"type": "Point",
"coordinates": [
5.37422,
59.88248
]
},
"properties": {
"elv": "Tveitaelva",
"km": 1.7,
"z": 204.2,
"S": 0.06,
"Q": 2.28,
"w": 13.59,
"w_q": 4.53,
"h": 0.13,
"tau": 73.38,
"tau_c": 178.14,
"omega": 98.53,
"M": 0.41,
"D": 0.06,
"R": 0.1,
"sving": 0.5,
"os": 0.0,
"os_navn": "",
"foss": 1.0,
"foss_drop": 20.52,
"juv": 0.0,
"B": 0.58,
"frac_fav": 0.68,
"d_gull_km": 14.81,
"berg": "Grønnstein | Grønnstein/grønnskifer, basaltisk andesitt | Øvre kaledonske dekkeserie",
"p_raw": 0.15,
"A_km2": 9.13,
"gate": 1.0,
"P": 45.52,
"rank": 16,
"klasse": "B",
"d_vei_m": 721,
"vei_navn": "track",
"d_sti_m": 108,
"d_parkering_m": 1592,
"adkomst": "Gange 0.7 km fra nærmeste bilvei.",
"navn": "Tveitaelva, km 1.7",
"hvorfor": "Foss/stryk rett oppstrøms (21 m fall på 100 m) – fossekulp og fjell i dagen. Skarp sving – grav på innersvingen og bak store steiner. Berggrunn: Grønnstein (68 % gunstig oppstrøms).",
"s2_anomali": null,
"s2_feox_z": null,
"satsjekk": "Automatisk bildeanalyse: ingen tydelige trekk."
}
},
{
"type": "Feature",
"geometry": {
"type": "Point",
"coordinates": [
5.34075,
59.91252
]
},
"properties": {
"elv": "Fitjarelva",
"km": 2.4,
"z": 51.92,
"S": 0.04,
"Q": 1.43,
"w": 10.77,
"w_q": 3.58,
"h": 0.12,
"tau": 48.85,
"tau_c": 147.31,
"omega": 53.14,
"M": 0.33,
"D": 0.14,
"R": 0.04,
"sving": 0.22,
"os": 0.97,
"os_navn": "Kråbekken",
"foss": 1.0,
"foss_drop": 7.09,
"juv": 0.0,
"B": 0.41,
"frac_fav": 0.35,
"d_gull_km": 17.27,
"berg": "Granitt | Granitt, grovkornet (usikker relativ alder) | Øvre kaledonske dekkeserie",
"p_raw": 0.15,
"A_km2": 5.71,
"gate": 1.0,
"P": 45.26,
"rank": 17,
"klasse": "B",
"d_vei_m": 89,
"vei_navn": "Kvednavegen",
"d_sti_m": 291,
"d_parkering_m": 540,
"adkomst": "Lett: bilvei 89 m unna (Kvednavegen). Parkering 540 m unna.",
"navn": "Volden (Fitjarelva)",
"hvorfor": "Foss/stryk rett oppstrøms (7 m fall på 100 m) – fossekulp og fjell i dagen. Os: Kråbekken kommer inn her – grus og tyngre materiale legges i osen og bankehodet nedenfor. Berggrunn: Granitt (35 % gunstig oppstrøms).",
"s2_anomali": null,
"s2_feox_z": null,
"satsjekk": "Automatisk bildeanalyse: dypt/mørkt vann."
}
},
{
"type": "Feature",
"geometry": {
"type": "Point",
"coordinates": [
5.48496,
59.67834
]
},
"properties": {
"elv": "bekk",
"km": 2.1,
"z": 86.21,
"S": 0.15,
"Q": 0.49,
"w": 6.26,
"w_q": 2.11,
"h": 0.06,
"tau": 87.44,
"tau_c": 279.14,
"omega": 113.53,
"M": 0.31,
"D": -0.0,
"R": 0.03,
"sving": 0.27,
"os": 0.4,
"os_navn": "sideelv",
"foss": 1.0,
"foss_drop": 28.41,
"juv": 0.0,
"B": 0.55,
"frac_fav": 1.0,
"d_gull_km": 13.39,
"berg": "Glimmerskifer | Kvartsglimmerskifer til glimmergneis | Nær stedeget grunnfjell",
"p_raw": 0.14,
"A_km2": 1.97,
"gate": 1.0,
"P": 42.5,
"rank": 18,
"klasse": "C",
"d_vei_m": 131,
"vei_navn": "Tittelsnesvegen",
"d_sti_m": 127,
"d_parkering_m": 171,
"adkomst": "Lett: bilvei 131 m unna (Tittelsnesvegen). Parkering 171 m unna.",
"navn": "Tråvås (bekk)",
"hvorfor": "Foss/stryk rett oppstrøms (28 m fall på 100 m) – fossekulp og fjell i dagen. Berggrunn: Glimmerskifer (100 % gunstig oppstrøms).",
"s2_anomali": 1.59,
"s2_feox_z": 1.59,
"satsjekk": "Automatisk bildeanalyse: dypt/mørkt vann."
}
},
{
"type": "Feature",
"geometry": {
"type": "Point",
"coordinates": [
5.4901,
59.89655
]
},
"properties": {
"elv": "Bortveitelva",
"km": 1.7,
"z": 248.71,
"S": 0.11,
"Q": 1.54,
"w": 10.97,
"w_q": 3.73,
"h": 0.09,
"tau": 98.6,
"tau_c": 237.42,
"omega": 146.59,
"M": 0.42,
"D": 0.0,
"R": 0.1,
"sving": 0.24,
"os": 0.0,
"os_navn": "",
"foss": 1.0,
"foss_drop": 10.36,
"juv": 0.0,
"B": 0.67,
"frac_fav": 1.0,
"d_gull_km": 19.8,
"berg": "Metagabbro | Metagabbro, stedvis olivinførende, middels- til finkornet, oppbygd av lagganger, stedvis gabbronoritt, dioritt, kvartsmonzodioritt, tonalitt, granitt og syenitt | Øvre kaledonske dekkeserie",
"p_raw": 0.14,
"A_km2": 6.17,
"gate": 1.0,
"P": 42.05,
"rank": 19,
"klasse": "C",
"d_vei_m": 22,
"vei_navn": "track",
"d_sti_m": 1000,
"d_parkering_m": 1951,
"adkomst": "Lett: bilvei 22 m unna (track).",
"navn": "Bortveitsetra (Bortveitelva)",
"hvorfor": "Foss/stryk rett oppstrøms (10 m fall på 100 m) – fossekulp og fjell i dagen. Berggrunn: Metagabbro (100 % gunstig oppstrøms).",
"s2_anomali": null,
"s2_feox_z": null,
"satsjekk": "Automatisk bildeanalyse: dypt/mørkt vann, tett vegetasjon – elva delvis skjult."
}
},
{
"type": "Feature",
"geometry": {
"type": "Point",
"coordinates": [
5.38291,
59.89121
]
},
"properties": {
"elv": "Tveitaelva",
"km": 0.4,
"z": 297.63,
"S": 0.07,
"Q": 1.91,
"w": 12.39,
"w_q": 4.14,
"h": 0.11,
"tau": 77.49,
"tau_c": 192.31,
"omega": 105.19,
"M": 0.4,
"D": 0.0,
"R": 0.09,
"sving": 0.49,
"os": 0.0,
"os_navn": "",
"foss": 1.0,
"foss_drop": 9.29,
"juv": 0.0,
"B": 0.57,
"frac_fav": 0.68,
"d_gull_km": 15.9,
"berg": "Grønnstein | Grønnstein/grønnskifer, basaltisk andesitt | Øvre kaledonske dekkeserie",
"p_raw": 0.14,
"A_km2": 7.62,
"gate": 1.0,
"P": 41.45,
"rank": 20,
"klasse": "C",
"d_vei_m": 1027,
"vei_navn": "service",
"d_sti_m": 132,
"d_parkering_m": 2374,
"adkomst": "Gange 1.0 km fra nærmeste bilvei.",
"navn": "Ådnetjørna (Tveitaelva)",
"hvorfor": "Foss/stryk rett oppstrøms (9 m fall på 100 m) – fossekulp og fjell i dagen. Berggrunn: Grønnstein (68 % gunstig oppstrøms).",
"s2_anomali": 1.37,
"s2_feox_z": -0.05,
"satsjekk": "Automatisk bildeanalyse: ingen tydelige trekk."
}
}
]
}