{"type": "FeatureCollection", "features": [{"type": "Feature", "geometry": {"type": "Point", "coordinates": [5.23288, 59.7258]}, "properties": {"type": "gull", "okey": "4843", "name": "Moane", "objtype": "MalmRegistrering", "websub_ntext": "Gull", "sted_verif": "Y", "faktaark": "https://aps.ngu.no/pls/oradb/minres_deposit_fakta.Main?p_objid=4843&p_spraak=N", "s2_oh_z": 0.91, "s2_feox_z": 0.29}}, {"type": "Feature", "geometry": {"type": "Point", "coordinates": [5.17923, 59.69684]}, "properties": {"type": "gull", "okey": "4846", "name": "Sele", "objtype": "MalmRegistrering", "websub_ntext": "Gull", "sted_verif": "Y", "faktaark": "https://aps.ngu.no/pls/oradb/minres_deposit_fakta.Main?p_objid=4846&p_spraak=N", "s2_oh_z": 0.68, "s2_feox_z": 0.31}}, {"type": "Feature", "geometry": {"type": "Point", "coordinates": [5.25711, 59.7638]}, "properties": {"type": "gull", "okey": "4854", "name": "Oldereid", "objtype": "MalmRegistrering", "websub_ntext": "Gull", "sted_verif": "Y", "faktaark": "https://aps.ngu.no/pls/oradb/minres_deposit_fakta.Main?p_objid=4854&p_spraak=N", "s2_oh_z": 1.01, "s2_feox_z": 1.84}}, {"type": "Feature", "geometry": {"type": "Point", "coordinates": [5.22092, 59.72142]}, "properties": {"type": "gull", "okey": "4863", "name": "Bjørnavika", "objtype": "MalmRegistrering", "websub_ntext": "Gull", "sted_verif": "Y", "faktaark": "https://aps.ngu.no/pls/oradb/minres_deposit_fakta.Main?p_objid=4863&p_spraak=N", "s2_oh_z": 0.68, "s2_feox_z": 1.28}}, {"type": "Feature", "geometry": {"type": "Point", "coordinates": [5.19253, 59.7206]}, "properties": {"type": "gull", "okey": "4866", "name": "Furevatnet", "objtype": "MalmRegistrering", "websub_ntext": "Gull", "sted_verif": "Y", "faktaark": "https://aps.ngu.no/pls/oradb/minres_deposit_fakta.Main?p_objid=4866&p_spraak=N", "s2_oh_z": 2.07, "s2_feox_z": 2.44}}, {"type": "Feature", "geometry": {"type": "Point", "coordinates": [5.1767, 59.71276]}, "properties": {"type": "gull", "okey": "4731", "name": "Bømlo", "objtype": "MalmRegistrering", "websub_ntext": "Gull", "sted_verif": "", "faktaark": "https://aps.ngu.no/pls/oradb/minres_deposit_fakta.Main?p_objid=4731&p_spraak=N", "s2_oh_z": 1.31, "s2_feox_z": 4.21}}, {"type": "Feature", "geometry": {"type": "Point", "coordinates": [5.20464, 59.73937]}, "properties": {"type": "gull", "okey": "4745", "name": "NORDNESET", "objtype": "MalmRegistrering", "websub_ntext": "Gull", "sted_verif": "", "faktaark": "https://aps.ngu.no/pls/oradb/minres_deposit_fakta.Main?p_objid=4745&p_spraak=N", "s2_oh_z": 4.66, "s2_feox_z": 2.3}}, {"type": "Feature", "geometry": {"type": "Point", "coordinates": [5.12827, 59.72995]}, "properties": {"type": "gull", "okey": "4751", "name": "HISKJO", "objtype": "MalmRegistrering", "websub_ntext": "Gull", "sted_verif": "", "faktaark": "https://aps.ngu.no/pls/oradb/minres_deposit_fakta.Main?p_objid=4751&p_spraak=N", "s2_oh_z": 0.41, "s2_feox_z": 0.86}}, {"type": "Feature", "geometry": {"type": "Point", "coordinates": [5.2211, 59.72771]}, "properties": {"type": "gull", "okey": "4845", "name": "Hovdahalla", "objtype": "MalmRegistrering", "websub_ntext": "Gull", "sted_verif": "Y", "faktaark": "https://aps.ngu.no/pls/oradb/minres_deposit_fakta.Main?p_objid=4845&p_spraak=N", "s2_oh_z": null, "s2_feox_z": null}}, {"type": "Feature", "geometry": {"type": "Point", "coordinates": [5.16789, 59.71044]}, "properties": {"type": "gull", "okey": "4733", "name": "BØMLO", "objtype": "MalmRegistrering", "websub_ntext": "Gull", "sted_verif": "Y", "faktaark": "https://aps.ngu.no/pls/oradb/minres_deposit_fakta.Main?p_objid=4733&p_spraak=N", "s2_oh_z": 1.52, "s2_feox_z": 1.36}}, {"type": "Feature", "geometry": {"type": "Point", "coordinates": [5.1771, 59.69992]}, "properties": {"type": "gull", "okey": "4738", "name": "BØMLO", "objtype": "MalmRegistrering", "websub_ntext": "Gull", "sted_verif": "", "faktaark": "https://aps.ngu.no/pls/oradb/minres_deposit_fakta.Main?p_objid=4738&p_spraak=N", "s2_oh_z": 1.96, "s2_feox_z": 1.17}}, {"type": "Feature", "geometry": {"type": "Point", "coordinates": [5.18635, 59.7748]}, "properties": {"type": "gull", "okey": "4750", "name": "Meland", "objtype": "MalmRegistrering", "websub_ntext": "Gull", "sted_verif": "", "faktaark": "https://aps.ngu.no/pls/oradb/minres_deposit_fakta.Main?p_objid=4750&p_spraak=N", "s2_oh_z": 1.26, "s2_feox_z": 0.11}}, {"type": "Feature", "geometry": {"type": "Point", "coordinates": [5.16574, 59.70475]}, "properties": {"type": "gull", "okey": "4732", "name": "Bømlo, H. Hårfagres gang", "objtype": "MalmRegistrering", "websub_ntext": "Gull", "sted_verif": "Y", "faktaark": "https://aps.ngu.no/pls/oradb/minres_deposit_fakta.Main?p_objid=4732&p_spraak=N", "s2_oh_z": 0.69, "s2_feox_z": 1.22}}, {"type": "Feature", "geometry": {"type": "Point", "coordinates": [5.16948, 59.70887]}, "properties": {"type": "gull", "okey": "4735", "name": "Bømlo, Daw", "objtype": "MalmRegistrering", "websub_ntext": "Gull", "sted_verif": "Y", "faktaark": "https://aps.ngu.no/pls/oradb/minres_deposit_fakta.Main?p_objid=4735&p_spraak=N", "s2_oh_z": 0.69, "s2_feox_z": 1.36}}, {"type": "Feature", "geometry": {"type": "Point", "coordinates": [5.16988, 59.7097]}, "properties": {"type": "gull", "okey": "4736", "name": "Bømlo, Oscargangen", "objtype": "MalmRegistrering", "websub_ntext": "Gull", "sted_verif": "Y", "faktaark": "https://aps.ngu.no/pls/oradb/minres_deposit_fakta.Main?p_objid=4736&p_spraak=N", "s2_oh_z": 0.65, "s2_feox_z": 1.36}}, {"type": "Feature", "geometry": {"type": "Point", "coordinates": [5.16804, 59.70997]}, "properties": {"type": "gull", "okey": "4733", "name": "BØMLO", "objtype": "MalmRegistrering", "websub_ntext": "Gull", "sted_verif": "Y", "faktaark": "https://aps.ngu.no/pls/oradb/minres_deposit_fakta.Main?p_objid=4733&p_spraak=N", "s2_oh_z": 1.52, "s2_feox_z": 1.36}}, {"type": "Feature", "geometry": {"type": "Point", "coordinates": [5.2327, 59.72523]}, "properties": {"type": "gull", "okey": "4843", "name": "Moane", "objtype": "MalmRegistrering", "websub_ntext": "Gull", "sted_verif": "Y", "faktaark": "https://aps.ngu.no/pls/oradb/minres_deposit_fakta.Main?p_objid=4843&p_spraak=N", "s2_oh_z": 1.88, "s2_feox_z": 0.45}}, {"type": "Feature", "geometry": {"type": "Point", "coordinates": [5.16851, 59.70928]}, "properties": {"type": "gull", "okey": "4734", "name": "Haugesundgangen", "objtype": "MalmRegistrering", "websub_ntext": "Gull", "sted_verif": "Y", "faktaark": "https://aps.ngu.no/pls/oradb/minres_deposit_fakta.Main?p_objid=4734&p_spraak=N", "s2_oh_z": 0.59, "s2_feox_z": 1.36}}, {"type": "Feature", "geometry": {"type": "Point", "coordinates": [5.24366, 59.7499]}, "properties": {"type": "gull", "okey": "4867", "name": "T-krysset", "objtype": "MalmRegistrering", "websub_ntext": "Gull", "sted_verif": "Y", "faktaark": "https://aps.ngu.no/pls/oradb/minres_deposit_fakta.Main?p_objid=4867&p_spraak=N", "s2_oh_z": 0.56, "s2_feox_z": 0.82}}, {"type": "Feature", "geometry": {"type": "Point", "coordinates": [5.16558, 59.76161]}, "properties": {"type": "basemetall", "s2_oh_z": 1.22, "s2_feox_z": 2.43}}, {"type": "Feature", "geometry": {"type": "Point", "coordinates": [5.27453, 59.75936]}, "properties": {"type": "basemetall", "s2_oh_z": 3.98, "s2_feox_z": 2.16}}, {"type": "Feature", "geometry": {"type": "Point", "coordinates": [5.31858, 59.86891]}, "properties": {"type": "basemetall", "s2_oh_z": 4.69, "s2_feox_z": 4.29}}, {"type": "Feature", "geometry": {"type": "Point", "coordinates": [5.33294, 59.8765]}, "properties": {"type": "basemetall", "s2_oh_z": 2.76, "s2_feox_z": 2.42}}, {"type": "Feature", "geometry": {"type": "Point", "coordinates": [5.31471, 59.89577]}, "properties": {"type": "basemetall", "s2_oh_z": 3.23, "s2_feox_z": 1.11}}, {"type": "Feature", "geometry": {"type": "Point", "coordinates": [5.37193, 59.85511]}, "properties": {"type": "basemetall", "s2_oh_z": 0.39, "s2_feox_z": 1.07}}, {"type": "Feature", "geometry": {"type": "Point", "coordinates": [5.2287, 59.72344]}, "properties": {"type": "basemetall", "s2_oh_z": 1.88, "s2_feox_z": 0.3}}, {"type": "Feature", "geometry": {"type": "Point", "coordinates": [5.24844, 59.7458]}, "properties": {"type": "basemetall", "s2_oh_z": 2.5, "s2_feox_z": -0.8}}, {"type": "Feature", "geometry": {"type": "Point", "coordinates": [5.25651, 59.76918]}, "properties": {"type": "basemetall", "s2_oh_z": 5.39, "s2_feox_z": -0.36}}, {"type": "Feature", "geometry": {"type": "Point", "coordinates": [5.30086, 59.80325]}, "properties": {"type": "basemetall", "s2_oh_z": 3.45, "s2_feox_z": -0.07}}, {"type": "Feature", "geometry": {"type": "Point", "coordinates": [5.2546, 59.76239]}, "properties": {"type": "basemetall", "s2_oh_z": 0.9, "s2_feox_z": 0.94}}, {"type": "Feature", "geometry": {"type": "Point", "coordinates": [5.17574, 59.69628]}, "properties": {"type": "basemetall", "s2_oh_z": 0.62, "s2_feox_z": 0.76}}, {"type": "Feature", "geometry": {"type": "Point", "coordinates": [5.37807, 59.85618]}, "properties": {"type": "basemetall", "s2_oh_z": 0.43, "s2_feox_z": 0.87}}, {"type": "Feature", "geometry": {"type": "Point", "coordinates": [5.20437, 59.77308]}, "properties": {"type": "basemetall", "s2_oh_z": 0.73, "s2_feox_z": 0.68}}, {"type": "Feature", "geometry": {"type": "Point", "coordinates": [5.19261, 59.72779]}, "properties": {"type": "basemetall", "s2_oh_z": 0.36, "s2_feox_z": 1.15}}, {"type": "Feature", "geometry": {"type": "Point", "coordinates": [5.22358, 59.72149]}, "properties": {"type": "basemetall", "s2_oh_z": 0.68, "s2_feox_z": 1.28}}, {"type": "Feature", "geometry": {"type": "Point", "coordinates": [5.24299, 59.72295]}, "properties": {"type": "basemetall", "s2_oh_z": 2.78, "s2_feox_z": 1.05}}, {"type": "Feature", "geometry": {"type": "Point", "coordinates": [5.22588, 59.72471]}, "properties": {"type": "basemetall", "s2_oh_z": -0.59, "s2_feox_z": -0.05}}, {"type": "Feature", "geometry": {"type": "Point", "coordinates": [5.24476, 59.72781]}, "properties": {"type": "basemetall", "s2_oh_z": 3.74, "s2_feox_z": 0.44}}, {"type": "Feature", "geometry": {"type": "Point", "coordinates": [5.17708, 59.7624]}, "properties": {"type": "basemetall", "s2_oh_z": 1.62, "s2_feox_z": 1.19}}, {"type": "Feature", "geometry": {"type": "Point", "coordinates": [5.1548, 59.77793]}, "properties": {"type": "basemetall", "s2_oh_z": -0.11, "s2_feox_z": -0.09}}, {"type": "Feature", "geometry": {"type": "Point", "coordinates": [5.51288, 59.77175]}, "properties": {"type": "basemetall", "s2_oh_z": 1.68, "s2_feox_z": 0.95}}, {"type": "Feature", "geometry": {"type": "Point", "coordinates": [5.42265, 59.79044]}, "properties": {"type": "basemetall", "s2_oh_z": 0.53, "s2_feox_z": 2.2}}, {"type": "Feature", "geometry": {"type": "Point", "coordinates": [5.41571, 59.78037]}, "properties": {"type": "basemetall", "s2_oh_z": 6.28, "s2_feox_z": -1.41}}, {"type": "Feature", "geometry": {"type": "Point", "coordinates": [5.42246, 59.79223]}, "properties": {"type": "basemetall", "s2_oh_z": 0.2, "s2_feox_z": 0.49}}, {"type": "Feature", "geometry": {"type": "Point", "coordinates": [5.42441, 59.7824]}, "properties": {"type": "basemetall", "s2_oh_z": 3.63, "s2_feox_z": -1.48}}, {"type": "Feature", "geometry": {"type": "Point", "coordinates": [5.41031, 59.83055]}, "properties": {"type": "basemetall", "s2_oh_z": 0.9, "s2_feox_z": 1.23}}, {"type": "Feature", "geometry": {"type": "Point", "coordinates": [5.59497, 59.83187]}, "properties": {"type": "basemetall", "s2_oh_z": 3.73, "s2_feox_z": 2.07}}, {"type": "Feature", "geometry": {"type": "Point", "coordinates": [5.57348, 59.90186]}, "properties": {"type": "basemetall", "s2_oh_z": 3.03, "s2_feox_z": 0.88}}, {"type": "Feature", "geometry": {"type": "Point", "coordinates": [5.36112, 59.83145]}, "properties": {"type": "basemetall", "s2_oh_z": 2.02, "s2_feox_z": 2.23}}, {"type": "Feature", "geometry": {"type": "Point", "coordinates": [5.18138, 59.70139]}, "properties": {"type": "basemetall", "s2_oh_z": 3.43, "s2_feox_z": 3.7}}, {"type": "Feature", "geometry": {"type": "Point", "coordinates": [5.23674, 59.73895]}, "properties": {"type": "basemetall", "s2_oh_z": 1.58, "s2_feox_z": 2.1}}, {"type": "Feature", "geometry": {"type": "Point", "coordinates": [5.52963, 59.79062]}, "properties": {"type": "basemetall", "s2_oh_z": 1.38, "s2_feox_z": 1.25}}, {"type": "Feature", "geometry": {"type": "Point", "coordinates": [5.42032, 59.78723]}, "properties": {"type": "basemetall", "s2_oh_z": 4.29, "s2_feox_z": 0.32}}, {"type": "Feature", "geometry": {"type": "Point", "coordinates": [5.43579, 59.77597]}, "properties": {"type": "basemetall", "s2_oh_z": 3.75, "s2_feox_z": -0.8}}, {"type": "Feature", "geometry": {"type": "Point", "coordinates": [5.52324, 59.87762]}, "properties": {"type": "basemetall", "s2_oh_z": 2.08, "s2_feox_z": 0.69}}, {"type": "Feature", "geometry": {"type": "Point", "coordinates": [5.12568, 59.68946]}, "properties": {"type": "basemetall", "s2_oh_z": 1.32, "s2_feox_z": 0.65}}, {"type": "Feature", "geometry": {"type": "Point", "coordinates": [5.16465, 59.77124]}, "properties": {"type": "basemetall", "s2_oh_z": 6.24, "s2_feox_z": 1.97}}, {"type": "Feature", "geometry": {"type": "Point", "coordinates": [5.35429, 59.86138]}, "properties": {"type": "basemetall", "s2_oh_z": null, "s2_feox_z": null}}, {"type": "Feature", "geometry": {"type": "Point", "coordinates": [5.22316, 59.75554]}, "properties": {"type": "basemetall", "s2_oh_z": 1.45, "s2_feox_z": -0.11}}, {"type": "Feature", "geometry": {"type": "Point", "coordinates": [5.25036, 59.75238]}, "properties": {"type": "basemetall", "s2_oh_z": 1.78, "s2_feox_z": 2.36}}, {"type": "Feature", "geometry": {"type": "Point", "coordinates": [5.23346, 59.74222]}, "properties": {"type": "basemetall", "s2_oh_z": 1.92, "s2_feox_z": 2.87}}, {"type": "Feature", "geometry": {"type": "Point", "coordinates": [5.22631, 59.73268]}, "properties": {"type": "basemetall", "s2_oh_z": 1.86, "s2_feox_z": 0.5}}]}