<?xml version="1.0" encoding="UTF-8"?>
<kml xmlns="http://www.opengis.net/kml/2.2"><Document>
<name>GULLØYE – Leirvik</name>
<Style id="kA"><IconStyle><color>ff2b39c0</color><scale>1.1</scale></IconStyle></Style>
<Style id="kB"><IconStyle><color>ff227ee6</color><scale>1.1</scale></IconStyle></Style>
<Style id="kC"><IconStyle><color>ff0fc4f1</color><scale>1.1</scale></IconStyle></Style>
<Placemark><name>1A Steingjelsheddo (Vadelva)</name><styleUrl>#kA</styleUrl><description>P=85. Foss/stryk rett oppstrøms (20 m fall på 100 m) – fossekulp og fjell i dagen. Os: sideelv kommer inn her – grus og tyngre materiale legges i osen og bankehodet nedenfor. Skarp sving – grav på innersvingen og bak store steiner. Berggrunn: Grønnskifer (100 % gunstig oppstrøms). Lett: bilvei 82 m unna (service). Parkering 76 m unna.</description><Point><coordinates>5.46954,59.84529,0</coordinates></Point></Placemark>
<Placemark><name>2A Vad (Vatnaelva)</name><styleUrl>#kA</styleUrl><description>P=85. Foss/stryk rett oppstrøms (7 m fall på 100 m) – fossekulp og fjell i dagen. Os: sideelv kommer inn her – grus og tyngre materiale legges i osen og bankehodet nedenfor. Skarp sving – grav på innersvingen og bak store steiner. Berggrunn: Sandstein (100 % gunstig oppstrøms). Lett: bilvei 97 m unna (Vadvegen).</description><Point><coordinates>5.47690,59.81720,0</coordinates></Point></Placemark>
<Placemark><name>3A Årbø (Tveitaelva)</name><styleUrl>#kA</styleUrl><description>P=77. Foss/stryk rett oppstrøms (6 m fall på 100 m) – fossekulp og fjell i dagen. Os: sideelv kommer inn her – grus og tyngre materiale legges i osen og bankehodet nedenfor. Skarp sving – grav på innersvingen og bak store steiner. Berggrunn: Grønnstein (68 % gunstig oppstrøms). Lett: bilvei 140 m unna (track). Parkering 576 m unna.</description><Point><coordinates>5.35493,59.87819,0</coordinates></Point></Placemark>
<Placemark><name>4A Vatna (Vatnaelva)</name><styleUrl>#kA</styleUrl><description>P=71. Foss/stryk rett oppstrøms (5 m fall på 100 m) – fossekulp og fjell i dagen. Berggrunn: Sandstein (100 % gunstig oppstrøms). Lett: bilvei 17 m unna (Vatnadalsvegen).</description><Point><coordinates>5.47141,59.80394,0</coordinates></Point></Placemark>
<Placemark><name>5B Jøtulbrutjørna (Rydlandselva)</name><styleUrl>#kB</styleUrl><description>P=67. Foss/stryk rett oppstrøms (5 m fall på 100 m) – fossekulp og fjell i dagen. Berggrunn: Felsisk vulkansk bergart (100 % gunstig oppstrøms). Kort gange: bilvei 187 m unna. Parkering 1149 m unna.</description><Point><coordinates>5.35557,59.87088,0</coordinates></Point></Placemark>
<Placemark><name>6B Eikekleiv (Vadelva)</name><styleUrl>#kB</styleUrl><description>P=66. Foss/stryk rett oppstrøms (16 m fall på 100 m) – fossekulp og fjell i dagen. Skarp sving – grav på innersvingen og bak store steiner. Berggrunn: Grønnskifer (100 % gunstig oppstrøms). Kort gange: bilvei 331 m unna. Parkering 359 m unna.</description><Point><coordinates>5.47991,59.83556,0</coordinates></Point></Placemark>
<Placemark><name>7B Vistvikelva, km 1.2</name><styleUrl>#kB</styleUrl><description>P=62. Foss/stryk rett oppstrøms (16 m fall på 100 m) – fossekulp og fjell i dagen. Os: sideelv kommer inn her – grus og tyngre materiale legges i osen og bankehodet nedenfor. Berggrunn: Metagabbro (100 % gunstig oppstrøms). Lett: bilvei 39 m unna (track).</description><Point><coordinates>5.40667,59.93229,0</coordinates></Point></Placemark>
<Placemark><name>8B Hauglandskverna (Vadelva)</name><styleUrl>#kB</styleUrl><description>P=59. Foss/stryk rett oppstrøms (5 m fall på 100 m) – fossekulp og fjell i dagen. Berggrunn: Grønnskifer (100 % gunstig oppstrøms). Lett: bilvei 17 m unna (track). Parkering 1461 m unna.</description><Point><coordinates>5.47417,59.82462,0</coordinates></Point></Placemark>
<Placemark><name>9B Bortveit (Bortveitelva)</name><styleUrl>#kB</styleUrl><description>P=59. Foss/stryk rett oppstrøms (20 m fall på 100 m) – fossekulp og fjell i dagen. Skarp sving – grav på innersvingen og bak store steiner. Berggrunn: Metagabbro (100 % gunstig oppstrøms). Lett: bilvei 59 m unna (Børtveit). Parkering 1285 m unna.</description><Point><coordinates>5.50514,59.89619,0</coordinates></Point></Placemark>
<Placemark><name>10B Bortveitsetra (Bortveitelva)</name><styleUrl>#kB</styleUrl><description>P=57. Foss/stryk rett oppstrøms (8 m fall på 100 m) – fossekulp og fjell i dagen. Os: sideelv kommer inn her – grus og tyngre materiale legges i osen og bankehodet nedenfor. Skarp sving – grav på innersvingen og bak store steiner. Berggrunn: Metagabbro (100 % gunstig oppstrøms). Lett: bilvei 67 m unna (Børtveit).</description><Point><coordinates>5.48681,59.89022,0</coordinates></Point></Placemark>
<Placemark><name>11B Årskog (Årskogelva)</name><styleUrl>#kB</styleUrl><description>P=56. Foss/stryk rett oppstrøms (20 m fall på 100 m) – fossekulp og fjell i dagen. Skarp sving – grav på innersvingen og bak store steiner. Berggrunn: Metagabbro (100 % gunstig oppstrøms). Lett: bilvei 65 m unna (Sandvikvågvegen).</description><Point><coordinates>5.33592,59.93869,0</coordinates></Point></Placemark>
<Placemark><name>12B Lomatjørna (Årskogelva)</name><styleUrl>#kB</styleUrl><description>P=56. Foss/stryk rett oppstrøms (11 m fall på 100 m) – fossekulp og fjell i dagen. Skarp sving – grav på innersvingen og bak store steiner. Berggrunn: Metagabbro (100 % gunstig oppstrøms). Kort gange: bilvei 442 m unna. Parkering 1355 m unna.</description><Point><coordinates>5.34773,59.93387,0</coordinates></Point></Placemark>
<Placemark><name>13B Grønestølen (Vistvikelva)</name><styleUrl>#kB</styleUrl><description>P=55. Foss/stryk rett oppstrøms (22 m fall på 100 m) – fossekulp og fjell i dagen. Skarp sving – grav på innersvingen og bak store steiner. Berggrunn: Metagabbro (100 % gunstig oppstrøms). Lett: bilvei 16 m unna (track).</description><Point><coordinates>5.40953,59.94226,0</coordinates></Point></Placemark>
<Placemark><name>14B Søldreid (bekk)</name><styleUrl>#kB</styleUrl><description>P=55. Foss/stryk rett oppstrøms (15 m fall på 100 m) – fossekulp og fjell i dagen. Skarp sving – grav på innersvingen og bak store steiner. Berggrunn: Grønnstein (100 % gunstig oppstrøms). Lett: bilvei 12 m unna (Nygardsvegen). Parkering 860 m unna.</description><Point><coordinates>5.33917,59.90022,0</coordinates></Point></Placemark>
<Placemark><name>15B bekk, km 0.2</name><styleUrl>#kB</styleUrl><description>P=53. Foss/stryk rett oppstrøms (26 m fall på 100 m) – fossekulp og fjell i dagen. Berggrunn: Grønnstein (100 % gunstig oppstrøms). Gange 1.0 km fra nærmeste bilvei.</description><Point><coordinates>5.39231,59.88044,0</coordinates></Point></Placemark>
<Placemark><name>16B Tveitaelva, km 1.7</name><styleUrl>#kB</styleUrl><description>P=46. Foss/stryk rett oppstrøms (21 m fall på 100 m) – fossekulp og fjell i dagen. Skarp sving – grav på innersvingen og bak store steiner. Berggrunn: Grønnstein (68 % gunstig oppstrøms). Gange 0.7 km fra nærmeste bilvei.</description><Point><coordinates>5.37422,59.88248,0</coordinates></Point></Placemark>
<Placemark><name>17B Volden (Fitjarelva)</name><styleUrl>#kB</styleUrl><description>P=45. Foss/stryk rett oppstrøms (7 m fall på 100 m) – fossekulp og fjell i dagen. Os: Kråbekken kommer inn her – grus og tyngre materiale legges i osen og bankehodet nedenfor. Berggrunn: Granitt (35 % gunstig oppstrøms). Lett: bilvei 89 m unna (Kvednavegen). Parkering 540 m unna.</description><Point><coordinates>5.34075,59.91252,0</coordinates></Point></Placemark>
<Placemark><name>18C Tråvås (bekk)</name><styleUrl>#kC</styleUrl><description>P=43. Foss/stryk rett oppstrøms (28 m fall på 100 m) – fossekulp og fjell i dagen. Berggrunn: Glimmerskifer (100 % gunstig oppstrøms). Lett: bilvei 131 m unna (Tittelsnesvegen). Parkering 171 m unna.</description><Point><coordinates>5.48496,59.67834,0</coordinates></Point></Placemark>
<Placemark><name>19C Bortveitsetra (Bortveitelva)</name><styleUrl>#kC</styleUrl><description>P=42. Foss/stryk rett oppstrøms (10 m fall på 100 m) – fossekulp og fjell i dagen. Berggrunn: Metagabbro (100 % gunstig oppstrøms). Lett: bilvei 22 m unna (track).</description><Point><coordinates>5.49010,59.89655,0</coordinates></Point></Placemark>
<Placemark><name>20C Ådnetjørna (Tveitaelva)</name><styleUrl>#kC</styleUrl><description>P=41. Foss/stryk rett oppstrøms (9 m fall på 100 m) – fossekulp og fjell i dagen. Berggrunn: Grønnstein (68 % gunstig oppstrøms). Gange 1.0 km fra nærmeste bilvei.</description><Point><coordinates>5.38291,59.89121,0</coordinates></Point></Placemark>
</Document></kml>