<?xml version="1.0" encoding="UTF-8"?>
<gpx version="1.1" creator="gulloye" xmlns="http://www.topografix.com/GPX/1/1">
  <wpt lat="59.84529" lon="5.46954"><name>1 A – Steingjelsheddo (Vadelva)</name><desc>Foss/stryk rett oppstrøms (20 m fall på 100 m) – fossekulp og fjell i dagen. Os: sideelv kommer inn her – grus og tyngre materiale legges i osen og bankehodet nedenfor. Skarp sving – grav på innersvingen og bak store steiner. Berggrunn: Grønnskifer (100 % gunstig oppstrøms).</desc></wpt>
  <wpt lat="59.81720" lon="5.47690"><name>2 A – Vad (Vatnaelva)</name><desc>Foss/stryk rett oppstrøms (7 m fall på 100 m) – fossekulp og fjell i dagen. Os: sideelv kommer inn her – grus og tyngre materiale legges i osen og bankehodet nedenfor. Skarp sving – grav på innersvingen og bak store steiner. Berggrunn: Sandstein (100 % gunstig oppstrøms).</desc></wpt>
  <wpt lat="59.87819" lon="5.35493"><name>3 A – Årbø (Tveitaelva)</name><desc>Foss/stryk rett oppstrøms (6 m fall på 100 m) – fossekulp og fjell i dagen. Os: sideelv kommer inn her – grus og tyngre materiale legges i osen og bankehodet nedenfor. Skarp sving – grav på innersvingen og bak store steiner. Berggrunn: Grønnstein (68 % gunstig oppstrøms).</desc></wpt>
  <wpt lat="59.80394" lon="5.47141"><name>4 A – Vatna (Vatnaelva)</name><desc>Foss/stryk rett oppstrøms (5 m fall på 100 m) – fossekulp og fjell i dagen. Berggrunn: Sandstein (100 % gunstig oppstrøms).</desc></wpt>
  <wpt lat="59.87088" lon="5.35557"><name>5 B – Jøtulbrutjørna (Rydlandselva)</name><desc>Foss/stryk rett oppstrøms (5 m fall på 100 m) – fossekulp og fjell i dagen. Berggrunn: Felsisk vulkansk bergart (100 % gunstig oppstrøms).</desc></wpt>
  <wpt lat="59.83556" lon="5.47991"><name>6 B – Eikekleiv (Vadelva)</name><desc>Foss/stryk rett oppstrøms (16 m fall på 100 m) – fossekulp og fjell i dagen. Skarp sving – grav på innersvingen og bak store steiner. Berggrunn: Grønnskifer (100 % gunstig oppstrøms).</desc></wpt>
  <wpt lat="59.93229" lon="5.40667"><name>7 B – Vistvikelva, km 1.2</name><desc>Foss/stryk rett oppstrøms (16 m fall på 100 m) – fossekulp og fjell i dagen. Os: sideelv kommer inn her – grus og tyngre materiale legges i osen og bankehodet nedenfor. Berggrunn: Metagabbro (100 % gunstig oppstrøms).</desc></wpt>
  <wpt lat="59.82462" lon="5.47417"><name>8 B – Hauglandskverna (Vadelva)</name><desc>Foss/stryk rett oppstrøms (5 m fall på 100 m) – fossekulp og fjell i dagen. Berggrunn: Grønnskifer (100 % gunstig oppstrøms).</desc></wpt>
  <wpt lat="59.89619" lon="5.50514"><name>9 B – Bortveit (Bortveitelva)</name><desc>Foss/stryk rett oppstrøms (20 m fall på 100 m) – fossekulp og fjell i dagen. Skarp sving – grav på innersvingen og bak store steiner. Berggrunn: Metagabbro (100 % gunstig oppstrøms).</desc></wpt>
  <wpt lat="59.89022" lon="5.48681"><name>10 B – Bortveitsetra (Bortveitelva)</name><desc>Foss/stryk rett oppstrøms (8 m fall på 100 m) – fossekulp og fjell i dagen. Os: sideelv kommer inn her – grus og tyngre materiale legges i osen og bankehodet nedenfor. Skarp sving – grav på innersvingen og bak store steiner. Berggrunn: Metagabbro (100 % gunstig oppstrøms).</desc></wpt>
  <wpt lat="59.93869" lon="5.33592"><name>11 B – Årskog (Årskogelva)</name><desc>Foss/stryk rett oppstrøms (20 m fall på 100 m) – fossekulp og fjell i dagen. Skarp sving – grav på innersvingen og bak store steiner. Berggrunn: Metagabbro (100 % gunstig oppstrøms).</desc></wpt>
  <wpt lat="59.93387" lon="5.34773"><name>12 B – Lomatjørna (Årskogelva)</name><desc>Foss/stryk rett oppstrøms (11 m fall på 100 m) – fossekulp og fjell i dagen. Skarp sving – grav på innersvingen og bak store steiner. Berggrunn: Metagabbro (100 % gunstig oppstrøms).</desc></wpt>
  <wpt lat="59.94226" lon="5.40953"><name>13 B – Grønestølen (Vistvikelva)</name><desc>Foss/stryk rett oppstrøms (22 m fall på 100 m) – fossekulp og fjell i dagen. Skarp sving – grav på innersvingen og bak store steiner. Berggrunn: Metagabbro (100 % gunstig oppstrøms).</desc></wpt>
  <wpt lat="59.90022" lon="5.33917"><name>14 B – Søldreid (bekk)</name><desc>Foss/stryk rett oppstrøms (15 m fall på 100 m) – fossekulp og fjell i dagen. Skarp sving – grav på innersvingen og bak store steiner. Berggrunn: Grønnstein (100 % gunstig oppstrøms).</desc></wpt>
  <wpt lat="59.88044" lon="5.39231"><name>15 B – bekk, km 0.2</name><desc>Foss/stryk rett oppstrøms (26 m fall på 100 m) – fossekulp og fjell i dagen. Berggrunn: Grønnstein (100 % gunstig oppstrøms).</desc></wpt>
  <wpt lat="59.88248" lon="5.37422"><name>16 B – Tveitaelva, km 1.7</name><desc>Foss/stryk rett oppstrøms (21 m fall på 100 m) – fossekulp og fjell i dagen. Skarp sving – grav på innersvingen og bak store steiner. Berggrunn: Grønnstein (68 % gunstig oppstrøms).</desc></wpt>
  <wpt lat="59.91252" lon="5.34075"><name>17 B – Volden (Fitjarelva)</name><desc>Foss/stryk rett oppstrøms (7 m fall på 100 m) – fossekulp og fjell i dagen. Os: Kråbekken kommer inn her – grus og tyngre materiale legges i osen og bankehodet nedenfor. Berggrunn: Granitt (35 % gunstig oppstrøms).</desc></wpt>
  <wpt lat="59.67834" lon="5.48496"><name>18 C – Tråvås (bekk)</name><desc>Foss/stryk rett oppstrøms (28 m fall på 100 m) – fossekulp og fjell i dagen. Berggrunn: Glimmerskifer (100 % gunstig oppstrøms).</desc></wpt>
  <wpt lat="59.89655" lon="5.49010"><name>19 C – Bortveitsetra (Bortveitelva)</name><desc>Foss/stryk rett oppstrøms (10 m fall på 100 m) – fossekulp og fjell i dagen. Berggrunn: Metagabbro (100 % gunstig oppstrøms).</desc></wpt>
  <wpt lat="59.89121" lon="5.38291"><name>20 C – Ådnetjørna (Tveitaelva)</name><desc>Foss/stryk rett oppstrøms (9 m fall på 100 m) – fossekulp og fjell i dagen. Berggrunn: Grønnstein (68 % gunstig oppstrøms).</desc></wpt>
</gpx>